road_id,postcode,name,locality,city
3080287,9812,Aadies Way,Newfield,Invercargill
1810801,3083,Aard Avenue,Reporoa,
1800751,5032,Aaron Court,Paraparaumu Beach,Paraparaumu
1788560,7183,Aaron Creek Road,Upper Takaka,Takaka
1813813,3110,Aaron Place,Brookfield,Tauranga
1789410,7096,Aaron Road,Golden Downs,Wakefield
1832934,2016,Aaronville Way,East Tamaki,Auckland
1828235,2102,Aarts Avenue,Manurewa,Auckland
3050847,0118,Aarts Place,One Tree Point,Whangarei
3083293,7005,Aata Lane,Mapua,
3059530,1060,Abattoir Lane,"Mount Wellington,Otahuhu",Auckland
1801210,4795,Abattoir Road,Taihape,
1806740,3574,Abattoir Road,Turua,Ngatea
1787850,7825,Abattoir Road,Westport,
1839932,0112,Abba Lane,Tikipunga,Whangarei
1833845,8014,Abberfield Lane,St Albans,Christchurch
1786754,8014,Abberley Crescent,St Albans,Christchurch
3042475,0175,Abbey Caves Road,"Abbey Caves,Whareora","Whangarei,Whareora"
3078868,9018,Abbeyfield Close,Abbotsford,Dunedin
1821692,0626,Abbeygate Street,Birkdale,Auckland
1771984,9010,Abbeyhill Road,Pine Hill,Dunedin
1786751,8013,Abbey Place,Mairehau,Christchurch
3018093,1010,Abbey Street,"Auckland Central,Grey Lynn",Auckland
1815980,3110,Abbey Way,Judea,Tauranga
1841813,7120,Abbey Way,Motueka,
1815722,3330,Abbey Way,Rangatira Park,Taupo
1838525,5024,Abbey Way,Whitby,Porirua
1839336,3210,Abbie Lane,Rototuna,Hamilton
1803004,4210,Abbot Avenue,Waipawa,
1831365,0610,Abbotleigh Avenue,Te Atatu Peninsula,Auckland
1806741,3574,Abbot Road,Pipiroa,Ngatea
1772720,9018,Abbotsford Road,Green Island,Dunedin
1795271,5889,Abbotsford Road,Tauweru,Masterton
1804296,4210,Abbotsford Road,Waipawa,
1771189,9500,Abbotsford Street,Roxburgh,
1795273,5889,Abbotsford Street,Tauweru,Masterton
1807435,3200,Abbotsford Street,Whitiora,Hamilton
1821861,0624,Abbotsford Terrace,Devonport,Auckland
1796734,4501,Abbot Street,Gonville,Whanganui
1776604,9810,Abbot Street,Waverley,Invercargill
1826295,0110,Abbots Way,Raumanga,Whangarei
1799639,5032,Abbott Court,Paraparaumu,
1814301,3682,Abbott Road,Waikino,Waihi
1770135,9018,Abbotts Hill Road,Abbotsford,Dunedin
1784680,8042,Abbotts Place,Avonhead,Christchurch
1800488,6035,Abbott Street,Ngaio,Wellington
3053940,7912,Abbott Street,Pareora,
1802213,4010,Abbott Street,Te Hapara,Gisborne
1804294,4210,Abbott Street,Waipawa,
1818401,1050,Abbotts Way,Remuera,Auckland
1816776,9371,Abbottswood Lane,Lower Shotover,Queenstown
1840327,2120,Abby Close,Pukekohe,
1799680,4410,Abby Road,Fitzherbert,Palmerston North
1839036,5024,Abel Glen,Aotea,Porirua
1813571,3116,Abelia Avenue,Mount Maunganui,
1828253,2025,Abelia Place,Papatoetoe,Auckland
1818709,0871,Abel Road,Helensville,
3055161,6011,Abel Smith Street,"Aro Valley,Te Aro",Wellington
1822810,0610,Abel Tasman Avenue,Henderson,Auckland
1789264,,Abel Tasman Drive,"Clifton,Ligar Bay,Motupipi,Pohara,Takaka,Tata Beach,Wainui Bay",Takaka
1773173,9597,Aberafon Street,Middlemarch,
1812283,3420,Abercorn Place,Tokoroa,
1827976,2014,Abercrombie Street,Howick,Auckland
1773574,9220,Abercrombie Street,Milton,
1804601,4291,Abercromby Street,Porangahau,
3051503,9371,Aberdare Court,Jacks Point,Queenstown
1842858,8025,Aberdare Street,Halswell,Christchurch
1799267,4412,Aberdeen Avenue,Takaro,Palmerston North
1838824,2103,Aberdeen Crescent,Wattle Downs,Auckland
1807754,3204,Aberdeen Drive,Dinsdale,Hamilton
3084289,3178,Aberdeen Lane,Aongatete,
3081560,7410,Aberdeen Place,Amberley,
1806623,3620,Aberdeen Place,Whangamata,
3018965,0620,Aberdeen Road,"Campbells Bay,Castor Bay",Auckland
3018964,4010,Aberdeen Road,"Gisborne,Te Hapara",Gisborne
1839433,7604,Aberdeen Road,Prebbleton,
1771996,9012,Aberdeen Road,Saint Clair,Dunedin
1783302,8013,Aberdeen Street,Christchurch Central,Christchurch
1808788,3116,Aberdeen Street,Mount Maunganui,
1775464,9510,Aberdeen Street,Waikouaiti,
3070610,2010,Aberfeldy Avenue,"Bucklands Beach,Highland Park",Auckland
3037392,9011,Aberfeldy Street,"Calton Hill,Lookout Point",Dunedin
1800101,5024,Aberfeldy Street,Cannons Creek,Porirua
1787010,8083,Aberfoyle Place,Parklands,Christchurch
1812281,3420,Aberfoyle Place,Tokoroa,
1807821,3204,Aberfoyle Street,"Dinsdale,Nawton",Hamilton
1824387,1023,Aberfoyle Street,Epsom,Auckland
1947610,3493,Abergeldie Way,Cambridge,
1791311,7202,Aberharts Road,Grovetown,Blenheim
1838728,0632,Aberley Road,Schnapper Rock,Auckland
3077770,2679,Abernethy Way,Patumahoe,Pukekohe
1794415,6037,Abilene Crescent,Churton Park,Wellington
1835292,2105,Abilene Place,Manurewa,Auckland
1776005,8042,Abingdon Court,Avonhead,Christchurch
1824375,1071,Abingdon Place,Glendowie,Auckland
1774307,9024,Abingdon Place,Mosgiel,
1806678,3500,Abingdon Place,Thames,
1856052,7615,Abington Way,Rolleston,
1829726,2024,Abiru Crescent,Favona,Auckland
1799272,4414,Abraham Crescent,Milson,Palmerston North
1788443,7010,Abraham Heights,"Toi Toi,Washington Valley",Nelson
3070346,1072,Abraham Place,Saint Johns,Auckland
1820132,0476,Abraham Road,Mangamuka,Okaihau
1836070,3591,Abrahamson Drive,Whitianga,
1841013,0171,Abraham Street,Ruakaka,
1774098,9587,Abram Road,Park Hill,Tapanui
3082300,3611,Abre Lane,Waihi Beach,
1785786,8053,Abros Place,Burnside,Christchurch
3081663,3214,Absolum Crescent,Chartwell,Hamilton
3013361,5032,Aburoc Place,Paraparaumu Beach,Paraparaumu
1813142,3800,Acacia Avenue,Kihikihi,Te Awamutu
1771995,9011,Acacia Avenue,Maryhill,Dunedin
1793221,5010,Acacia Avenue,Maungaraki,Lower Hutt
1837663,7400,Acacia Avenue,Rangiora,
3046717,5872,Acacia Avenue,Riversdale Beach,Masterton
1784674,8041,Acacia Avenue,Upper Riccarton,Christchurch
3007927,3330,Acacia Bay Road,"Acacia Bay,Nukuhau",Taupo
1814629,3116,Acacia Court,Mount Maunganui,
1799107,3330,Acacia Court,Nukuhau,Taupo
1838689,3510,Acacia Court,Whitianga,
1804395,3206,Acacia Crescent,Glenview,Hamilton
1781572,7973,Acacia Drive,Levels,Timaru
1832961,0110,Acacia Drive,Raumanga,Whangarei
1814060,3283,Acacia Grove,Tamahere,Hamilton
1813301,3385,Acacia Heights Drive,Acacia Bay,Taupo
1816887,4312,Acacia Place,Bell Block,New Plymouth
1809119,3110,Acacia Place,Matua,Tauranga
1810102,3076,Acacia Road,Lake Okareka,Rotorua
1821977,0632,Acacia Road,Torbay,Auckland
1799260,4414,Acacia Street,Kelvin Grove,Palmerston North
3084096,8041,Academy Courts,Ilam,Christchurch
1812541,3330,A C Baths Avenue,Tauhara,Taupo
3084205,7614,Accadia Drive,Rolleston,
3039443,3110,Accadia Lane,"Tauranga,Tauranga South",Tauranga
1830011,,Accent Drive,"East Tamaki,Flat Bush",Auckland
1807972,0230,Access Heights,Kerikeri,
1819837,0230,Access Road,Kerikeri,
1818409,,Access Road,Kumeu,
1794409,6022,Access Road,Maupuia,Wellington
1830649,0591,Access Road,Ruawai,
3022122,4795,Access Road No 17,Waiouru Military Area,Waiouru
1796497,3989,Access Road No 3,Tongariro Forest Park,
1796500,3989,Access Road No 4,Tongariro,Turangi
1796499,3382,Access Road No 5,Otukou,Turangi
1841031,4702,Accolade Street,Feilding,
3078624,0892,Accolage Boulevard,Kumeu,
3000406,7782,Accommodation Road,"Barrhill,Highbank","Lauriston,Methven"
1786203,7674,Accommodation Road,Lincoln,
3080575,2578,Accord Place,Karaka,Papakura
3084532,8051,Accrington Drive,Marshland,Christchurch
1831510,1021,Ace Place,Kingsland,Auckland
1839886,3118,Acerosa Way,Papamoa Beach,Papamoa
3030469,7572,Acheron Avenue,Lake Coleridge,
3062096,8041,Acheron Drive,"Riccarton,Upper Riccarton",Christchurch
1786090,7334,Acheron Heights,Hanmer Springs,
1837356,9304,Acheron Place,Lake Hayes,Queenstown
1792116,5026,Acheron Road,Paremata,Porirua
1796121,9600,Acheron Way,Te Anau,
1783291,8013,Acheson Avenue,"Mairehau,Shirley",Christchurch
3040892,3434,Achilles Avenue,Cambridge,
1781891,7010,Achilles Avenue,Nelson,
1771992,9012,Achilles Avenue,Saint Clair,Dunedin
1798098,5510,Achilles Avenue,Waitarere Beach,Levin
1806093,3620,Achilles Avenue,Whangamata,
1793545,5028,Achilles Close,Tawa,Wellington
1799280,4410,Achilles Court,Palmerston North,
1821863,0624,Achilles Crescent,"Devonport,Narrow Neck",Auckland
1809121,3112,Achilles Crescent,Welcome Bay,Tauranga
1799062,4720,Achilles Drive,Taihape,
1785339,7630,Achilles Parade,The Pines Beach,
1775354,9305,Achilles Place,Wanaka,
1813835,3210,Achilles Rise,Flagstaff,Hamilton
1810155,3020,Achilles Road,Mamaku,
1978392,3384,Achilles Road,Tahorakuri Forest,Reporoa
1790193,7805,Achilles Street,Blaketown,Greymouth
1783294,8061,Achilles Street,"Burwood,Dallington",Christchurch
1811916,4332,Achilles Street,Stratford,
3031999,4108,Achilles Street,Wairoa,
1770944,9310,Achil Street,Cromwell,
1777019,9876,Achison Road,"Branxholme,Ryal Bush",Invercargill
1779627,7379,Achray Road,Rotherham,
1779628,7332,Achray Street,Waiau,
1776682,9879,Ackers Road,New River Ferry,Invercargill
1809124,3110,Acklam Avenue,Otumoetai,Tauranga
1780388,7600,Ackland Avenue,Burnham,
1804600,4200,Acklin Street,Waipukurau,
1781578,7985,Ackroyd Road,Temuka,
1817228,4373,Ackworth Road,Lepperton,New Plymouth
1787443,8061,Acland Avenue,Avonside,Christchurch
1828250,2010,Acland Place,Botany Downs,Auckland
1781577,7992,Acland Street,Arundel,Geraldine
1790445,7881,Acland Street,Kokatahi,
1832791,2016,Aclare Place,East Tamaki,Auckland
1832195,2010,Acmena Lane,Pakuranga,Auckland
1785787,8023,Acorn Close,Waltham,Christchurch
1816074,3112,Acornia Close,Ohauiti,Tauranga
1838130,3300,Acorn Lane,Morrinsville,
1795708,7400,Acorn Lane,Rangiora,
1812082,7614,Acorn Place,Rolleston,
1825309,1023,Acorn Street,Royal Oak,Auckland
1842355,7011,Acorn Way,Stoke,Nelson
1817562,4610,Acourt Street,Hawera,
3055066,4817,A'Court Street,Sanson,
1836175,2113,Acqua Place,Karaka,Papakura
3081516,7608,Acrasia Street,Lincoln,
1776681,9876,Actaeon Road,Makarewa,Invercargill
1777013,9793,Acton Downs Road,Acton,
1824381,0600,Acton Place,Avondale,Auckland
1796739,4500,Acton Place,Saint Johns Hill,Whanganui
1780989,,Acton Road,"Dorie,Rakaia",
1783299,8011,Acton Street,Christchurch Central,Christchurch
1781582,7903,Acton Street,Pleasant Point,
1833839,3210,Acton Vale,Rototuna North,Hamilton
1802214,4010,Ada Beer Place,Mangapapa,Gisborne
3079442,3434,Ada Close,Cambridge,
1788985,7120,Adair Drive,Motueka,
1832840,2103,Adair Place,Weymouth,Auckland
3014775,7972,Adair Road,"Adair,Pareora West",Timaru
1790444,7886,Adair Road,Haast,
1790706,7883,Adair Road,Ruatapu,
1781576,7972,Adair Settlement Road,Adair,Timaru
1802212,4010,Adair Street,Whataupoko,Gisborne
1794407,6037,Adair Way,Johnsonville,Wellington
3083655,0793,Ada Lane,Riverhead,
1773669,9775,Adam Fleming Road,Crossans Corner,Gore
3082436,7615,Adamite Drive,Rolleston,
1785892,7773,Adam Jackson Road,"Ealing,Hinds",Ashburton
1818260,4312,Adam Lile Drive,Highlands Park,New Plymouth
1810210,3015,Adam Place,Mangakakahi,Rotorua
1808787,3116,Adams Avenue,Mount Maunganui,
1832054,2120,Adams Drive,Pukekohe,
3027038,9292,Adams Flat Road,"Crichton,Hillend,Milton","Balclutha,Milton"
1790514,7201,Adams Lane,Springlands,Blenheim
1776599,9810,Adamson Crescent,Glengarry,Invercargill
1771429,9302,Adamson Drive,Arrowtown,
1778448,9810,Adamson Place,Glengarry,Invercargill
1828242,2019,Adamson Road,Flat Bush,Auckland
1820361,0420,Adamson Road,Taipa,
1790441,7886,Adamson Road,Whataroa,
1782225,7978,Adamsons Road,Makikihi,Waimate
1795272,5889,Adams Peak Road,Mangapakeha,Masterton
1799271,4414,Adams Place,Kelvin Grove,Palmerston North
1826293,0112,Adams Place,Te Kamo,Whangarei
1786752,8023,Adams Place,Woolston,Christchurch
1830721,0474,Adams Road,Awarua,Kaikohe
1780386,7671,Adams Road,"Charing Cross,Greendale",Darfield
1773757,9274,Adams Road,Clydevale,
1806153,3575,Adams Road,"Coromandel Forest Park,Thornton Bay","Coromandel Forest Park,Thames"
1826468,0175,Adams Road,"Glenbervie,Whareora","Whangarei,Whareora"
1838618,0873,Adams Road,Kaukapakapa,
1780990,7773,Adams Road,Lowcliffe,Ashburton
1828244,2102,Adams Road,Manurewa,Auckland
1807891,3877,Adams Road,Parawera,
1827273,2676,Adams Road,Pukekohe,
1776121,9771,Adams Road,Pukerau,Gore
1780287,7683,Adams Road,Southbridge,
1782206,7978,Adams Road,Waimate,
1780666,7676,Adams Road,West Melton,
1785623,3582,Adams Road,Whangapoua,Coromandel
1802795,4010,Adams Road,Whataupoko,Gisborne
1827278,2120,Adams Road South,Pukekohe,
3020360,7700,Adams Street,"Hampstead,Netherby",Ashburton
1841958,7630,Adams Street,Kaiapoi,
1796312,4472,Adams Street,Linton,Palmerston North
1814341,3610,Adams Street,Waihi,
3058293,6021,Adams Terrace,"Aro Valley,Kelburn",Wellington
1774909,9016,Adam Street,Dunedin Central,Dunedin
1831512,1051,Adam Street,Greenlane,Auckland
1823593,0602,Adam Sunde Place,Glen Eden,Auckland
1842197,9481,Adam Sutherland Road,Goodwood,Palmerston
1814120,3214,Ada Place,Fairview Downs,Hamilton
1838642,9304,Ada Place,Lake Hayes,Queenstown
1802305,4122,Ada Street,"Havelock North,Parkvale","Hastings,Havelock North"
3073432,4410,Ada Street,"Hokowhitu,Palmerston North",Palmerston North
1824389,1050,Ada Street,Remuera,Auckland
1798095,4821,Ada Street,Shannon,
1809518,3120,Ada Vale,Whakatane,
3079913,8042,Ada Wells Court,Yaldhurst,Christchurch
1796741,4501,Addenbrooke Terrace,Springvale,Whanganui
1788105,7825,Adderley Street,Westport,
1776112,7630,Adderley Terrace,Kaiapoi,
1771994,9022,Adderley Terrace,Ravensbourne,Dunedin
1842439,7630,Addies Way,Kaiapoi,
1782228,7980,Addinell Lane,Waimate,
1828238,2102,Addington Avenue,Manurewa,Auckland
1805774,4112,Addington Place,Taradale,Napier
1795975,5581,Addington Road,Otaki,
1780384,7571,Addingtons Road,Darfield,
1841402,4010,Addison Court,Lytton West,Gisborne
1794992,3118,Addison Court,Papamoa Beach,Papamoa
1823597,0602,Addison Drive,Glendene,Auckland
1784151,8025,Addison Place,Halswell,Christchurch
1826466,0192,Addison Road,Pataua South,Parua Bay
1809509,3196,Addison Road,Waimana,
1824388,0600,Addison Street,Blockhouse Bay,Auckland
1812725,3432,Addison Street,Leamington,Cambridge
1803961,4110,Addison Street,Onekawa,Napier
1828251,2014,Addis Place,Shelly Park,Auckland
1798820,4795,Addis Road,Taihape,
1804301,4274,Addis Road,Tikokino,
3020008,,Adelaide Road,"Berhampore,Island Bay,Mount Cook,Newtown",Wellington
1805678,,Adelaide Road,Dannevirke,
1824378,1010,Adelaide Street,Auckland Central,Auckland
1780392,7571,Adelaide Street,Kirwee,
1793352,5012,Adelaide Street,Petone,Lower Hutt
1775536,9300,Adelaide Street,Queenstown,
1808418,3177,Adela Stewart Drive,Athenree,Waihi Beach
1808404,3177,Adela Stewart Drive West,Athenree,Waihi Beach
1796067,5032,Adele Lane,Paraparaumu,
1804854,4920,Adele Street,Woodville,
1835655,7197,Adele Way,Kaiteriteri,Motueka
1829826,0630,Adelie Place,Murrays Bay,Auckland
1829921,0632,Adelphi Place,Albany,Auckland
1791398,7300,Adelphi Terrace,Kaikoura,
1828243,2103,Adel Place,Weymouth,Auckland
1828252,2103,Aden Place,Clendon Park,Auckland
1842863,8025,Ader Close,Halswell,Christchurch
3069570,4371,Aderman Place,Hurworth,New Plymouth
3084413,4412,Adesanya Close,West End,Palmerston North
1787730,7472,Adian Way,Loburn,
3077741,2104,Adina Lane,Wiri,Auckland
1827674,2112,Adios Place,Conifer Grove,Takanini
1839216,0614,Aditi Close,Massey,Auckland
1801154,5510,Adkin Avenue,Levin,
3078384,2112,Adlam Lane,Takanini,Auckland
1837834,3112,Adler Drive,Ohauiti,Tauranga
3084313,7410,Adlington Lane,Amberley,
1813535,3584,Adlor Hill Road,Port Charles,Coromandel
1842222,5022,Admin Crescent,Kenepuru,Porirua
3067456,1041,Admiral Beatty Avenue,Mount Roskill,Auckland
1805833,3210,Admiral Crescent,Flagstaff,Hamilton
2004296,3591,Admiral Drive,Cooks Beach,Whitianga
3002162,4412,Admiral Place,"Highbury,Takaro",Palmerston North
3057043,5883,Admiral Road,"Admiral Hill,Gladstone",Gladstone
1832987,0632,Admirals Court Drive,Greenhithe,Auckland
1795433,5883,Admiral Station Road,Admiral Hill,Gladstone
1783300,8061,Admirals Way,New Brighton,Christchurch
1837374,7173,Admirals Way,Ruby Bay,Mapua
1840677,0204,Admiralty Drive,Haruru,
1791549,7220,Admiralty Place,Waikawa,Picton
1830097,0930,Admiralty Rise,Gulf Harbour,Whangaparaoa
1794403,6035,Admiralty Street,Crofton Downs,Wellington
3079494,0173,Admiral Way,Tutukaka,Whangarei
1804665,4974,Adolphus Street,Norsewood,
1792211,5024,Adonis Lane,Cannons Creek,Porirua
1828241,2012,Adonis Place,Half Moon Bay,Auckland
1798096,5036,Adrian Grove,Waikanae Beach,Waikanae
1783301,8061,Adrian Place,Shirley,Christchurch
1789829,7096,Adrians Road,Golden Downs,Wakefield
1812791,4332,Adrian Street,Stratford,
1805458,4999,Adrian Street,Woodville,
1822809,0612,Adriatic Avenue,Henderson,Auckland
3026994,7910,Adrienne Place,Glenwood,Timaru
1825502,1061,Adrienne Place,Onehunga,Auckland
1801280,4412,Adrien Way,Awapuni,Palmerston North
1833327,2013,Adrigole Close,East Tamaki,Auckland
1836637,3173,Adrine Lane,Ohauiti,Tauranga
1836610,9302,Advance Terrace,Arrowtown,
1830005,0632,Advance Way,Albany,Auckland
1827977,2014,Advene Road,"Cockle Bay,Shelly Park",Auckland
1792227,5024,Adventure Drive,Whitby,Porirua
1816885,4310,Adventure Street,Marfell,New Plymouth
1801746,4077,Adventure Street,Tolaga Bay,
3061817,5018,Advertiser Lane,"Elderslea,Upper Hutt Central",Upper Hutt
1792623,5018,Advocate Lane,Upper Hutt Central,Upper Hutt
1828248,2105,Advocate Place,Randwick Park,Auckland
3083319,3210,Adzebill Court,Rototuna North,Hamilton
1771652,9305,Aeolus Place,Wanaka,
3084083,7615,Aerial Road,Rolleston,
3078038,8042,Aermacchi Lane,Wigram,Christchurch
1775806,9876,Aerodrome Road,Anderson Park,Invercargill
1790738,7805,Aerodrome Road,Blaketown,Greymouth
1791310,7272,Aerodrome Road,Burleigh,Blenheim
3058779,3191,Aerodrome Road,"Coastlands,Thornton",Whakatane
1804664,4972,Aerodrome Road,Dannevirke,
3058778,4010,Aerodrome Road,"Elgin,Gisborne Airport",Gisborne
1787668,7893,Aerodrome Road,Karamea,
1795584,4071,Aerodrome Road,Matawhero,Gisborne
1808790,3116,Aerodrome Road,Mount Maunganui,
3077793,2112,Aeronautic Road,Takanini,Auckland
1842663,0794,Aeropark Drive,Dairy Flat,
1841349,3116,Aeropark Way,Mount Maunganui,
3079362,2112,Aero Place,Takanini,Auckland
1821691,0626,Aeroview Drive,Beach Haven,Auckland
1830178,2104,Aerovista Place,Wiri,Auckland
1823594,0612,Aetna Place,Henderson,Auckland
3020588,9792,Affleck Road,"Castle Downs,Mossburn","Dipton West,Mossburn"
1778168,9777,Affleck Road,Wendon,Riversdale
1781581,7903,Afghan Street,Pleasant Point,
1770470,9482,Afon Street,Moeraki,
3054153,9371,Afton Lane,Jacks Point,Queenstown
1823605,0612,Afton Place,Ranui,Auckland
1775929,9710,Afton Street,Gore,
1771991,9010,Afton Terrace,North East Valley,Dunedin
1833754,2016,Agapanthus Place,Flat Bush,Auckland
1832194,2024,Agar Place,Favona,Auckland
2014076,9384,Agate Close,Cromwell,
1792629,5018,Agate Grove,Birchville,Upper Hutt
1821976,0630,Agathis Avenue,Mairangi Bay,Auckland
3082025,8025,Agathis Crescent,Wigram,Christchurch
3083805,0814,Agave Place,Westgate,Auckland
1830946,0932,Agency Lane,Silverdale,
1815193,3420,Agincourt Place,Tokoroa,
1822482,0629,Agincourt Street,Glenfield,Auckland
1791306,7204,Agincourt Street,Renwick,
1837050,8022,Aglaia Place,Cracroft,Christchurch
3050417,5010,Aglionby Street,"Alicetown,Melling",Lower Hutt
2018174,0932,Agnes Court,Silverdale,
3068257,9011,Agnes Street,"Balaclava,Kenmure",Dunedin
1819158,0391,Agnes Street,Te Kopuru,
1780782,7700,Agnes Street,Tinwald,Ashburton
3077488,0632,Agnew Place,Albany,Auckland
1771144,9386,Agnew Road,"Ida Valley,Oturehua",Oturehua
1786576,7988,Agnew Road,Otaio,Saint Andrews
1781579,7982,Agnew Road,Totara Valley,Pleasant Point
1798821,4785,Agnews Road,Hunterville,
1771986,9016,Agnew Street,North Dunedin,Dunedin
1794422,6035,Agra Crescent,Khandallah,Wellington
1842233,2113,Agria Avenue,Karaka,Papakura
1790100,,Ahaura-Kopara Road,"Ahaura,Totara Flat",Ahaura
1790097,7871,Ahaura Street,Ahaura,
3080193,8083,Ahaura Street,Marshland,Christchurch
1790099,7872,Ahau Street,Moana,
3080738,4310,Aheahea Way,Hurworth,New Plymouth
1839462,5781,Ahearn Lane,Martinborough,
3040699,5792,Ahiaruhe Road,"Ahiaruhe,Ponatahi",Carterton
1795435,5792,Ahiaruhe Settlement Road,Ahiaruhe,Carterton
1815311,3800,Ahier Street,Te Awamutu,
1951085,0920,Ahi Kaa Lane,Snells Beach,
1833192,0373,Ahikiwi Road,Kaihu,
1795538,5794,Ahikouka Road,Ahikouka,Greytown
1801520,4078,Ahimanu Road,Tiniroto,Manutuke
1817564,4671,Ahipaipa Road,"Kapuni,Okaiawa",Hawera
1794348,0481,Ahipara Road,Ahipara,Kaitaia
3083348,2113,Ahipumau Road,Rosehill,Papakura
1802595,4091,Ahirau Road,Te Karaka,
1824377,0600,Ahiriri Avenue,Avondale,Auckland
3028342,7282,Ahitarakihi Bay,"Ahitarakihi Bay,Arapaoa Island",Marlborough Sounds
1803009,4977,Ahiweka Road,"Flemington,Ormondville",
1834006,5510,Ahmad Close,Levin,
3079624,2578,Aho Lane,Karaka,Papakura
3084725,0118,Aho Lane,One Tree Point,Whangarei
3077495,0932,Ahorangi Road,Silverdale,
1814041,3982,Ahoroa Ford East,Te Kuiti,
1815492,3910,Ahoroa Ford West,Te Kuiti,
1836724,5381,Ahoroa Road,Judgeford,Porirua
1814823,3982,Ahoroa Road,Rangitoto,Te Kuiti
1818192,4591,Ahoroa Road,Waverley,
1797170,4578,Ahu Ahu Valley Road,Paparangi,Whanganui
1840398,5791,Ahumahi Road,Waingawa,Carterton
3077762,0794,Ahumoana Road,Okura Bush,Silverdale
3079616,2578,Ahunga Road,Karaka,Papakura
3084597,2025,Ahunui Road,Middlemore Hospital,Auckland
1815673,3720,Ahurei Drive,Ngaruawahia,
1807954,3889,Ahurei Street,Kawhia,
3042889,4110,Ahuriri Bypass,Ahuriri,Napier
1770473,9412,Ahuriri Drive,Omarama,
1774430,9271,Ahuriri Flat Road,Ahuriri Flat,Kaka Point
1839015,9412,Ahuriri Heights,Omarama,
1805719,4110,Ahuriri Lane,Ahuriri,Napier
1780665,7672,Ahuriri Road,Tai Tapu,
1794414,6022,Ahuriri Street,Strathmore Park,Wellington
3049837,0981,Ahuroa Road,"Makarau,Puhoi",Warkworth
1813460,4392,Ahuroa Road,Toko,Stratford
1826462,0582,Ahuroa Road,Waipu,
1821174,0981,Ahuroa Valley Road,Makarau,Warkworth
3080604,0616,Ahuru Lane,Hobsonville,Auckland
3071487,3112,Ahuru Place,Pyes Pa,Tauranga
1798745,4710,Ahuru Street,Marton,
3079105,0900,Ahuru Street,Wellsford,
3079486,0932,Ahutoetoe Road,Wainui,
1840738,0272,Ahutoru Drive,Russell,
3078921,1061,Ahuwhenua Crescent,Onehunga,Auckland
1827270,2583,Aicken Road,Hunua,
1778795,9879,Aicken Road,Otatara,Invercargill
1806339,3620,Aickin Road,Whangamata,
1806443,8025,Aidanfield Drive,"Aidanfield,Halswell,Wigram",Christchurch
1834396,4120,Aiden Lane,Raureka,Hastings
3081918,2582,Aidens Way,"Ardmore,Clevedon","Clevedon,Papakura"
1796735,4501,Aiken Road,Saint Johns Hill,Whanganui
3024098,7771,Aikens Road,"Greenstreet,Lauriston,Winchmore","Ashburton,Lauriston"
1787851,7891,Aiken Street,Waimangaroa,Westport
1783298,8014,Aikmans Road,Merivale,Christchurch
1807465,3200,Aileen Place,Nawton,Hamilton
1784681,8041,Aileen Place,Upper Riccarton,Christchurch
1806345,3691,Aileen Place,Whangamata,
1841797,0794,Aileron Rise,Dairy Flat,
1806354,3508,Ailsa Place,Tairua,
1773959,9532,Ailsa Street,Lawrence,
1783292,8013,Ailsa Street,Mairehau,Christchurch
1774911,9016,Ailsa Street,North Dunedin,Dunedin
1809987,3910,Ailsa Street,Te Kuiti,
1778524,9816,Ailsa Street,Wallacetown,
1770136,9481,Ainges Road,"Mount Trotter,Nenthorn,Stoneburn","Macraes Flat,Palmerston"
1828239,2102,Ainsdale Place,Manurewa,Auckland
1771993,9010,Ainslee Place,North East Valley,Dunedin
1816886,4312,Ainslee Street,Highlands Park,New Plymouth
1806975,3600,Ainslie Road,Paeroa,
1808402,3176,Ainsworth Road,Minden,Tauranga
1828237,2022,Aintree Avenue,Mangere,Auckland
1799276,4412,Aintree Crescent,Awapuni,Palmerston North
1796357,6037,Aintree Grove,Churton Park,Wellington
1808791,3116,Aintree Place,Mount Maunganui,
1770606,7400,Aintree Place,Rangiora,
1805710,4112,Aintree Place,Taradale,Napier
1805780,4130,Aintree Road,Havelock North,
1784671,8051,Aintree Street,Bishopdale,Christchurch
1807485,3200,Aintree Street,Nawton,Hamilton
1838710,2016,Ainwick Road,Flat Bush,Auckland
3081550,1042,Aio Lane,Hillsborough,Auckland
1831368,0781,Aio Wira Road,Waitakere,Auckland
3038409,8016,Air Base Road,Chatham Island,Chatham Islands
3032934,0632,Airborne Road,"Albany,Rosedale",Auckland
1800260,5011,Airdrie Avenue,Epuni,Lower Hutt
1807500,3200,Airdrie Lane,Beerescourt,Hamilton
1831367,0612,Airdrie Road,Ranui,Auckland
1787351,7891,Airdrie Street,Waimangaroa,Westport
1783311,8013,Airedale Place,Christchurch Central,Christchurch
1817219,4320,Airedale Place,Waitara,
3071176,,Airedale Road,"Airedale,Weston",Oamaru
3069277,1010,Airedale Street,"Auckland Central,Grafton",Auckland
1771997,9016,Airedale Street,Dunedin Central,Dunedin
1821978,0630,Airey Place,Torbay,Auckland
1781571,7986,Airey Road,Winchester,
3064077,,Airfield Road,"Ardmore,Takanini","Auckland,Papakura"
3077498,0932,Airini Road,Silverdale,
1803596,4294,Airini Road,Waimarama,
1792302,5026,Airlie Road,"Hongoeka,Plimmerton,Pukerua Bay",Porirua
3005301,7071,Airlie Street,Glenduan,Nelson
3078122,0616,Airmens Lane,Hobsonville,Auckland
1837793,2022,Airpark Drive,Mangere,Auckland
3083250,4414,Airport Access Road,Milson,Palmerston North
1778449,9879,Airport Avenue,Invercargill Airport,Invercargill
1817156,4373,Airport Drive,"Bell Block,New Plymouth Airport",New Plymouth
1790330,7810,Airport Drive,Hokitika,
1799266,4414,Airport Drive,Milson,Palmerston North
3078124,7886,Airport Lane,Haast,
1771390,9391,Airport Road,Alexandra,
1838385,9073,Airport Road,Momona,Mosgiel
3040187,3282,Airport Road,"Ohaupo,Rukuhia,Tamahere","Hamilton,Ohaupo"
1775471,9412,Airport Road,Omarama,
3040181,9818,Airport Road,Stewart Island/Rakiura,Stewart Island
1803125,4108,Airport Road,Wairoa,
1791742,4501,Airport Road,Whanganui Airport,Whanganui
1823595,0618,Airport Road,Whenuapai,Auckland
1835122,9382,Airport Way,Wanaka,
3079129,8025,Air Race Lane,Halswell,Christchurch
3084215,9382,Airstrip Lane,Wanaka,
1842667,5792,Airstrip Ridge,Parkvale,Carterton
1830604,0373,Airstrip Road,"Aranga,Omamari","Aranga,Dargaville"
1779079,7472,Airstrip Road,Ashley Forest,Loburn
1802921,3199,Airstrip Road,Cape Runaway,
1818555,0479,Airstrip Road,"Kaeo,Peria","Kaeo,Kaitaia"
1809515,3194,Airstrip Road,Pikowai,Matata
1802875,4083,Airstrip Road,Ruatoria,
1789878,7096,Airstrip Road,Tapawera,Wakefield
1802500,4195,Airstrip Road,Tuai,Wairoa
1820360,0484,Airstrip Road,Waiharara,Awanui
1778043,9720,Airth Street,Winton,
1808180,2697,Aislabie Road,Onewhero,
1773570,9210,Aitcheson Street,Kaitangata,
1798479,5510,Aitchison Place,Levin,
1770477,9494,Aitchison Road,Awamoko,Oamaru
1774096,9587,Aitchison Runs Road,Wilden,Tapanui
1838811,0830,Aitkenhead Court,Parakai,Helensville
1775518,9377,Aitkenhead Road,Becks,Omakau
3079318,2402,Aitkenhead Street,Pokeno,
3079566,9372,Aitken Lane,Glenorchy,
1771987,9011,Aitken Place,Mornington,Dunedin
1772796,9024,Aitken Place,Mosgiel,
1813273,2693,Aitken Road,Onewhero,
1771143,9398,Aitken Road,Patearoa,
1787342,7673,Aitkens Road,"Glentunnel,Hororata",
1780286,7683,Aitkens Road,Leeston,
3045302,7700,Aitken Street,"Ashburton,Hampstead",Ashburton
1798818,4818,Aitken Street,Bulls,
1777675,9691,Aitken Street,Clifden,Tuatapere
3045303,6011,Aitken Street,Thorndon,Wellington
3037964,1021,Aitken Terrace,"Eden Terrace,Kingsland",Auckland
3082584,7610,Aitkin Street,Woodend,
3083488,2120,Aituaa Road,Pukekohe,
1788308,7010,Ajax Avenue,Nelson,
1815613,3579,Ajax Head,Pauanui,
1792334,5024,Ajax Lane,Cannons Creek,Porirua
1799263,4412,Ajax Place,Highbury,Palmerston North
1809120,3112,Ajax Place,Welcome Bay,Tauranga
1772859,9023,Ajax Road,Port Chalmers,Dunedin
2008169,3083,Ajax Road,Tahorakuri Forest,Reporoa
1806467,3620,Ajax Road,Whangamata,
3054872,8061,Ajax Street,"Burwood,Shirley",Christchurch
1773571,9220,Ajax Street,Milton,
1821864,0624,Ajax Street,Narrow Neck,Auckland
1772903,9012,Ajax Street,"Saint Kilda,South Dunedin",Dunedin
1814227,4332,Ajax Street,Stratford,
1827276,2682,Aka Aka Church Road,Aka Aka,Waiuku
3011827,2682,Aka Aka Road,"Aka Aka,Puni","Pukekohe,Waiuku"
1827271,2682,Aka Aka Stream Road,Aka Aka,Waiuku
3079878,3720,Akakura Lane,Ngaruawahia,
3083012,4376,Akakura Terrace,Peacocke,Hamilton
3006216,4395,Akama Road,Huiroa,Stratford
3083159,3216,Aka Matua Lane,"Hillcrest,Ruakura",Hamilton
3078663,9383,Akanaw Lane,Queensberry,Cromwell
3079929,1026,Akapuka Lane,Waterview,Auckland
3080131,3791,Akapuka Place,Ngaruawahia,
1800830,4576,Akapuka Road,Pipiriki,Whanganui
1825310,1041,Akarana Avenue,Mount Roskill,Auckland
1801282,4412,Akaroa Avenue,Awapuni,Palmerston North
1779474,7520,Akaroa Cemetery Road,Akaroa,
1794411,6022,Akaroa Drive,Maupuia,Wellington
1797718,4992,Akaroa Road,Pongaroa,
3047293,4112,Akaroa Road,Poraiti,Napier
1771983,9016,Akaroa Street,Dunedin Central,Dunedin
1787506,7630,Akaroa Street,Kaiapoi,
3028979,8013,Akaroa Street,"Mairehau,Shirley",Christchurch
1831511,1052,Akaroa Street,Parnell,Auckland
1797719,4991,Akaroa Street,Pongaroa,
3071270,,Akatarawa Road,"Akatarawa,Akatarawa Valley,Birchville,Brown Owl,Reikorangi,Tararua Forest Park,Waikanae","Tararua Forest Park,Upper Hutt,Waikanae"
3080063,0614,Akatarawa Street,Massey,Auckland
1813143,3880,Akatarere Road,Pukeatua,
3082849,3281,Akatea Lane,"Horsham Downs,Rototuna North",Hamilton
3078455,3330,Akatea Lane,Richmond Heights,Taupo
1831366,0602,Akatea Road,Glendene,Auckland
1800293,5012,Akatea Road,Korokoro,Lower Hutt
1800486,6023,Akatea Street,Berhampore,Wellington
1796744,4501,Akatea Street,Gonville,Whanganui
1782297,7978,Akatere Road,Makikihi,Waimate
1837299,0494,Akatere Road,Mangonui,
1816328,3997,Akaterewa Road,Otangiwai,Matiere
3045795,9091,Akatore Creek Road,"Akatore,Taieri Beach","Milton,Taieri Mouth"
3037716,9292,Akatore Road,"Akatore,Glenledi,Taieri Beach","Milton,Taieri Mouth"
3082456,0992,Akau Lane,Wainui,
3084414,8062,Akau Place,Bromley,Christchurch
1794413,6021,Akautangi Way,Hataitai,Wellington
1799279,4410,Ake Ake Avenue,Hokowhitu,Palmerston North
1813763,3592,Ake Ake Avenue,Matarangi,Whitianga
1839082,0483,Akeake Crescent,Karikari Peninsula,
3025913,5022,Akeake Grove,Takapuwahia,Porirua
3077797,0632,Akeake Lane,Albany Heights,Auckland
3083845,3377,Akeake Lane,Kinloch,Taupo
1984412,2102,Akeake Lane,Manurewa,Auckland
3084451,7608,Akeake Place,Lincoln,
3082924,3118,Akeake Place,Papamoa,
1840045,5512,Ake Ake Place,Otaki,
1819836,0294,Akeake Road,Kerikeri,
1822896,0600,Akehurst Avenue,New Lynn,Auckland
1783295,8014,Akela Street,Merivale,Christchurch
1793220,5019,Akepiro Grove,Stokes Valley,Lower Hutt
1796742,4501,Akepiro Place,Tawhero,Whanganui
3035844,1024,Akepiro Street,"Kingsland,Mount Eden",Auckland
1819834,0182,Akerama Road,Hukerenui,Hikurangi
1791308,7282,Akerbloms Road,Punga Cove,Marlborough Sounds
1786445,7986,Aker Road,Winchester,
1796313,4472,Akers Road,Linton,Palmerston North
1788345,7010,Akersten Street,Port Nelson,Nelson
1820133,0473,Akiha Street,Omapere,Kaikohe
1803273,4122,Akina Street,Akina,Hastings
3081884,8025,Akiraho Lane,Halswell,Christchurch
1825087,1024,Akiraho Street,Mount Eden,Auckland
3002550,4991,Akitio Community Centre Road,Akitio,Pongaroa
1797720,4991,Akitio Esplanade,Akitio,Pongaroa
3080446,9305,Akitu Rise,Wanaka,
3078568,2019,Aklander Rise,Flat Bush,Auckland
1813686,3216,Akona Lane,Hamilton East,Hamilton
1819120,0627,Akoranga Drive,Northcote,Auckland
3034796,3200,Akoranga Road,Avalon,Hamilton
3078315,2019,Ako Road,Flat Bush,Auckland
1796498,3989,Ako Street,Kakahi,
1790098,7805,A K Road,Kaiata,Greymouth
1792628,5018,Akron Grove,Totara Park,Upper Hutt
1809510,3191,Akuhata Road,Ruatoki,Taneatua
1795016,,Akura Road,"Masterton,Matahiwi",Masterton
3010627,,Alabama Road,"Redwoodtown,Riverlands","Blenheim,Riverlands"
1828247,2025,Alabaster Drive,Papatoetoe,Auckland
1809118,3112,Alach Street,Gate Pa,Tauranga
3077587,2121,Alaina Place,Tuakau,
1819412,0505,Alamar Crescent,Mangawhai Heads,Mangawhai
3063533,7676,Alameda Place,"Prebbleton,Rolleston",
1794423,6021,Alameda Terrace,Aro Valley,Wellington
1822479,0622,Alamein Avenue,Belmont,Auckland
3050470,5018,Alamein Avenue,Mangaroa,Upper Hutt
1811656,3300,Alamein Avenue,Morrinsville,
1831863,0110,Alamein Avenue,Onerahi,Whangarei
1795018,5810,Alamein Court,Lansdowne,Masterton
1803957,4110,Alamein Crescent,Onekawa,Napier
3046543,4820,Alamein Grove,Linton,Palmerston North
1827465,2120,Alamein Place,Pukekohe,
1825858,1072,Alamein Road,Panmure,Auckland
1810632,3083,Alamein Road,Reporoa,
1817358,4679,Alamein Street,Kaponga,Hawera
1777671,9822,Alamein Street,Riverton/Aparima,
1824980,1025,Alamein Terrace,Mount Albert,Auckland
1770268,9400,Alamein Terrace,Oamaru,
1825861,1060,Alana Place,Mount Wellington,Auckland
1790940,7201,Alana Place,Witherlea,Blenheim
1790938,7201,Alana Street,Witherlea,Blenheim
1823602,0610,Alan Avenue,Henderson,Auckland
3082652,9371,Alan Brady Crescent,Gibbston,Queenstown
1824382,0600,Alanbrooke Crescent,Avondale,Auckland
1807703,3200,Alanbrooke Place,Beerescourt,Hamilton
1794419,6012,Alanbrooke Place,Karori,Wellington
1805830,3210,Alandale Avenue,Flagstaff,Hamilton
3077391,9305,Alandale Place,Wanaka,
3071908,7072,Alan Gully Road,"Atapo,Glenhope",St. Arnaud
3081572,7604,Alan James Lane,Prebbleton,
3077586,2016,Alan John Place,East Tamaki Heights,Auckland
1798100,5510,Alan Lindsay Avenue,Waitarere Beach,Levin
1842971,3493,Alan Livingston Drive,Cambridge,
3057960,1081,Alan Murray Lane,Oneroa,Waiheke Island
1802990,9371,Alan Reids Road,"Coronet Peak,Speargrass Flat",Queenstown
1799269,4414,Alan Street,Palmerston North,
1804932,4112,Alan Styles Place,Greenmeadows,Napier
1801281,4412,Alaska Court,Awapuni,Palmerston North
3081979,9372,Alaska Street,Glenorchy,
1810665,3010,Alastair Avenue,Owhata,Rotorua
1825308,1042,Alaunia Place,Lynfield,Auckland
3078423,3800,Alawaya Rise,Te Awamutu,
3080679,4775,Alayna Court,Colyton,Feilding
1808408,3611,Albacore Avenue,Waihi Beach,
1954591,3491,Albacore Road West,Kinleith,Tokoroa
1832823,2018,Albacore Way,Maraetai,Auckland
1835973,7010,Albano Way,The Wood,Nelson
1794420,6011,Albany Avenue,Mount Victoria,Wellington
3040247,4472,Albany Drive,Turitea,Palmerston North
3079016,0632,Albany Expressway,Albany,Auckland
3079017,0632,Albany Expressway,Albany,Auckland
3002428,0792,Albany Heights Road,"Albany Heights,Dairy Flat","Auckland,Dairy Flat"
1818406,0632,Albany Highway,"Albany,Bayview,Greenhithe,Rosedale,Schnapper Rock,Unsworth Heights",Auckland
1803598,4130,Albany Lane,Havelock North,
1824384,1011,Albany Road,"Herne Bay,Ponsonby",Auckland
3014458,0118,Albany Road,One Tree Point,Whangarei
3027937,9016,Albany Street,"Dunedin Central,North Dunedin",Dunedin
1778332,9710,Albany Street,Gore,
1776608,9812,Albany Street,Kingswell,Invercargill
1817716,4520,Albany Street,Patea,
1778789,9822,Albany Street,"Riverton Racecourse,Riverton/Aparima",Riverton/Aparima
1783307,8014,Albany Street,St Albans,Christchurch
1814137,3434,Alba Place,Cambridge,
1824383,1023,Alba Road,Epsom,Auckland
1777016,9782,Alba Street,Centre Bush,Winton
1816889,4310,Alba Street,Whalers Gate,New Plymouth
1840675,0481,Albatross Alley,Ahipara,Kaitaia
1792438,5024,Albatross Close,Whitby,Porirua
3079746,3112,Albatross Lane,Welcome Bay,Tauranga
1841275,4312,Albatross Place,Bell Block,New Plymouth
1821171,0932,Albatross Road,Red Beach,
1823598,0614,Albemarle Place,Massey,Auckland
1794421,6012,Albemarle Road,Northland,Wellington
1783296,8023,Albemarle Street,Sydenham,Christchurch
1838571,3112,Albero Drive,Ohauiti,Tauranga
1824386,1052,Alberon Place,Parnell,Auckland
1824380,1052,Alberon Street,Parnell,Auckland
1816888,4312,Alberta Road,Glen Avon,New Plymouth
1812542,3330,Alberta Street,Acacia Bay,Taupo
1824362,1022,Alberta Street,Point Chevalier,Auckland
1776603,9810,Albert Crescent,Gladstone,Invercargill
1825685,1081,Albert Crescent,Ostend,Waiheke Island
1774319,9330,Albert Drive,Clyde,
3081103,7201,Albert Grove,Springlands,Blenheim
1821167,0932,Albert Hall Drive,Red Beach,
3012855,0632,Albertine Place,Greenhithe,Auckland
1785434,7682,Albert James Place,Dunsandel,
1808409,3172,Albert Lane,Whakamarama,
3078825,0993,Alberto Lane,Silverdale,
1831620,1025,Alberton Avenue,Mount Albert,Auckland
3006738,3800,Albert Park Drive,Te Awamutu,
1810924,3720,Albert Place,Ngaruawahia,
3079630,9412,Albert Place,Otematata,
1827466,2120,Albert Place,Pukekohe,
1822811,0612,Albert Pryor Avenue,Henderson,Auckland
1786545,7984,Albert Road,Albury,
1821862,0624,Albert Road,Devonport,Auckland
1817222,4371,Albert Road,"Egmont Village,Korito","Egmont Village,New Plymouth"
1818484,0602,Albert Road,Kelston,Auckland
1829478,2025,Albert Road,Manukau,Auckland
1773177,9081,Albert Road,Osborne,Port Chalmers
3021719,7010,Albert Road,Stepneyville,Nelson
1802895,3199,Albert Road,Te Kaha,
1798097,4474,Albert Road,Tokomaru,Palmerston North
1821179,,Albert Road,Warkworth,
1839728,8042,Albert Sheppard Close,Yaldhurst,Christchurch
1772858,9023,Albertson Avenue,Port Chalmers,Dunedin
1828240,2102,Albertson Place,Manurewa,Auckland
1824385,1010,Albert Street,Auckland Central,Auckland
3025611,3434,Albert Street,Cambridge,
1803595,4102,Albert Street,Clive,
1814272,3506,Albert Street,Coromandel,
1805411,4930,Albert Street,Dannevirke,
1797824,4900,Albert Street,Eketahuna,
3025591,7700,Albert Street,"Elgin,Hampstead,Netherby",Ashburton
1776607,9810,Albert Street,"Gladstone,Rosedale",Invercargill
1786224,7673,Albert Street,Glentunnel,
1790195,7805,Albert Street,Greymouth,
1807778,3216,Albert Street,Hamilton East,Hamilton
1805111,4122,Albert Street,"Hastings,Parkvale",Hastings
1817561,4610,Albert Street,Hawera,
1791754,,Albert Street,"Hokowhitu,Palmerston North,Terrace End",Palmerston North
1794402,6023,Albert Street,Island Bay,Wellington
1815518,3674,Albert Street,Karangahake,
1830720,0210,Albert Street,Kawakawa,
1821178,0985,Albert Street,Leigh,
1819411,0505,Albert Street,Mangawhai Heads,Mangawhai
1781750,7910,Albert Street,"Maori Hill,Seaview",Timaru
1795017,5810,Albert Street,Masterton,
1790443,7886,Albert Street,Okarito,Whataroa
1798297,3122,Albert Street,Opotiki,
1825853,1062,Albert Street,Otahuhu,Auckland
1815750,3600,Albert Street,Paeroa,
1797864,4910,Albert Street,Pahiatua,
1827840,2110,Albert Street,Papakura,
1827269,2402,Albert Street,Pokeno,
1827464,2120,Albert Street,Pukekohe,
1814273,3578,Albert Street,Puriri,Thames
1785338,7400,Albert Street,Rangiora,
1788054,7830,Albert Street,Reefton,
1821169,0820,Albert Street,Riverhead,
1770137,9012,Albert Street,Saint Clair,Dunedin
1780390,7681,Albert Street,Springfield,
1802211,4010,Albert Street,Te Hapara,Gisborne
1815779,3500,Albert Street,Thames,
1795277,5889,Albert Street,Tinui,
1777677,9620,Albert Street,Tuatapere,
1807034,3610,Albert Street,Waihi,
1805399,4200,Albert Street,Waipukurau,
1826294,0110,Albert Street,Whangarei,
1806661,3510,Albert Street,Whitianga,
1778042,9720,Albert Street,Winton,
1780428,8022,Albert Terrace,Saint Martins,Christchurch
1781574,7985,Albert Terrace,Winchester,
1840776,9382,Albert Town Boat Ramp Track,Albert Town,Wanaka
3042687,9382,Albert Town-Lake Hawea Road,"Albert Town,Wanaka",Wanaka
3080293,8025,Albert Wills Avenue,Halswell,Christchurch
3051584,9016,Albion Lane,Dunedin Central,Dunedin
1840329,8024,Albion Lane,Hillmorton,Christchurch
1771990,9016,Albion Place,Dunedin Central,Dunedin
1827839,2110,Albion Place,Papakura,
1825855,1062,Albion Road,Otahuhu,Auckland
1817216,4374,Albion Road,Pitone,New Plymouth
1775552,9013,Albion Street,"Andersons Bay,Shiel Hill",Dunedin
1777022,9793,Albion Street,Athol,
1817565,4610,Albion Street,Hawera,
1777017,9793,Albion Street,Lumsden,
1776046,9712,Albion Street,Mataura,
1803958,4110,Albion Street,Napier South,Napier
1790438,7886,Albion Street,"Okarito,Westland National Park/Tai Poutini National Park","Westland National Park/Tai Poutini National Park,Whataroa"
1792473,5024,Albion Street,Waitangirua,Porirua
1773172,9081,Albion Terrace,Careys Bay,Dunedin
1833855,0602,Albionvale Road,Glen Eden,Auckland
1832836,0612,Albizia Avenue,Henderson,Auckland
3078297,5036,Albizia Grove,Waikanae,
1789252,7020,Albizia Place,Richmond,
1825312,1041,Albrecht Avenue,Mount Roskill,Auckland
1833199,0920,Albro Lane,Algies Bay,
1797408,4777,Albuera Street,Cheltenham,Feilding
3080824,3710,Albur Way,Te Kauwhata,
1824353,1023,Albury Avenue,Epsom,Auckland
3067835,7987,Albury-Fairlie Road,"Albury,Coal Stream,Fairlie,Hazelburn","Albury,Fairlie,Pleasant Point"
1831360,0377,Alcemene Lane,Baylys Beach,
1783305,8011,Alcester Street,Christchurch Central,Christchurch
1840658,0112,Alcoba Street,Te Kamo,Whangarei
1825856,1060,Alcock Street,Mount Wellington,Auckland
1776961,9875,Alcock Street,Waimahaka,Tokanui
1815692,3210,Alconbury Drive,Rototuna North,Hamilton
3007434,2105,Alcove Place,Totara Heights,Auckland
1840834,9300,Alder Avenue,Frankton,Queenstown
1833109,0612,Alderbury Way,Henderson,Auckland
3081495,9024,Alder Crescent,Mosgiel,
1813420,3700,Alder Lane,Huntly,
1825088,1024,Alderley Road,Mount Eden,Auckland
1778647,9610,Alderly Street,Otautau,
1831223,0612,Alderman Drive,Henderson,Auckland
1827601,2024,Alderman Place,Favona,Auckland
1813617,3118,Aldermen Avenue,Papamoa Beach,Papamoa
1856849,3579,Aldermen Lane,Tairua,
1805023,4112,Alderney Close,Taradale,Napier
1806411,8051,Alderney Mews,Casebrook,Christchurch
1805003,4112,Alderney Way,Taradale,Napier
1823600,0614,Aldern Road,Massey,Auckland
1794418,6037,Alder Place,Newlands,Wellington
1779003,7395,Alder Road,Hanmer Springs,
1804297,4278,Alder Road,"Ongaonga,Ruahine Forest Park",
1827275,2121,Alder Road,Tuakau,
1793218,5019,Aldersgate Grove,Stokes Valley,Lower Hutt
1825307,1042,Aldersgate Road,Hillsborough,Auckland
1783807,7630,Aldersgate Street,Kaiapoi,
1814044,3200,Aldershot Place,Nawton,Hamilton
1783306,8061,Aldershot Street,Aranui,Christchurch
1783293,8013,Aldersley Street,Richmond,Christchurch
1784523,8022,Alderson Avenue,Hillsborough,Christchurch
1840049,4478,Alderson Drive,Milson,Palmerston North
1832856,2024,Alderson Lane,Favona,Auckland
1807816,3214,Alderson Road,"Enderley,Fairview Downs",Hamilton
1827277,2682,Alders Road,Otaua,
1838916,0230,Alderton Drive,Kerikeri,
1827841,2113,Alderton Place,Opaheke,Papakura
3084522,0505,Alder Way,Mangawhai,
1816906,3210,Alderwick Place,Rototuna North,Hamilton
1775485,9400,Alde Street,Oamaru North,Oamaru
1786976,8051,Aldgate Street,Redwood,Christchurch
1789503,7011,Aldinga Avenue,Stoke,Nelson
1815977,3214,Aldona Place,Fairview Downs,Hamilton
1832562,2105,Aldon Lane,The Gardens,Auckland
1832196,2023,Aldo Place,Clover Park,Auckland
1788986,7091,Aldourie Road,Brightwater,
1827274,2683,Aldred Road,Karioitahi,Waiuku
1831508,1050,Aldred Road,Remuera,Auckland
1802215,4010,Aldred Street,Kaiti,Gisborne
1827272,2583,Aldridge Road,Hunua,
1799061,4720,Aldridge Terrace,Taihape,
3005723,8062,Aldwins Road,"Linwood,Phillipstown,Waltham",Christchurch
1798819,4784,Aldworth Road,Hunterville,
1821173,0930,Alec Craig Way,Gulf Harbour,Whangaparaoa
1817260,3114,Alecia Crescent,Omokoroa,
1836611,9371,Alec Robins Road,Lake Hayes,Queenstown
1836538,3112,Aleisha Place,Ohauiti,Tauranga
1837612,7475,Alessio Lane,Swannanoa,
1828236,2018,Alexander Avenue,Maraetai,Auckland
1776606,9812,Alexander Avenue,Newfield,Invercargill
1803962,4110,Alexander Avenue,Onekawa,Napier
1829480,2025,Alexander Avenue,Papatoetoe,Auckland
1821984,0630,Alexander Avenue,"Torbay,Waiake",Auckland
1809517,3120,Alexander Avenue,Whakatane,
3007550,7196,Alexander Bluff Road,"Motueka Valley,Ngatimoti",Motueka
1814028,3500,Alexander Close,Thames,
1832701,2120,Alexander Court,Pukekohe,
1828249,2023,Alexander Crescent,Otara,Auckland
1815164,3411,Alexander Crescent,Putaruru,
2018176,0932,Alexander French Close,Silverdale,
1835169,9310,Alexander Lane,Cromwell,
1785827,7630,Alexander Lane,Kaiapoi,
1817035,9302,Alexander Place,Arrowtown,
1796243,5512,Alexander Place,Otaki,
1809362,3118,Alexander Place,Papamoa Beach,Papamoa
1777014,9871,Alexander Place,Woodlands,Invercargill
1830945,0920,Alexander Road,Algies Bay,
1777018,9782,Alexander Road,Hokonui,Winton
1810793,3076,Alexander Road,Lake Tarawera,Rotorua
1773572,9291,Alexander Road,"Milton,Table Hill",Milton
1813136,3875,Alexander Road,Pokuru,Te Awamutu
1796068,5032,Alexander Road,Raumati Beach,Paraparaumu
1792625,5018,Alexander Road,"Trentham,Wallaceville",Upper Hutt
1780283,7602,Alexanders Road,Southbridge,
1772719,9018,Alexander Street,Abbotsford,Dunedin
1799274,4412,Alexander Street,Awapuni,Palmerston North
1780988,7772,Alexander Street,Chertsey,Ashburton
1827978,2014,Alexander Street,Cockle Bay,Auckland
1797822,4900,Alexander Street,Eketahuna,
1790192,7805,Alexander Street,Greymouth,
1808416,3129,Alexander Street,Katikati,
1830491,1021,Alexander Street,Kingsland,Auckland
1820359,0420,Alexander Street,Mangonui,
1798826,4785,Alexander Street,Ohingaiti,Kimbolton
1825859,1062,Alexander Street,Otahuhu,Auckland
1827838,2110,Alexander Street,Papakura,
1771146,9397,Alexander Street,Ranfurly,
1778649,9822,Alexander Street,Riverton/Aparima,
1814678,3112,Alexander Street,Tauranga South,Tauranga
3042036,5036,Alexander Street,Waikanae,
1800859,4500,Alexander Street,Whanganui,
1826291,0110,Alexander Street,Whangarei,
1778811,9720,Alexander Street,Winton,
1790194,7805,Alexander Terrace,Greymouth,
3078340,0616,Alexander Willis Crescent,Hobsonville,Auckland
1811658,3300,Alexandra Avenue,Morrinsville,
1803274,4122,Alexandra Crescent,Hastings,
3052363,9392,Alexandra-Fruitlands Road,"Bridge Hill,Conroys Gully,Fruitlands",Alexandra
1789446,7020,Alexandra Grove,Richmond,
3081480,0975,Alexandra Lane,Mangawhai,
1827257,2694,Alexandra Redoubt Road,Tuakau,
3056032,9483,Alexandra Road,"Glenpark,Stoneburn",Palmerston
3056033,6021,Alexandra Road,"Hataitai,Newtown,Roseneath",Wellington
3056035,3391,Alexandra Road,"Manawaru,Te Aroha West,Waharoa","Manawaru,Te Aroha,Waharoa"
1796575,4632,Alexandra Road,Raetihi,
1783303,8013,Alexandra Street,"Christchurch Central,Richmond",Christchurch
1805412,4930,Alexandra Street,Dannevirke,
1807828,3204,Alexandra Street,Hamilton Central,Hamilton
1803275,4122,Alexandra Street,"Hastings,Parkvale",Hastings
1810851,3700,Alexandra Street,Huntly,
1798754,4710,Alexandra Street,Marton,
1801056,4910,Alexandra Street,Pahiatua,
1773758,9586,Alexandra Street,Papatowai,Owaka
1781748,7910,Alexandra Street,Parkside,Timaru
1821177,0973,Alexandra Street,Port Albert,Wellsford
1830947,0820,Alexandra Street,Riverhead,
1777666,9822,Alexandra Street,Riverton/Aparima,
1812943,3800,Alexandra Street,Te Awamutu,
1810097,3910,Alexandra Street,Te Kuiti,
1781675,7920,Alexandra Street,Temuka,
1782110,7999,Alexandra Terrace,Lake Tekapo,
1796311,4472,Alexandra Terrace,Linton,Palmerston North
1955737,8083,Alexandrina Street,Marshland,Christchurch
1796745,4500,Alexa Place,Saint Johns Hill,Whanganui
1825306,1042,Alex Boyd Link,Hillsborough,Auckland
1824369,1010,Alex Evans Street,Eden Terrace,Auckland
1840487,2105,Alexia Place,Flat Bush,Auckland
1824977,1025,Alexis Avenue,Mount Albert,Auckland
1839748,5713,Alexis Greer Lane,Carterton,
3080737,4310,Alex Place,Hurworth,New Plymouth
3082902,7614,Alex Place,Rolleston,
2008165,0582,Alex Russell Way,Waipu,
1770054,9300,Alex Taylor Access,Kawarau Falls,Queenstown
1817560,4610,Alex Taylor Street,Hawera,
1808073,3900,Alex Telfer Drive,Otorohanga,
1827260,2675,Aley Road,Mangatawhiri,
1821168,0875,Alf Access Road,Helensville,
3079571,7608,Alfie Lane,Lincoln,
3051825,7771,Alford Forest Cemetery Road,"Alford Forest,Ashburton Forks","Ashburton,Mount Somers"
3045702,7700,Alford Forest Road,"Allenton,Ashburton",Ashburton
1781080,7771,Alford Forest Settlement Road,Alford Forest,Mount Somers
1837391,3210,Alford Place,Huntington,Hamilton
1781084,7730,Alford Street,Methven,
1824368,1026,Alford Street,"Waitemata Harbour,Waterview",Auckland
1818483,2014,Alf Place,Somerville,Auckland
1812739,3434,Alfred Back Place,Cambridge,
1806960,9371,Alfred Duncan Drive,Lake Hayes,Queenstown
3082905,3283,Alfred Main Drive,Tamahere,Hamilton
3079837,0984,Alfred Peter Crescent,Warkworth,
1773171,9018,Alfred Place,Fairfield,Dunedin
3070836,4371,Alfred Road,"Egmont Village,Kaimiro",
3070837,3010,Alfred Road,"Hannahs Bay,Owhata",Rotorua
1788993,7020,Alfred Sheat Street,Richmond,
1824352,1010,Alfred Street,Auckland Central,Auckland
1790860,7201,Alfred Street,"Blenheim,Mayfield",Blenheim
1771989,9012,Alfred Street,Caversham,Dunedin
1783289,8011,Alfred Street,Christchurch Central,Christchurch
1815780,3506,Alfred Street,Coromandel,
1814493,3214,Alfred Street,Fairfield,Hamilton
1831807,0114,Alfred Street,Hikurangi,
1794405,6021,Alfred Street,Mount Cook,Wellington
1789647,7010,Alfred Street,Nelson South,Nelson
1822127,0627,Alfred Street,Northcote Point,Auckland
1825501,1061,Alfred Street,Onehunga,Auckland
1785344,7400,Alfred Street,Rangiora,
1799282,4414,Alfred Street,Roslyn,Palmerston North
1787925,7891,Alfred Street,Seddonville,Westport
1806683,3500,Alfred Street,Thames,
1803959,4110,Alfred Street,Westshore,Napier
3034339,,Alfredton Road,"Alfredton,Eketahuna",Eketahuna
1795275,5894,Alfredton Tinui Road,Tinui,
3067708,2576,Alfriston-Ardmore Road,"Alfriston,Ardmore","Auckland,Papakura"
1818549,,Alfriston Road,"Alfriston,Manurewa,Manurewa East,Randwick Park",Auckland
1842976,3510,Alf Simpson Drive,Whitianga,
1827751,2110,Alf Walker Place,Papakura,
1816614,7201,Algarve Close,Blenheim,
1803599,4172,Algernon Road,Longlands,Hastings
3025105,,Algidus Road,Lake Coleridge,
1786891,8042,Algidus Street,Sockburn,Christchurch
1784676,8042,Algie Place,Avonhead,Christchurch
1840801,4993,Algies Road,Eketahuna,
1795539,5773,Algies Road,Tauwharenikau,Tauherenikau
3084106,7615,Alhambra Road,Rolleston,
1830262,2102,Alicante Avenue,Hillpark,Auckland
1821176,0931,Alice Avenue,Orewa,
1802007,9383,Alice Burn Drive,Luggate,Wanaka
1799988,4410,Alice Court,Palmerston North,
1841066,3118,Alice Lane,Papamoa Beach,Papamoa
1784947,7473,Alice Pass Road,Okuku,
1814967,3097,Alice Place,Hamurana,
1832470,0627,Alice Place,Hillcrest,Auckland
1798480,5510,Alice Place,Levin,
1800258,5010,Alice Street,Alicetown,Lower Hutt
1783304,8061,Alice Street,Burwood,Christchurch
1776605,9810,Alice Street,Gladstone,Invercargill
1786561,7980,Alice Street,Morven,Waimate
1802216,4010,Alice Street,Outer Kaiti,Gisborne
1821175,0820,Alice Street,Riverhead,
1832450,2014,Alicia Road,Somerville,Auckland
1823607,0614,Alidade Place,Massey,Auckland
1825532,1061,Aliford Avenue,"Ellerslie,One Tree Hill",Auckland
1781082,7730,Alington Street,Methven,
1833146,0612,Ali Place,Ranui,Auckland
3081635,7614,Alisa Lane,Rolleston,
1840179,3283,Alisha Place,Tamahere,Hamilton
1771817,9305,Alison Avenue,Albert Town,Wanaka
1823606,0618,Alison Avenue,Herald Island,Auckland
1822483,0622,Alison Avenue,Takapuna,Auckland
1772254,9011,Alison Crescent,Belleknowes,Dunedin
1791309,7204,Alison Crescent,Renwick,
3033867,9884,Alison Road,"Catlins Conservation Park,Waikawa Valley","Catlins Conservation Park,Tokanui"
1825684,1081,Alison Road,Surfdale,Waiheke Island
3060801,3204,Alison Street,"Hamilton Lake,Melville",Hamilton
1810809,3015,Alison Street,Mangakakahi,Rotorua
1794427,6037,Alister Way,Churton Park,Wellington
3011069,3210,Alker Road,Chartwell,Hamilton
1808703,3119,Allanah Place,Te Puke,
3083671,4071,Allan Avenue,"Lytton West,Makauri",Gisborne
1771649,9300,Allan Crescent,Frankton,Queenstown
1785849,8971,Allandale Lane,Allandale,Governors Bay
3064548,7925,Allandale Road,Fairlie,
1779811,7385,Allandale Road,"Hawarden,Masons Flat",Hawarden
1778305,9793,Allandale Road,Kingston,
1772251,9012,Allandale Road,Saint Clair,Dunedin
1806686,3691,Allan Drive,Whangamata,
1773480,9274,Allangrange Road,Greenfield,Clydevale
1783595,7977,Allanholme Road,Waihaorunga,Waimate
1809361,3118,Allan Place,Papamoa Beach,Papamoa
1842402,2684,Allan Road,Awhitu,
1817221,4371,Allan Road,Burgess Park,New Plymouth
3064918,9492,Allan Road,Maraeweka,Oamaru
1826467,0172,Allan Road,Nukutawhiti,Whangarei
1778088,9682,Allan Road,Waikoura,Otautau
1778089,9682,Allan Road North,Waikoura,Otautau
1772245,,Allans Beach Road,"Cape Saunders,Portobello",Dunedin
3012688,7771,Allan Smiths Road,"Mount Somers,Staveley",Mount Somers
1804755,4930,Allan Street,Dannevirke,
1810811,3010,Allan Street,Glenholme,Rotorua
1782113,7999,Allan Street,Lake Tekapo,
1796318,4472,Allan Street,Linton,Palmerston North
1789648,7010,Allan Street,Nelson South,Nelson
1776683,9879,Allan Street,Otatara,Invercargill
1779812,7420,Allan Street,Waikari,
1786803,7924,Allan Street,Waimate,
1773824,9584,Allan Street,Waiwera South,Clinton
1840397,2123,Allans Way,Waiuku,
3018111,,Allanton Road,"Momona,Outram","Mosgiel,Outram"
3040096,9073,Allanton Saleyards Road,Momona,Mosgiel
1773175,9092,Allanton-Scroggs Hill Road,"Allanton,Scroggs Hill","Dunedin,Mosgiel"
3048473,9073,Allanton-Waihola Road,"Allanton,Henley,Titri",Mosgiel
1804752,4930,Allardice Street,Dannevirke,
1782565,8013,Allard Street,Edgeware,Christchurch
1838006,5032,Allasha Way,Paraparaumu,
1813137,3876,Allcock Road,Ngahinapouri,Ohaupo
1827255,2682,Allcock Road,Waiuku,
1942900,0632,Allegro Way,Oteha,Auckland
3051794,2697,Allen and Eyre Road,Onewhero,
1829479,2025,Allen Avenue,Papatoetoe,Auckland
1820283,0410,Allen Bell Drive,Kaitaia,
1803960,4112,Allen Berry Avenue,Pirimai,Napier
1821871,0624,Allenby Avenue,"Devonport,Narrow Neck",Auckland
1772257,9010,Allenby Avenue,Liberton,Dunedin
1788141,9305,Allenby Place,Wanaka,
1777672,9689,Allenby Road,Bayswater,Otautau
1811482,3400,Allenby Road,Matamata,
1825862,1072,Allenby Road,Panmure,Auckland
1829477,2025,Allenby Road,Papatoetoe,Auckland
1805130,4122,Allenby Street,Akina,Hastings
1807859,3206,Allenby Street,Bader,Hamilton
1795021,5810,Allenby Street,Lansdowne,Masterton
1800490,6011,Allenby Terrace,"Te Aro,Wellington Central",Wellington
1838299,7608,Allendale Lane,Lincoln,
1837632,3300,Allendale Place,Morrinsville,
1824984,1025,Allendale Road,Mount Albert,Auckland
1821985,0630,Allender Drive,Torbay,Auckland
3083266,4501,Allengate Road,Castlecliff,Whanganui
3057048,1072,Allen Johnston Place,Saint Johns,Auckland
1824361,1021,Allen Lane,Grey Lynn,Auckland
3044790,3010,Allen Mills Road,"Lynmore,Ngapuna",Rotorua
1814970,3081,Allen Road,Broadlands,
1780391,7600,Allen Road,Burnham,
3054229,9783,Allen Road,Castle Downs,Dipton West
1775667,9018,Allen Road,Green Island,Dunedin
1824364,1021,Allen Road,Grey Lynn,Auckland
1813138,3875,Allen Road,Kihikihi,Te Awamutu
1773176,9471,Allen Road,Merton,Waikouaiti
1811767,3374,Allen Road,Morrinsville,
1825860,1060,Allen Road,Mount Wellington,Auckland
1817563,4672,Allen Road,Ohangai,Hawera
1817218,4374,Allen Road,Omata,New Plymouth
1805532,4183,Allen Road,Pakowhai,Napier
3054232,7885,Allen Road,Pukekura,Ross
1796018,5032,Allen Road,Raumati Beach,Paraparaumu
1803597,4274,Allen Road,Tikokino,
1810101,3987,Allen Road,Waipa Valley,Te Kuiti
3032424,9018,Allen Road South,"Green Island,Waldronville",Dunedin
1803702,4102,Allens Lane,Clive,
1780780,7700,Allens Road,Allenton,Ashburton
1828213,2013,Allens Road,East Tamaki,Auckland
1780180,7682,Allens Road,Leeston,
1793202,5011,Allen Street,Boulcott,Lower Hutt
1782567,8011,Allen Street,Christchurch Central,Christchurch
1814497,3204,Allen Street,Frankton,Hamilton
1818560,2024,Allen Street,Mangere East,Auckland
1776045,9712,Allen Street,Mataura,
1781087,7730,Allen Street,Methven,
3041721,3300,Allen Street,Morrinsville,
1771169,9396,Allen Street,Naseby,
1774963,9010,Allen Street,North East Valley,Dunedin
1790859,7201,Allen Street,Redwoodtown,Blenheim
1794400,6011,Allen Street,Te Aro,Wellington
1793544,5028,Allen Terrace,Tawa,Wellington
1774359,9584,Allenvale Road,Waiwera South,Clinton
3079947,3119,Allen Way,Te Puke,
1838827,2103,Allerton Place,Wattle Downs,Auckland
1803367,4120,Allerton Street,Saint Leonards,Hastings
1813626,3674,Alley Memorial Road,Hikutaia,Paeroa
1792622,5018,Alleyne Court,Brown Owl,Upper Hutt
1814134,3432,Alley Place,Leamington,Cambridge
1803963,4112,Alley Place,Taradale,Napier
1808405,3183,Alley Road,Te Puke,
1799720,5018,Alleys Way,Ebdentown,Upper Hutt
1841376,3210,Allgood Place,Rototuna North,Hamilton
3077679,2110,Alliance Lane,Papakura,
3083679,2121,Allie Drive,Tuakau,
3081004,8025,Allied Road,Halswell,Christchurch
1785340,7402,Allin Drive,Waikuku Beach,
1836819,7614,Allingham Lane,Rolleston,
1813712,3110,Allington Place,Bethlehem,Tauranga
1794399,6012,Allington Road,Karori,Wellington
1823603,0614,Allington Road,Massey,Auckland
1841809,0171,Allis Bloy Place,Ruakaka,
1788455,7010,Allisdair Street,Marybank,Nelson
1808789,3116,Allison Avenue,Mount Maunganui,
1837177,7630,Allison Crescent,Kaiapoi,
3049486,1072,Allison Ferguson Drive,Saint Johns,Auckland
1771145,9395,Allison Lane,"Gimmerburn,Ranfurly",Ranfurly
1786632,8013,Allison Place,Shirley,Christchurch
1777681,9683,Allison Road,Gladfield,Otautau
1773442,9292,Allison Road,Milton,
1778821,9879,Allison Road,Taramoa,Invercargill
1780736,7700,Allison Street,Allenton,Ashburton
1800858,4500,Allison Street,Durie Hill,Whanganui
1818133,4616,Allison Street,Opunake,
1825354,1041,Allison Street,Wesley,Auckland
1782579,8014,Allister Avenue,Merivale,Christchurch
1842235,2113,Allium Avenue,Karaka,Papakura
1805875,3506,Allman Drive,Coromandel,
1781674,7920,Allnatt Street,Temuka,
1812282,3420,Alloa Place,Tokoroa,
3022712,0991,Allom Bay,Great Barrier Island (Aotea Island),
1783842,8022,Allom Lane,Cashmere,Christchurch
1782558,8061,Alloway Street,Avondale,Christchurch
1782118,7925,Alloway Street,Fairlie,
1842361,0614,Alloway Street,Westgate,Auckland
1784152,8042,Alloy Street,Sockburn,Christchurch
1789927,7020,Allport Close,Richmond,
1789849,7011,Allport Place,Stoke,Nelson
1808406,3189,Allport Road,Paengaroa,
1825854,1060,Allright Place,Mount Wellington,Auckland
1784672,8083,Allstone Place,Burwood,Christchurch
1824357,1071,Allum Street,Kohimarama,Auckland
1841478,9371,Alluvial Court,Arthurs Point,Queenstown
1770960,9310,Alluvial Place,Cromwell,
3080944,2019,Alluvial Street,Flat Bush,Auckland
1840382,3493,Allwill Drive,Pukemoremore,Hamilton
1822484,0620,Alma Court,Milford,Auckland
1832120,2110,Alma Crescent,Papakura,
1822480,0627,Almadale Place,Hillcrest,Auckland
1801014,4777,Almadale Road,Cheltenham,Feilding
3055084,9492,Alma-Maheno Road,"Alma,Maheno,Reidston,Totara",Oamaru
1842228,7730,Alma Place,Methven,
1799273,4414,Alma Place,Milson,Palmerston North
1782564,8061,Alma Place,Shirley,Christchurch
1770469,9491,Alma Road,Alma,Oamaru
1796740,4501,Alma Road,Gonville,Whanganui
1822485,0620,Alma Road,Milford,Auckland
1789541,7892,Alma Road,Westport,
1797358,4777,Alma Street,Cheltenham,Feilding
1804751,4930,Alma Street,Dannevirke,
1807868,3204,Alma Street,Hamilton Central,Hamilton
1778797,9881,Alma Street,Longwood,Riverton/Aparima
1788456,7010,Alma Street,Nelson,
1825418,1023,Alma Street,Newmarket,Auckland
1831109,0627,Alma Street,Northcote Point,Auckland
1791307,7204,Alma Street,Renwick,
1775099,9012,Alma Street,Saint Kilda,Dunedin
1823599,0610,Alma Street,Te Atatu South,Auckland
1777015,9831,Alma Street,Wyndham,
1791711,7204,Alma Street North,Renwick,
1828200,2019,Almay Place,Clover Park,Auckland
1799759,4702,Almond Grove,Feilding,
1829924,0632,Almond Grove,Greenhithe,Auckland
1981305,7604,Almond Lane,Prebbleton,
1818581,1060,Almond Place,Mount Wellington,Auckland
1775156,9085,Almond Street,Waitati,
1785743,8061,Almont Gardens,Bexley,Christchurch
1824371,1023,Almorah Place,Epsom,Auckland
1824366,1023,Almorah Road,Epsom,Auckland
1792495,5024,Almora View,Ascot Park,Porirua
1770476,9482,Almwich Street,Moeraki,
1821986,0630,Alnack Place,Torbay,Auckland
1770269,9400,Aln Street,Oamaru,
1821172,0910,Alnwick Street,Warkworth,
1813380,3206,Aloma Way,Glenview,Hamilton
1834757,9816,Aloway Place,Wallacetown,
1777020,9816,Aloway Street,Wallacetown,
1824360,1023,Alpers Avenue,Epsom,Auckland
1782584,8025,Alpers Place,Hoon Hay,Christchurch
1840134,3432,Alpers Ridge,Leamington,Cambridge
1805271,4110,Alpers Terrace,Marewa,Napier
1809519,3120,Alpha Avenue,Coastlands,Whakatane
1782588,8052,Alpha Avenue,Strowan,Christchurch
1798596,9305,Alpha Close,Wanaka,
1834103,3674,Alpha Road,Komata,Paeroa
1815274,3434,Alpha Street,Cambridge,
1770961,9310,Alpha Street,Cromwell,
1827837,2110,Alpha Street,Papakura,
3029372,6011,Alpha Street,Te Aro,Wellington
3079443,7614,Alpha Way,Rolleston,
1779577,7334,Alpine Avenue,Hanmer Springs,
3080368,9304,Alpine Avenue,Lake Hayes,Queenstown
1785960,7910,Alpine Close,Marchwiel,Timaru
1774240,9024,Alpine Close,Mosgiel,
1839401,9679,Alpine Drive,Te Anau,
1799829,4414,Alpine Grove,Kelvin Grove,Palmerston North
1816891,4310,Alpine Grove,Upper Vogeltown,New Plymouth
1841477,9300,Alpine Lakes Drive,Kawarau Falls,Queenstown
1785061,7630,Alpine Lane,Kaiapoi,
1789488,7072,Alpine Meadows Drive,St. Arnaud,
1774406,9371,Alpine Retreat Road,Ben Lomond,Queenstown
1821166,0984,Alpine Road,Kaukapakapa,
1780663,7675,Alpineview,West Melton,
1790732,7810,Alpine View,Hokitika,
1785986,8083,Alpine View Lane,Parklands,Christchurch
1835145,4625,Alpine Way,Ohakune,
1837278,2120,Alpito Place,Pukekohe,
1782568,8023,Alport Place,Woolston,Christchurch
1826463,0172,Alp Road,Pakotai,Whangarei
3080382,9304,Alps View Place,Lake Hayes,Queenstown
1820643,0602,Alston Avenue,Kelston,Auckland
1780664,7675,Alston Road,Rolleston,
3079074,7615,Altai Place,Rolleston,
1818466,0632,Altair Place,"Sunnynook,Windsor Park",Auckland
1771650,9300,Alta Place,Frankton,Queenstown
1828233,2019,Alta Terrace,Flat Bush,Auckland
1824374,1010,Alten Road,Auckland Central,Auckland
1831622,1024,Altham Avenue,"Morningside,Mount Eden",Auckland
1836618,3112,Althorp Avenue,Pyes Pa,Tauranga
1784667,8042,Althorp Place,Avonhead,Christchurch
3084697,2582,Altitude Road,Ardmore,Papakura
1822478,0620,Altona Road,Forrest Hill,Auckland
1819194,0627,Alton Avenue,Hillcrest,Auckland
1770138,,Alton Avenue,Musselburgh,Dunedin
1841713,7683,Altonbrook Road,Southbridge,
1795020,5810,Alton Grove,Masterton,
1781594,7010,Alton Lane,Nelson,
1842750,7700,Alton Place,Allenton,Ashburton
1799262,4410,Alton Place,Hokowhitu,Palmerston North
3023544,9691,Alton Road,"Rowallan,Tuatapere",Tuatapere
1781595,7010,Alton Street,Nelson,
1771388,9376,Alton Street,Omakau,
1828223,2010,Alton Terrace,Pakuranga Heights,Auckland
1778648,9691,Alton Terrace,Tuatapere,
1774615,9400,Alt Street,Oamaru North,Oamaru
1839313,3112,Alva Glen Place,Pyes Pa,Tauranga
3022227,8024,Alvarez Place,Somerfield,Christchurch
1784153,8025,Alvaston Drive,Halswell,Christchurch
1774964,9016,Alva Street,Dunedin Central,Dunedin
1836108,0930,Alverna Heights View,Gulf Harbour,Whangaparaoa
3017850,4477,Alve Road,Tiakitahuna,Palmerston North
1809126,3112,Alverstoke Road,Parkvale,Tauranga
1831509,1026,Alverston Street,Waterview,Auckland
1838514,2016,Alvre Place,Flat Bush,Auckland
1823596,0610,Alwyn Avenue,Te Atatu South,Auckland
1794428,6037,Alwyn Place,Newlands,Wellington
3043722,7886,Alymer Place,Franz Josef/Waiau,
1781660,7011,Alyson Place,Stoke,Nelson
3078023,1062,Alyssum Road,Mount Wellington,Auckland
1773823,9775,Alyth Road,Kelso,Tapanui
1832468,2013,Amadeus Place,Northpark,Auckland
3026701,0185,Amalin Drive,Te Kamo,Whangarei
1787697,8051,Amamoor Street,Northwood,Christchurch
1807062,3204,Amanda Avenue,Dinsdale,Hamilton
1821023,0920,Amanda Lane,Snells Beach,
1824986,1025,Amandale Avenue,Mount Albert,Auckland
1837489,4010,Amanda Place,Lytton West,Gisborne
1805488,4122,Amanda Place,Mayfair,Hastings
1813425,3288,Amani Lane,Horotiu,Hamilton
1821983,0630,Amante Crescent,"Mairangi Bay,Windsor Park",Auckland
3004041,6035,Amapur Drive,"Khandallah,Ngaio",Wellington
1817195,2019,Amapur Place,Flat Bush,Auckland
1987368,3610,Amaranth Street,Waihi,
1817036,2019,Amaretto Avenue,Flat Bush,Auckland
1838097,3210,Amaril Lane,Flagstaff,Hamilton
1832862,2105,Amarillo Place,Manurewa,Auckland
1838570,3112,Amarillo Place,Ohauiti,Tauranga
3079020,2024,Amari Way,Favona,Auckland
1831716,1061,Amaru Road,"One Tree Hill,Onehunga",Auckland
1839762,7612,Amazon Lane,Pegasus,
1830237,1041,Amazon Parade,Mount Roskill,Auckland
1794406,6035,Ambala Way,Ngaio,Wellington
3078729,0614,Ambar Ridge Avenue,Massey,Auckland
1818656,0931,Ambassador Glade,Orewa,
3078989,2120,Ambedkar Way,Pukekohe,
1838972,9371,Amber Close,Arthurs Point,Queenstown
1835121,9310,Amber Close,Cromwell,
3083326,1072,Amber Court,Stonefields,Auckland
1814677,3110,Amber Crescent,Judea,Tauranga
1826292,0112,Amber Drive,Tikipunga,Whangarei
3080345,2578,Amberfields Way,Runciman,Drury
1830447,0632,Amber Glen,Albany,Auckland
1834997,0377,Ambergris Place,Baylys Beach,
1792624,5018,Amber Grove,Birchville,Upper Hutt
1785596,8083,Amber Grove,Burwood,Christchurch
1829935,3400,Amber Grove,Matamata,
1814742,3120,Amber Grove,Whakatane,
3081299,8051,Amberite Place,Harewood,Christchurch
1813372,3494,Amber Lane,Karapiro,Cambridge
1989587,0295,Amber Lane,Kerikeri,
1807065,3206,Amber Lane,Melville,Hamilton
1815710,3281,Amber Lane,Puketaha,Hamilton
1799920,5510,Amberleigh Place,Levin,
3024630,4412,Amberley Avenue,"Highbury,Westbrook",Palmerston North
1823592,0610,Amberley Avenue,Te Atatu South,Auckland
1779852,,Amberley Beach Road,Amberley,
1813918,3110,Amberley Crescent,Bethlehem,Tauranga
1793203,5010,Amberley Grove,Hutt Central,Lower Hutt
1816648,3210,Amberley Place,Flagstaff,Hamilton
1832881,0800,Amberly Rise,Helensville,
1810111,3015,Amber Place,Pukehangi,Rotorua
1830330,0812,Amber Place,Waimauku,
1982768,7173,Amber Rise,Tasman,Upper Moutere
1829634,2013,Amberwood Drive,"Golflands,Northpark",Auckland
1822767,0602,Ambler Avenue,Glen Eden,Auckland
3030467,7992,Ambler Road,"Arundel,Rangitata",Geraldine
1820155,0473,Ambler Road,Waimamaku,Kaikohe
1784673,8053,Ambleside Drive,Burnside,Christchurch
1832490,2013,Ambleside Drive,Northpark,Auckland
1822902,0600,Ambrico Place,New Lynn,Auckland
1838654,2571,Ambrose Lane,Whitford,
1838287,7400,Ambrose Place,Rangiora,
1824356,1025,Ambrose Street,Mount Albert,Auckland
3080118,0612,Ambrosia Avenue,Henderson,Auckland
1841775,8025,Ambrosia Lane,Aidanfield,Christchurch
3082329,7020,Ambrosia Street,Appleby,Richmond
1792110,5022,Ambulance Drive,Kenepuru,Porirua
1825352,1023,Ambury Avenue,Royal Oak,Auckland
1816890,4312,Ambury Place,Merrilands,New Plymouth
1832193,2022,Ambury Road,Mangere Bridge,Auckland
1832018,2579,Ambush Road,Ramarama,Drury
1779040,8042,Amdale Avenue,Broomfield,Christchurch
1781575,7903,Ameer Street,Pleasant Point,
1796574,4632,Ameku Road,Raetihi,
1791363,7220,Amelia Crescent,Waikawa,Picton
1828212,2022,Amelia Earhart Avenue,Mangere,Auckland
1821712,0626,Amelia Place,Beach Haven,Auckland
1842276,3432,Amelia Place,Leamington,Cambridge
3006908,8025,Amelia Place,Wigram,Christchurch
1804853,4920,Amelia Street,Woodville,
1842168,5573,Amelia Way,Manakau,
3079560,3112,Amelia Way,Pyes Pa,Tauranga
3080686,0420,Amelie Place,Coopers Beach,
3042871,2013,Amera Place,"Burswood,Huntington Park",Auckland
1828230,2010,Amerce Place,Highland Park,Auckland
1832192,2104,Amersham Way,Manukau,Auckland
1814102,3118,Amery Place,Papamoa Beach,Papamoa
1829644,0618,Amery Place,West Harbour,Auckland
1799776,6037,Amesbury Drive,Churton Park,Wellington
1785579,8042,Amesbury Mews,Avonhead,Christchurch
1830408,0612,Amesbury Rise,Henderson,Auckland
1784967,7472,Amesbury Road,Sefton,
1799264,4410,Amesbury Street,Palmerston North,
1796020,5034,Ames Street,Paekakariki,
1807070,3210,Amethyst Place,Chartwell,Hamilton
1810118,3015,Amethyst Place,Pukehangi,Rotorua
1832187,2104,Amethyst Place,Wiri,Auckland
1829922,0632,Amherst Place,Albany,Auckland
1783886,8022,Amherst Place,Cashmere,Christchurch
3084347,2578,Amiami Lane,Karaka,Papakura
1810119,3015,Amies Road,Mangakakahi,Rotorua
1802348,4032,Amiria Avenue,Ruatoria,
1831507,1011,Amiria Street,Saint Marys Bay,Auckland
1771389,9383,Amisfield Road,Mount Pisa,Cromwell
1772255,9011,Ammond Street,Balaclava,Dunedin
3071407,9076,Ammunition Track,"Kenmure,Mount Grand",Dunedin
1804960,4110,Amner Place,Bluff Hill,Napier
1837737,4130,Amner Place,Havelock North,
3082628,3010,Amohau Place,Rotorua,
3033588,3010,Amohau Street,"Ngapuna,Rotorua",Rotorua
3039160,5032,Amohia Street,Paraparaumu,
1810121,3010,Amohia Street,Rotorua,
1787828,8083,Amoka Crescent,Parklands,Christchurch
1841781,2112,Amokura Avenue,Takanini,Auckland
1841756,3210,Amokura Crescent,Flagstaff,Hamilton
1819788,0230,Amokura Drive,Kerikeri,
1814740,3120,Amokura Place,Whakatane,
1795837,3198,Amokura Road,Otara,Opotiki
1814741,3123,Amokura Road,Taneatua,
1814848,3015,Amokura Street,Fairy Springs,Rotorua
1831227,0612,Amokura Street,Henderson,Auckland
1798239,5036,Amokura Street,Waikanae,
1837792,2016,Amon Avenue,Flat Bush,Auckland
3082973,4414,Amon Avenue,Kelvin Grove,Palmerston North
1798825,4894,Amon Street,Parewanui,Tangimoana
1805856,3072,Amoore Road,Mamaku,
1807873,3889,Amopo Street,Kawhia,
1821030,0932,Amorino Drive,Red Beach,
1805393,3330,Amoroa Place,Acacia Bay,Taupo
1787025,7472,Amors Road,Sefton,
1782557,8061,Amos Place,Shirley,Christchurch
1813243,3998,Amos Road,Waimiha,
1816504,4387,Amo Street,Tarata,
1811353,3710,Amo Street,Te Kauwhata,
1794412,6021,Amos Way,Kingston,Wellington
3083638,9879,Amos Way,Otatara,Invercargill
1836907,9372,Amphion Way,Glenorchy,
1822903,0782,Amreins Road,"Taupaki,Waitakere","Auckland,Taupaki"
3082824,7614,Amrit Lane,Rolleston,
1794404,6035,Amritsar Street,Khandallah,Wellington
1809360,3118,Amsbury Road,Papamoa Beach,Papamoa
3078783,0295,Amsharlo Drive,Kerikeri,
1782578,8013,Amstel Lane,Richmond,Christchurch
1824359,0600,Amsterdam Place,Avondale,Auckland
1803365,4120,Amundsen Avenue,Flaxmere,Hastings
1800257,5019,Amundsen Grove,Stokes Valley,Lower Hutt
1810124,3015,Amun Place,Pomare,Rotorua
3079038,7615,Amur Crescent,Rolleston,
1779574,7334,Amuri Avenue,Hanmer Springs,
1837170,4472,Amuri Lane,Turitea,Palmerston North
1785497,8013,Amuri Park Lane,Christchurch Central,Christchurch
1814287,3503,Amuri Place,Ngatea,
1828225,2023,Amuri Place,Otara,Auckland
1833238,0293,Amuri Road,Kerikeri,
1784150,8042,Amuri Street,Hei Hei,Christchurch
1784154,8042,Amyes Road,Hornby,Christchurch
1838084,0112,Amy Kate Street,Tikipunga,Whangarei
1832907,2016,Amylynn Place,East Tamaki,Auckland
1812179,3112,Amy Place,Pyes Pa,Tauranga
1842447,7400,Amy Place,Rangiora,
1824873,1051,Amy Street,Ellerslie,Auckland
1806083,3500,Amy Street,Thames,
1835002,4312,Amy Way,Bell Block,New Plymouth
1839252,5573,Amy Way,Manakau,
1832484,2016,Anaheim Boulevard,Shamrock Park,Auckland
1794417,6037,Anaheim Place,Churton Park,Wellington
3080049,1042,Anahere Lane,Hillsborough,Auckland
1822566,0620,Anakiwa Place,Milford,Auckland
1791223,7281,Anakiwa Road,"Anakiwa,Linkwater",Linkwater
1799261,4414,Anakiwa Street,Kelvin Grove,Palmerston North
3017313,7284,Anakoha Bay,"Anakoha,Anakoha Bay",Marlborough Sounds
1791224,7284,Anakoha Road,Anakoha,Marlborough Sounds
1828215,2013,Analie Place,East Tamaki,Auckland
1781088,7778,Anama Cavendish Road,Cavendish,Mount Somers
3022544,7778,Anama School Road,"Cavendish,Surrey Hills",Mount Somers
1781081,7778,Anama Settlement Road,"Mayfield,Surrey Hills","Ashburton,Mount Somers"
1781085,7778,Anama Station Road,"Cavendish,Mayfield","Ashburton,Mount Somers"
3013992,7778,Anama Valetta Road,"Cavendish,Valetta","Ashburton,Mount Somers"
1809507,3191,Anania Road,Ruatoki,Taneatua
1828202,2022,Anarahi Place,Mangere Bridge,Auckland
1785591,3582,Anarake Street,Whangapoua,Coromandel
1838831,7197,Anarewa Crescent,Kaiteriteri,Motueka
3062591,4174,Anaroa Road,"Raukawa,Te Onepu","Otane,Raukawa"
3084301,3192,Anaru Drive,Putauaki,Kawerau
1799283,4412,Anaru Place,Awapuni,Palmerston North
3014787,7674,Anaru Road,Lincoln,
1796028,5032,Anaru Street,Raumati Beach,Paraparaumu
1790007,7872,Ana Street,Moana,
3080253,3177,Anatere Rise,Athenree,Waihi Beach
1840402,7183,Anatoki Track Road,Takaka,
3084293,0175,Anatole Way,Pataua North,Parua Bay
1802349,4079,Anaura Road,"Anaura Bay,Mangatuna","Mangatuna,Tokomaru Bay"
1803010,4188,Anaura Road,Kotemaori,
3082926,3118,Anawhata Lane,Papamoa,
3059324,0772,Anawhata Road,"Anawhata,Piha","Auckland,Piha"
3083247,0116,Anbrue Lane,Ruakaka,
1841682,0230,Anchorage Avenue,Kerikeri,
1839477,2113,Anchorage Drive,Karaka,Papakura
1809511,3120,Anchorage Grove,Coastlands,Whakatane
1809125,3112,Anchorage Grove,Maungatapu,Tauranga
1818626,0294,Anchorage Heights Place,Kerikeri,
1842734,7910,Anchorage Place,Kensington,Timaru
1785588,8042,Anchorage Road,Hornby South,Christchurch
1839367,0505,Anchorage Road,Mangawhai Heads,Mangawhai
1989625,0174,Anchorage View,Whangarei Heads,
1813887,3210,Anchor Close,Flagstaff,Hamilton
3079824,3118,Anchor Crescent,Papamoa,
1838327,0932,Anchorite Way,"Red Beach,Silverdale",
1792113,5024,Anchor Lane,Whitby,Porirua
1821711,0626,Anchor Place,Beach Haven,Auckland
1796601,3420,Anchor Place,Tokoroa,
1827259,2676,Anchor Road,Paerata,Pukekohe
1841510,4591,Anchor Watch,Waverley,
1828226,2105,Ancona Lane,Goodwood Heights,Auckland
3079495,3400,Ancroft Drive,Matamata,
1954223,2110,Ancroft Street,Papakura,
1771190,9500,Ancrum Street,Roxburgh,
1772248,9010,Andail Street,Glenleith,Dunedin
1813861,3118,Andalusian Place,Papamoa Beach,Papamoa
1843031,2113,Andalusian Way,Karaka,Papakura
1800485,6035,Andaman Grove,Khandallah,Wellington
3080610,2580,Anda Place,Karaka,Papakura
1838399,0632,Andara Close,Pinehill,Auckland
1831364,0612,Andelko Place,Henderson,Auckland
1808403,3114,Anderley Avenue,Omokoroa,
1822571,0622,Ander Place,Takapuna,Auckland
1788026,7830,Andersen Street,Blacks Point,Reefton
1824363,1072,Anderson Avenue,Point England,Auckland
1780179,7674,Anderson Avenue,Springston,
3042282,5011,Anderson Grove,"Epuni,Hutt Central",Lower Hutt
1771651,9300,Anderson Heights,Queenstown,
1841915,7886,Anderson Lane,Haast,
1771092,9387,Anderson Lane,Ida Valley,Oturehua
1808417,3172,Anderson Lane,Whakamarama,
3081377,5036,Anderson Park Drive,Waikanae,
1775986,9710,Anderson Place,East Gore,Gore
1818653,0582,Anderson Place,Langs Beach,Waipu
3084716,3900,Anderson Place,Otorohanga,Otorohanga
1838440,9600,Anderson Place,Te Anau,
1770467,9492,Anderson Road,"Airedale,Enfield",Oamaru
3034461,9893,Anderson Road,"Ashers,Kapuka",Invercargill
1804295,4286,Anderson Road,Ashley Clinton,Takapau
1778832,9782,Anderson Road,Benmore,Dipton
1788983,7198,Anderson Road,"Brooklyn,Riwaka",Motueka
3034465,9782,Anderson Road,"Browns,Springhills",Winton
1814351,3206,Anderson Road,"Deanwell,Melville",Hamilton
1817380,4398,Anderson Road,Eltham,
1787502,7476,Anderson Road,Eyrewell,West Eyreton
3034473,9593,Anderson Road,"Gabriels Gully,Lawrence",Lawrence
1770343,9481,Anderson Road,Goodwood,Palmerston
1810127,3072,Anderson Road,Hamurana,
1821018,0875,Anderson Road,"Helensville,Kaukapakapa",
1773443,9231,Anderson Road,"Inch Clutha,Stirling","Kaitangata,Stirling"
1774429,9586,Anderson Road,Katea,Owaka
1805744,4171,Anderson Road,Kereru,Hastings
3034487,0985,Anderson Road,"Matakana,Warkworth",
1813141,3876,Anderson Road,Ngahinapouri,Ohaupo
1803706,4178,Anderson Road,"Pakipaki,Raukawa","Hastings,Raukawa"
1782153,7972,Anderson Road,Southburn,
1774097,9587,Anderson Road,Tapanui,
1804065,4112,Anderson Road,Taradale,Napier
1777667,9883,Anderson Road,Thornbury,Riverton/Aparima
1798698,4592,Anderson Road,Waitotara,Whanganui
1774550,9584,Anderson Road,Waiwera South,Clinton
1775509,9305,Anderson Road,Wanaka,
1803704,4172,Anderson Road,Whakatu,Hastings
3019312,9012,Andersons Bay Road,"Dunedin Central,Kensington,Musselburgh,South Dunedin",Dunedin
3045332,5713,Andersons Line,"Carrington,Clareville",Carterton
1822574,,Andersons Road,"Browns Bay,Oteha",Auckland
1780032,8971,Andersons Road,Charteris Bay,Governors Bay
1780178,7682,Andersons Road,Leeston,
1788025,7830,Andersons Road,Reefton,
1784203,8011,Anderson Street,Addington,Christchurch
3081854,7410,Anderson Street,Amberley,
1804754,4930,Anderson Street,Dannevirke,
1797799,4900,Anderson Street,Eketahuna,
1799270,4410,Anderson Street,Hokowhitu,Palmerston North
1770474,9495,Anderson Street,Kakanui,Oamaru
1811666,3300,Anderson Street,Morrinsville,
1812084,3411,Anderson Street,Putaruru,
1790629,7803,Anderson Street,Rapahoe,Greymouth
1788027,7830,Anderson Street,Reefton,
1773441,9231,Anderson Street,Stirling,
1794424,6021,Anderson Terrace,Mount Cook,Wellington
1816775,4312,Anderson Way,Highlands Park,New Plymouth
1832700,2679,Anderson Way,Waiau Pa,Pukekohe
1791755,4475,Anders Road,Westbrook,Palmerston North
2014019,9024,Anderton Crescent,Mosgiel,
1828228,2022,Andes Avenue,Mangere Bridge,Auckland
1842994,7614,Andesite Drive,Rolleston,
1831690,1042,Andes Place,Lynfield,Auckland
3082256,0618,Andover Lane,Hobsonville,Auckland
1782559,8014,Andover Street,Merivale,Christchurch
1832982,2105,Andover Way,Goodwood Heights,Auckland
3078932,0587,Andrae Lane,Maungaturoto,
1828219,2010,Andrea Place,Sunnyhills,Auckland
1834361,0932,Andre Rise,Stanmore Bay,Whangaparaoa
1782157,7978,Andre Road,Makikihi,Waimate
1801177,4815,Andresen Street,Foxton Beach,Foxton
1799275,4414,Andrew Avenue,Roslyn,Palmerston North
1828211,2022,Andrew Baxter Drive,Mangere,Auckland
1838447,7999,Andrew Don Drive,Lake Tekapo,
3006892,3300,Andrew Hilton Close,Morrinsville,
1978664,0932,Andrew Jack Road,Silverdale,
1828217,2022,Andrew McKee Avenue,Auckland Airport,Auckland
1839925,4820,Andrew Murray Drive,Linton,Palmerston North
1790858,7201,Andrew Place,Blenheim,
1809116,3110,Andrew Place,Otumoetai,Tauranga
1827258,2684,Andrew-Pye Road,Manukau Heads,Awhitu
1827964,2010,Andrew Road,"Botany Downs,Howick",Auckland
1813140,3877,Andrew Road,Parawera,
1793206,5010,Andrews Avenue,Hutt Central,Lower Hutt
1782587,8024,Andrews Crescent,Spreydon,Christchurch
1796400,4826,Andrews Drive,Waiouru,
1790869,5018,Andrews Lane,"Ebdentown,Upper Hutt Central",Upper Hutt
1796738,4501,Andrews Place,Gonville,Whanganui
1782160,7980,Andrews Road,Glenavy,Waimate
1779575,7395,Andrews Road,Hanmer Forest,Hanmer Springs
1774137,9772,Andrews Road,"Kaiwera,Otaraia","Gore,Mataura"
1803698,4171,Andrews Road,Kereru,Hastings
3002151,7674,Andrews Road,Lincoln,
1777021,9793,Andrews Road,Lowther,
1798827,4787,Andrews Road,Marton,
1808172,2697,Andrews Road,Onewhero,
1815121,3393,Andrews Road,Otway,Te Aroha
1771555,9300,Andrews Road,Queenstown,
3002158,7091,Andrews Road,Wairoa Valley,Brightwater
1801488,4073,Andrews Road,Whangara,
3014597,7991,Andrews Stream Road,Orari Gorge,Geraldine
1798608,4815,Andrews Street,Foxton Beach,Foxton
1806972,3600,Andrews Street,Paeroa,
3081762,7881,Andrews Terrace,Kokatahi,
1780734,7700,Andrew Street,Allenton,Ashburton
1791562,7201,Andrew Street,Blenheim,
1781585,7984,Andrew Street,Cave,
1802218,4010,Andrew Street,Elgin,Gisborne
1800949,4702,Andrew Street,Feilding,
1795019,5810,Andrew Street,Kuripuni,Masterton
1781749,7910,Andrew Street,"Marchwiel,Waimataitai",Timaru
1804072,4110,Andrew Street,Marewa,Napier
1785341,7400,Andrew Street,Rangiora,
1781859,7011,Andrew Street,Stoke,Nelson
1795269,5894,Andrew Street,Tinui,
1812284,3420,Andrew Street,Tokoroa,
1798246,5036,Andrew Street,Waikanae,
1787270,7924,Andrew Street,Waimate,
1796398,4826,Andrew Street,Waiouru,
1786467,7920,Andrewville Lane,Temuka,
1799277,4410,Andrew Young Street,Palmerston North,
1828221,2013,Andromeda Crescent,East Tamaki,Auckland
1822568,0632,Andros Place,Unsworth Heights,Auckland
1838656,2019,Andrusha Place,Flat Bush,Auckland
1785546,8022,Andybrae Lane,Saint Martins,Christchurch
1837601,2016,Andy Crescent,Flat Bush,Auckland
1859062,7011,Andy Whiting Place,Stoke,Nelson
3082018,0932,Anehana Place,Stanmore Bay,Whangaparaoa
3082799,0632,Anehu Place,Greenhithe,Auckland
1997900,3173,Aneta Way,Pyes Pa,Tauranga
1784670,8083,Anfield Street,Brooklands,Christchurch
1853113,7608,Anfield Way,Lincoln,
1797567,4822,Anga Street,Tangimoana,
1812547,3377,Angela Place,Kinloch,Taupo
1784678,8041,Angela Street,"Sockburn,Upper Riccarton",Christchurch
1840590,4414,Angelina Way,Kelvin Grove,Palmerston North
1823604,0614,Angeline Place,Massey,Auckland
1794398,6037,Angell Street,Johnsonville,Wellington
1827963,2014,Angelo Avenue,Howick,Auckland
1826416,9300,Angelo Drive,"Frankton,Queenstown Hill",Queenstown
3078358,0616,Angels Lane,Hobsonville,Auckland
1789931,7020,Angelus Avenue,Richmond,
1833175,0932,Angel Way,Stanmore Bay,Whangaparaoa
3078470,2018,Angiangi Crescent,Beachlands,Auckland
3083116,7615,Angie Lane,Rolleston,
1781747,7910,Angland Avenue,Kensington,Timaru
1814577,3188,Angland Drive,Te Ranga,Te Puke
1775561,9013,Angle Avenue,Tainui,Dunedin
1776578,9810,Anglem Street,Hawthorndale,Invercargill
1787699,8051,Anglem Way,Northwood,Christchurch
1809516,3193,Angle Road,Awakeri,Whakatane
1803701,4171,Angle Road,Kereru,Hastings
1777009,9872,Angle Road,Mabel Bush,Invercargill
1826931,4381,Anglers Avenue,Warea,
3079578,3114,Anglers Way,Omokoroa,
1828197,2102,Anglers Way,Wattle Downs,Auckland
1784669,8083,Anglesea Avenue,Parklands,Christchurch
1771444,9302,Anglesea Street,Arrowtown,
1824370,1011,Anglesea Street,"Freemans Bay,Ponsonby",Auckland
1807114,3204,Anglesea Street,Hamilton Central,Hamilton
1791226,7204,Anglesea Street,Renwick,
1799202,4412,Anglesey Place,Awapuni,Palmerston North
1779708,7384,Anglesey Street,Conway Flat,Cheviot
1778446,9810,Anglesey Street,Hawthorndale,Invercargill
1825496,1061,Angle Street,Onehunga,Auckland
1791360,7220,Angle Street,Picton,
1781959,7011,Anglia Street,Wakatu,Nelson
3060920,4970,Angora Road,"Akitio,Herbertville","Herbertville,Pongaroa"
1794408,6023,Angus Avenue,Berhampore,Wellington
1833978,0112,Angus Lane,Te Kamo,Whangarei
1840309,4474,Angus Lane,Tokomaru,Palmerston North
1808091,3611,Angus Lane,Waihi Beach,
2007936,5713,Angus Place,Carterton,
1805301,4110,Angus Place,Onekawa,Napier
3080721,7400,Angus Place,Rangiora,
1786093,7025,Angus Place,Wakefield,
1813139,3881,Angus Road,Ohaupo,
1813963,3200,Angus Street,Grandview Heights,Hamilton
1828201,2023,Angus Street,Otara,Auckland
1782556,8023,Angus Street,Sydenham,Christchurch
1842120,5032,Angus Way,Nikau Valley,Paraparaumu
3083175,3110,Anianiku Place,Omanawa,
1842561,3720,Ania Way,Ngaruawahia,
1823432,0614,Anich Road,Massey,Auckland
1837300,9291,Anicich Road,Milton,
1791734,5032,Anikia Court,Paraparaumu,
1812550,3382,Ani Miria Place,Tauranga Taupo,Turangi
1815200,3381,Ani Patena Place,Kuratau,Turangi
3079010,0614,Ani Rangitunoa Way,Swanson,Auckland
1792681,5018,Aniseed Grove,Timberlea,Upper Hutt
1789499,7081,Aniseed Valley Road,"Aniseed Valley,Hope",Richmond
1825353,1041,Anita Avenue,Mount Roskill,Auckland
1802219,4010,Anita Grove,Riverdale,Gisborne
1802512,4195,Aniwaniwa Road,Te Urewera,
3081659,3210,Anker Close,Chartwell,Hamilton
1838277,5032,Anlaby Road,Nikau Valley,Paraparaumu
1792506,5018,Annabell Grove,Haywards,Lower Hutt
1807119,3206,Annabel Place,Bader,Hamilton
1836020,8051,Annaby Drive,Northwood,Christchurch
1830008,2016,Annagary Rise,Dannemora,Auckland
3084733,9305,Annahs Place,Wanaka,Wanaka
1982473,3210,Anna Jean Crescent,Flagstaff,Hamilton
1841671,0602,Anna Lane,Glen Eden,Auckland
1834395,4120,Anna Lane,Raureka,Hastings
1771090,9396,Annalee Street,Naseby,
1851160,0931,Annalise Place,Orewa,
1829815,2016,Annalong Road,Dannemora,Auckland
1835163,2013,Annamoe Place,East Tamaki,Auckland
1787285,7674,Annan Avenue,Springston,
3041232,4410,Annandale Avenue,"Palmerston North,Takaro",Palmerston North
1836565,3112,Annandale Drive,Pyes Pa,Tauranga
3065198,0782,Annandale Road,"Kumeu,Taupaki",
1816772,4310,Annandale Street,Lynmouth,New Plymouth
3022688,5024,Annan Grove,Papakowhai,Porirua
1817829,9330,Annan Street,Clyde,
1775335,9587,Annan Street,Heriot,Tapanui
1824358,1011,Annan Street,Herne Bay,Auckland
1773951,9532,Annan Street,Lawrence,
1777673,9630,Annan Street,Nightcaps,
1775775,9810,Annan Street,West Invercargill,Invercargill
1815239,3330,Anna Place,Hilltop,Taupo
1780451,7681,Annavale Road,Springfield,
1828210,2012,Anna Watson Road,Half Moon Bay,Auckland
1789220,7011,Ann Bird Court,Stoke,Nelson
1811355,3283,Annebrook Road,Tamahere,Hamilton
1973518,0910,Anne Burton Drive,Warkworth,
1795268,5894,Annedale Road,Tinui,
1784679,8053,Annell Place,Burnside,Christchurch
1822562,0629,Anne McLean Drive,Bayview,Auckland
1840755,4410,Anne Place,Fitzherbert,Palmerston North
1812085,3411,Anne Place,Putaruru,
1814676,3110,Anne Road,Bellevue,Tauranga
1822564,0627,Anne Road,Hillcrest,Auckland
3042229,7011,Annesbrook Drive,"Annesbrook,Stoke,Tahunanui,Wakatu",Nelson
1781584,7984,Anne Street,Cave,
1821868,0624,Anne Street,Devonport,Auckland
1797266,4702,Anne Street,Feilding,
1816784,4310,Anne Street,Ferndale,New Plymouth
1776574,9810,Anne Street,Gladstone,Invercargill
1809508,3121,Anne Street,Ohope,
1809900,3910,Anne Street,Te Kuiti,
1780733,7700,Anne Street,Tinwald,Ashburton
1812227,3420,Anne Street,Tokoroa,
1794426,6012,Anne Street,Wadestown,Wellington
1798245,5036,Anne Street,Waikanae,
1773109,9510,Anne Street,Waikouaiti,
1778041,9720,Anne Street,Winton,
1833813,9300,Annes Way,Queenstown,
1831333,0610,Annette Avenue,Te Atatu South,Auckland
1806100,3510,Annette Place,Whitianga,
1821021,0891,Annett Road,Kumeu,
1781083,7775,Annetts Road,Hinds,Ashburton
1787657,8083,Anne Ward Lane,Burwood,Christchurch
1807126,3200,Anne Way,Beerescourt,Hamilton
1779060,8024,Annex Road,"Hillmorton,Middleton,Upper Riccarton",Christchurch
1772910,9012,Annex Street,Saint Kilda,Dunedin
3079931,1023,Annie Buxton Place,Epsom,Auckland
1861270,8025,Annie Going Lane,Halswell,Christchurch
1791782,5012,Annie Huggan Grove,Petone,Lower Hutt
3077720,7614,Annie Jane Close,Rolleston,
1834745,8025,Annies Lane,Aidanfield,Christchurch
1832802,2123,Annieston Place,Waiuku,
1775140,9081,Annie Street,Osborne,Port Chalmers
1814156,3772,Annies Way,Rangiriri,Te Kauwhata
1823426,0602,Annison Avenue,Glen Eden,Auckland
3078094,2019,Annmarie Avenue,"Flat Bush,Totara Park",Auckland
1807122,3200,Ann Michele Street,Te Rapa Park,Hamilton
1773372,9230,Ann Street,Balclutha,
1807118,3200,Ann Street,Beerescourt,Hamilton
1778395,9814,Ann Street,Bluff,
1802217,4010,Ann Street,Inner Kaiti,Gisborne
3031817,9010,Ann Street,"Kaikorai,Roslyn",Dunedin
1777674,9683,Ann Street,Otautau,
1810153,3010,Ann Street,Victoria,Rotorua
1833133,2016,Anrath Close,East Tamaki,Auckland
1830869,9305,Anreca Lane,Wanaka,
3079936,9092,Anscombe Close,Mosgiel,
1834942,2120,Anselmi Ridge Road,Pukekohe,
1837178,7630,Ansel Place,Kaiapoi,
3084691,3214,Ansenne Lane,Chartwell,Hamilton
1837283,2022,Ansett Place,Auckland Airport,Auckland
1807130,3206,Ansford Place,Bader,Hamilton
1789744,7025,Anslow Place,Wakefield,
1807132,3214,Anson Avenue,Fairfield,Hamilton
1786977,8042,Ansonby Street,Russley,Christchurch
1793205,5011,Anson Grove,Naenae,Lower Hutt
3049756,1072,Anson Place,Saint Johns,Auckland
1816769,4310,Anson Place,Westown,New Plymouth
1828204,2022,Anson Row,Mangere,Auckland
3028337,7571,Ansons Road,"Charing Cross,Darfield,Kirwee","Darfield,Kirwee"
1796737,4500,Anson Street,Gonville,Whanganui
1780454,7571,Anson Street,Kirwee,
1803368,4122,Anson Street,Mayfair,Hastings
1814675,3110,Anson Street,Tauranga,
1813287,3974,Anso Road,Otorohanga,
1803039,9305,Ansted Place,Wanaka,
3081595,7700,Anstiss Street,Newland,Ashburton
1786627,8053,Anstorer Street,Bryndwr,Christchurch
1828227,2022,Ansty Place,Mangere,Auckland
1828229,2102,Antalya Place,Manurewa,Auckland
1832939,0632,Antares Place,Rosedale,Auckland
1807133,3206,Anthony Crescent,Bader,Hamilton
1796025,5032,Anthony Grove,Paraparaumu Beach,Paraparaumu
1803857,4104,Anthony Place,Bay View,Napier
1828206,2010,Anthony Place,Pakuranga,Auckland
1793543,5028,Anthony Street,Tawa,Wellington
1794554,6023,Antico Street,Melrose,Wellington
3016651,,Antigua Street,"Addington,Christchurch Central",Christchurch
1950629,5028,Antigua Way,Grenada Village,Wellington
1828196,2012,Antilla Place,Half Moon Bay,Auckland
3041276,6037,Antilles Place,Grenada Village,Wellington
3082096,7610,Antill Street,Woodend,
1770962,9310,Antimony Crescent,Cromwell,
1838714,5024,Antipodes Lane,Whitby,Porirua
1819239,7020,Antoine Grove,Richmond,
1806538,8025,Antonia Place,Aidanfield,Christchurch
1816782,4312,Antonia Place,Bell Block,New Plymouth
1813299,3377,Antonia Place,Kinloch,Taupo
1789561,7895,Antonios Road,"Maimai,Victoria Forest Park",Reefton
1811917,4332,Antonio Street,Stratford,
1830445,2112,Anton Place,Takanini,Auckland
1799712,4702,Antree Court,Feilding,
1828203,2023,Antrim Crescent,Otara,Auckland
1793435,5014,Antrim Crescent,Wainuiomata,Lower Hutt
2013010,3175,Antrim Glade,Welcome Bay,Tauranga
1818467,0629,Antrim Grove,Bayview,Auckland
1799199,4410,Antrim Place,Hokowhitu,Palmerston North
1814046,3200,Antrim Place,Nawton,Hamilton
1815721,3330,Antrim Place,Rangatira Park,Taupo
1796736,4501,Antrim Place,Springvale,Whanganui
1805644,4112,Antrim Place,Tamatea,Napier
1774744,9310,Antrim Street,Cromwell,
1772253,9010,Antrim Street,Normanby,Dunedin
1771546,9300,Antrim Street,Queenstown,
1778444,9810,Antrim Street,"Richmond,Windsor",Invercargill
1782574,8023,Antrim Street,Sydenham,Christchurch
1777011,9884,Antrim Street,Waikawa,Tokanui
1833080,2023,Antych Place,Otara,Auckland
3083018,3206,Anurangi Rise,Peacocke,Hamilton
1828224,2010,Anure Place,Highland Park,Auckland
1782582,8025,Anvers Place,Hoon Hay,Christchurch
1821015,0932,Anvil Road,Silverdale,
1824354,1010,Anzac Avenue,Auckland Central,Auckland
3064928,9016,Anzac Avenue,Dunedin Central,Dunedin
3064929,4820,Anzac Avenue,Linton,Palmerston North
1811665,3300,Anzac Avenue,Morrinsville,
1804074,4110,Anzac Avenue,Onekawa,Napier
1809506,3120,Anzac Avenue,Whakatane,
1795520,4010,Anzac Court,Gisborne,
1837475,3378,Anzac Cove,Wharewaka,Taupo
3008134,8061,Anzac Drive,"Aranui,Avondale,Bexley,Burwood",Christchurch
1792689,5018,Anzac Drive,Trentham,Upper Hutt
1787603,7730,Anzac Lane,Methven,
1826262,0110,Anzac Lane,Morningside,Whangarei
1948220,7614,Anzac Lane,Rolleston,
1815632,3378,Anzac Memorial Drive,Wharewaka,Taupo
3044535,4500,Anzac Parade,"Bastia Hill,Durie Hill,Whanganui East",Whanganui
3044536,,Anzac Parade,"Hamilton Central,Hamilton East",Hamilton
1775281,9274,Anzac Place,Clydevale,
1821987,0630,Anzac Road,Browns Bay,Auckland
1809113,3112,Anzac Road,Gate Pa,Tauranga
1826267,0110,Anzac Road,Morningside,Whangarei
1796289,5512,Anzac Road,Otaki,
1832056,2120,Anzac Road,Pukekohe,
1821026,0793,Anzac Road,Riverhead,
1825664,1971,Anzac Road,Waiheke Island,
1802220,4010,Anzac Street,"Awapuni,Gisborne",Gisborne
1812738,3434,Anzac Street,Cambridge,
1773825,9534,Anzac Street,Clinton,
1819127,0371,Anzac Street,Dargaville,
1775987,9710,Anzac Street,Gore,
1822570,0622,Anzac Street,Takapuna,Auckland
1814810,3910,Anzac Street,Te Kuiti,
1779851,7483,Anzac Street,Waipara,
1813820,3288,Anzac Street East,Horotiu,Hamilton
1815460,3288,Anzac Street West,Horotiu,Hamilton
1823441,0816,Anzac Valley Road,Waitakere,Auckland
1795459,7120,Anzac Way,Motueka,
1949723,5014,Anzac Way,Wainuiomata,Lower Hutt
3028160,8042,Anzani Lane,Wigram,Christchurch
1794548,6037,Anzia Way,Johnsonville,Wellington
1799192,4412,Anzio Place,Awapuni,Palmerston North
1814857,3081,Anzio Road,Reporoa,
3084738,0814,Aodh Farm Drive,Westgate,Auckland
3037607,,Aokautere Drive,"Aokautere,Fitzherbert","Aokautere,Palmerston North"
1838719,0294,Ao Marama Place,Kerikeri,
1805882,3178,Aongatete Road,Aongatete,
3077748,0632,Aoraki Crescent,Albany Heights,Auckland
3079273,7901,Aoraki Crescent,Twizel,
1798234,5024,Aoraki Rise,Aotea,Porirua
1841585,4112,Aoraki Road,Poraiti,Napier
1837855,7999,Aorangi Crescent,Lake Tekapo,
3080861,7805,Aorangi Drive,Greymouth,
1821713,0626,Aorangi Place,Birkenhead,Auckland
1797628,4775,Aorangi Road,Aorangi,Feilding
3007114,3991,Aorangi Road,"Aukopae,Tokirima","Ohura,Taumarunui"
1779070,8053,Aorangi Road,"Bryndwr,Papanui",Christchurch
1803007,4281,Aorangi Road,"Hatuma,Takapau","Takapau,Waipukurau"
1814330,3600,Aorangi Road,"Karangahake,Paeroa",
1803707,4171,Aorangi Road,Maraekakaho,
1796027,5032,Aorangi Road,Paraparaumu,
1797171,4576,Aorangi Road,Ranana,Whanganui
1781465,7973,Aorangi Road,Washdyke,Timaru
3050532,4702,Aorangi Street,Feilding,
1794526,6011,Aorangi Terrace,Thorndon,Wellington
3069625,4399,Aorere Road,"Ararata,Mangamingi","Eltham,Hawera"
1824373,1052,Aorere Street,Parnell,Auckland
1788547,7073,Aorere Valley Road,"Bainham,Kahurangi National Park","Collingwood,Kahurangi National Park"
1830597,0371,Aoroa Road,Dargaville,
3083011,3206,Aotahi Terrace,Peacocke,Hamilton
1796288,5512,Aotaki Street,Otaki,
1775981,9710,Aotea Crescent,Gore,
1805612,4130,Aotea Crescent,Havelock North,
1812230,3420,Aotea Crescent,Tokoroa,
1839037,5024,Aotea Drive,Aotea,Porirua
1807146,3210,Aotea Place,Chedworth,Hamilton
1788982,7020,Aotea Place,Richmond,
1794550,6011,Aotea Quay,Pipitea,Wellington
1818692,0602,Aotea Road,Glen Eden,Auckland
3044455,0991,Aotea Road,Great Barrier Island (Aotea Island),
1797172,4573,Aotea Road,Kakatahi,Whanganui
1815473,3889,Aotea Road,Kawhia,
1800743,5032,Aotea Road,Raumati South,Paraparaumu
1807881,,Aotearoa Road,Wharepapa South,Te Awamutu
1821982,0630,Aotearoa Terrace,Murrays Bay,Auckland
1796730,4501,Aotea Street,Castlecliff,Whanganui
1800948,4702,Aotea Street,Feilding,
1824365,1071,Aotea Street,Orakei,Auckland
1772258,9013,Aotea Street,Tainui,Dunedin
1816778,4312,Aotea Street,Welbourn,New Plymouth
1823430,0618,Aotea Street,Whenuapai,Auckland
1782586,8022,Aotea Terrace,Huntsbury,Christchurch
1810171,3074,Aoturoa Avenue,Rotoiti Forest,Rotorua
1807882,3889,Apakura Street,Kawhia,
1809525,3120,Apanui Avenue,Whakatane,
1796023,3197,Apanui Road,Otara,Opotiki
1792135,5022,Aparangi Crescent,Elsdon,Porirua
1811299,3710,Aparangi Drive,Te Kauwhata,
1794544,6022,Aparima Avenue,Miramar,Wellington
1778934,9600,Aparima Drive,Te Anau,
1777679,9822,Aparima Parade,Riverton/Aparima,
1976992,4110,Aparima Place,Awatoto,Napier
3034858,9822,Aparima Place,"Riverton Racecourse,Riverton/Aparima",Riverton/Aparima
3061227,9689,Aparima Road,"Aparima,Bayswater,Wairio,Woodlaw",Otautau
1775984,9710,Aparima Street,Gore,
1775752,9881,Aparima Street,Longwood,Riverton/Aparima
1778295,9892,Aparima Street,Mokoreta,Wyndham
1778856,9683,Aparima Street,Otautau,
1798759,4710,Apa Street,Marton,
2003055,2103,Apa Street,Weymouth,Auckland
1808423,3178,Apata Station Road,Whakamarama,
1842377,4200,Apatu Place,Waipukurau,
1805203,4172,Apatu Road,Waipatu,Hastings
1803032,4108,Apatu Street,Wairoa,
1796026,5034,Aperahama Street,Paekakariki,
1817480,4671,Aperaniko Street,Ohawe,Hawera
3080250,2104,Aperira Lane,Wiri,Auckland
1773110,9471,Apes Road,Karitane,Waikouaiti
1814043,3112,Apex Way,Ohauiti,Tauranga
1824372,1071,Apihai Street,Orakei,Auckland
3044624,1072,Apirana Avenue,"Glen Innes,Point England,Saint Heliers",Auckland
1826269,0112,Apirana Avenue,Regent,Whangarei
1810176,3077,Apirana Road,Horohoro,Rotorua
1797355,4777,Apiti Road,Kimbolton,
1818012,4390,Apiti Road,Ratapiko,
1805202,4184,Apley Road,Puketapu,Napier
1821714,0626,Aplin Place,Birkdale,Auckland
1794558,6035,Aplin Terrace,Ngaio,Wellington
1822559,0632,Apollo Drive,"Pinehill,Rosedale",Auckland
1800037,5024,Apollo Lane,Cannons Creek,Porirua
3082322,0230,Apollo Lane,Kerikeri,
1801270,4414,Apollo Parade,Milson,Palmerston North
1782575,8052,Apollo Place,Papanui,Christchurch
1816195,3210,Apollo Place,Rototuna North,Hamilton
1818447,0920,Apollo Place,Snells Beach,
1810179,3015,Apollo Place,Sunnybrook,Rotorua
1774179,9305,Apollo Place,Wanaka,
1809108,3110,Apollo Street,Otumoetai,Tauranga
3024332,0176,Aponga Road,Purua,Whangarei
3026644,0172,Aponga Stream Road,Purua,Whangarei
1842582,7120,Apo Place,Motueka,
1793434,5014,Aporoa Grove,Wainuiomata,Lower Hutt
1951094,0810,Aporo Drive,Kumeu,
1932139,3472,Aporo Drive,Matamata,
1841218,7173,Aporo Road,"Ruby Bay,Tasman","Mapua,Upper Moutere"
3079093,0612,Aporo Tawhito Lane,Henderson,Auckland
3077783,3187,Apostle Mews,Papamoa,
1840024,0185,Apotu Park Lane,Kauri,
1831897,0185,Apotu Road,"Hikurangi,Kauri",
1789447,7020,Appaloosa Avenue,Richmond,
1813862,3118,Appaloosa Place,Papamoa Beach,Papamoa
1930778,2113,Appaloosa Street,Karaka,Papakura
3084206,7614,Appaloosa Way,Rolleston,
1809522,3120,Appenzell Drive,Whakatane,
2009996,5014,Apperley Way,Wainuiomata,Lower Hutt
1806115,3620,Apperly Street,Whangamata,
3050277,8081,Appian Lane,Scarborough,Christchurch
1832835,0632,Appian Way,Albany,Auckland
1774966,9010,Appian Way,Roslyn,Dunedin
1829723,0176,Appian Way,Ruatangata West,Whangarei
3011150,9371,Appin Court,Jacks Point,Queenstown
1838759,3330,Appin Stuart View,Rangatira Park,Taupo
1833148,0612,Applebox Lane,Henderson,Auckland
1784677,8053,Appleby Crescent,Burnside,Christchurch
3008899,,Appleby Highway,"Appleby,Hope,Richmond",Richmond
1799194,4412,Appleby Place,Awapuni,Palmerston North
1828205,2024,Appleby Place,Mangere East,Auckland
1809527,3120,Appleby Rise,Whakatane,
1822567,0632,Appleby Road,Albany,Auckland
1815317,3493,Appleby Road,Cambridge,
1827649,2577,Appleby Road,Drury,
1770472,9410,Appleby Street,Hampden,
1835947,8051,Applecross Lane,Harewood,Christchurch
1826507,0582,Applecross Road,Waipu,
1838587,8051,Applefield Court,Northwood,Christchurch
3084168,8051,Applegrove Crescent,Belfast,Christchurch
3081602,0612,Apple Lane,Henderson,Auckland
1788138,7011,Apple Lane,Stoke,Nelson
1829980,0820,Applemoors Way,Riverhead,
3078227,8042,Apple Orchard Lane,Yaldhurst,Christchurch
1951700,0612,Apple Orchard Way,Sunnyvale,Auckland
3071771,5024,Apple Terrace,Ranui,Porirua
1856057,7615,Appleton Court,Rolleston,
1815568,3287,Appleton Lane,Eureka,Hamilton
1794529,6012,Appleton Place,Karori,Wellington
1826261,0110,Appleton Place,Raumanga,Whangarei
1785457,7610,Appleton Place,Woodend,
3068455,3198,Appleton Road,Waiotahe,Opotiki
3079807,0230,Appletree Lane,Kerikeri,
3036772,3985,Appletree Road,"Pomarangai,Te Anga,Waitomo","Piopio,Te Kuiti"
3077893,7011,Appletree Way,Stoke,Nelson
1789284,7173,Apple Valley Road,Mahana,Upper Moutere
1789285,7173,Apple Valley Road East,Mahana,Upper Moutere
1831334,0612,Applewood Drive,Henderson,Auckland
1784668,8051,Applewood Place,Casebrook,Christchurch
3084662,9382,Applewood Place,Wanaka,Wanaka
1823911,1072,Appleyard Crescent,Meadowbank,Auckland
1950453,3171,Applin Lane,Pyes Pa,Tauranga
1772259,9011,Appold Street,"Maryhill,The Glen",Dunedin
3015287,8022,April Place,Hillsborough,Christchurch
1827865,2110,April Place,Red Hill,Papakura
1784675,8042,Apsley Drive,"Avonhead,Russley",Christchurch
1833108,0612,Apsley Rise,Henderson,Auckland
1781928,7910,Apsley Street,Glenwood,Timaru
1794532,6022,Apu Crescent,Lyall Bay,Wellington
1794538,6021,Apuka Street,Brooklyn,Wellington
1806116,3575,Aputa Avenue,Te Puru,Thames
1798240,5036,Aputa Place,Waikanae,
1820356,0483,Aputerewa Road,Peria,Kaitaia
3081382,0992,Aquamarine Avenue,Wainui,
3082027,2113,Aquamarine Road,Rosehill,Papakura
1822766,0602,Aquarius Avenue,Glen Eden,Auckland
1810184,3010,Aquarius Drive,Kawaha Point,Rotorua
3083635,0582,Aquarius Lane,Langs Beach,Waipu
1833023,0582,Aqua View Drive,Waipu,
1837546,3110,Aquavue Way,Bellevue,Tauranga
1860236,5032,Aqua Way,Paraparaumu,
1837689,3210,Aquila Crescent,Rototuna North,Hamilton
1800038,3510,Aquila Drive,Whitianga,
1787075,7400,Aquila Street,Rangiora,
3079914,8042,Arabella Crescent,Yaldhurst,Christchurch
1833115,0920,Arabella Lane,Snells Beach,
1819634,0200,Arabella Road,Opua,
2003826,4200,Arabella Way,Waipukurau,
1813863,3118,Arabian Drive,Papamoa Beach,Papamoa
1824983,1041,Arabi Street,Sandringham,Auckland
1842640,7201,Ara Drive,Redwoodtown,Blenheim
3053150,2583,A R A Drive,"Hunua,Kaiaua",
1823923,1071,Aragon Avenue,Glendowie,Auckland
1799854,5018,Aragon Grove,Kingsley Heights,Upper Hutt
3079984,6023,Ara Haewai,Houghton Bay,Wellington
1794527,6022,Arahanga Grove,Maupuia,Wellington
3082833,3800,Arahanga Lane,Te Awamutu,
3078580,2019,Arahanga Road,Flat Bush,Auckland
3083245,0571,Arahanga Road,Paparoa,
3078420,5036,Ara Hereke,Waikanae,
1822135,0627,Arahia Street,Northcote,Auckland
3081381,0992,Ara Hills Drive,Wainui,
3079671,3210,Arahi Place,Rototuna North,Hamilton
1791875,5010,Arahiwi Grove,Tirohanga,Lower Hutt
1841558,0192,Arahiwi Rise,Pataua South,Parua Bay
1805889,,Arahiwi Road,Mamaku,
1831242,0600,Arahoe Road,New Lynn,Auckland
3081734,2110,Arahopu Place,Papakura,
1792145,5024,Arahura Crescent,Waitangirua,Porirua
3056605,5884,Arahura Drive,Longbush,
1790442,7882,Arahura Pa Road,Awatuna,Hokitika
1783887,8022,Arahura Place,Cashmere,Christchurch
1839831,7612,Arahura Road,Pegasus,
1790439,7882,Arahura Valley Road,Arahura Valley,Hokitika
1820358,0484,Araiawa Road,Pukenui,
3045014,0118,Ara Kahika Lane,One Tree Point,Whangarei
3083371,2025,Ara Kakaha,Papatoetoe,Auckland
3061280,0810,Ara Kakara Avenue,Huapai,Kumeu
3081826,6037,Ara Kanuka,Woodridge,Wellington
1797571,6035,Arakan Way,Khandallah,Wellington
3082267,2022,Ara Kataraina,Mangere,Auckland
3081824,6037,Ara Kawakawa,Woodridge,Wellington
1802747,4077,Arakihi Road,"Tauwhareparae,Tolaga Bay",Tolaga Bay
1805788,4189,Arakinihi Road,Raupunga,
3083599,6035,Ara Koa,Khandallah,Wellington
3081044,3581,Ara Kohekohe,Te Kouma,Coromandel
3021696,2576,Ara-Kotinga,Whitford,
3065704,3198,Arakotipu Boulevard,Waiotahe,Opotiki
1798244,5036,Ara Kuaka,Waikanae Beach,Waikanae
3079326,0230,Ara Lane,Kerikeri,
1822558,0620,Aralia Road,Sunnynook,Auckland
1823429,0604,Arama Avenue,Titirangi,Auckland
1816297,3991,Aramahoe Road,Aukopae,Taumarunui
3082551,0612,Ara Mara Hua,Henderson,Auckland
1812555,3330,Arama Street,Nukuhau,Taupo
3018055,3983,Aramatai Road,"Puketutu,Te Mapara",Te Kuiti
3081733,2110,Aramata Road,Papakura,
1789331,7096,Aramata Road,Tapawera,Wakefield
1830146,2018,Araminta Place,Beachlands,Auckland
3079095,6011,Ara Moana,"Pipitea,Te Aro,Wellington Central",Wellington
1821867,0624,Aramoana Avenue,Devonport,Auckland
1800508,6022,Aramoana Place,Maupuia,Wellington
3032369,9082,Aramoana Road,"Aramoana,Careys Bay,Deborah Bay","Dunedin,Port Chalmers"
1825351,1042,Aramutu Road,Hillsborough,Auckland
1830488,2578,Arana Drive,Karaka,Papakura
1833325,0376,Aranga Beach Road,Aranga,
1819125,0376,Aranga Coast Road,Aranga,
1839060,0230,Aranga Road,Kerikeri,
1819126,0376,Aranga Station Road,"Aranga,Kaihu",
1839682,5010,Aran More Place,Belmont,Lower Hutt
1794539,6023,Aranoni Street,Island Bay,Wellington
1786631,8081,Aranoni Track,Clifton,Christchurch
1814613,3119,Aran Place,Te Puke,
1796733,4501,Aranui Avenue,Castlecliff,Whanganui
1798243,5510,Aranui Avenue,Waitarere Beach,Levin
1815952,3118,Aranui Drive,Papamoa Beach,Papamoa
1775982,9710,Aranui Place,Gore,
1803033,4193,Aranui Road,Frasertown,Wairoa
3039905,4475,Aranui Road,"Kairanga,Newbury","Feilding,Kairanga"
1788984,7005,Aranui Road,"Mapua,Waimea Inlet",Mapua
3082040,3472,Aranui Road,Matamata,
1829951,1060,Aranui Road,Mount Wellington,Auckland
3010448,6022,Aranui Street,"Maupuia,Miramar",Wellington
3081491,7020,Ara o Nga Hekenga,Richmond,
3083964,7091,Ara o Ngahere,Brightwater,
3081488,7020,Ara o Ngati Koata,Richmond,
3084465,3119,Ara O Ngaupari,Te Puke,
3082850,7025,Ara o Paki Paki,Wakefield,
3083965,7022,Ara o Puihi,Brightwater,
3081489,7020,Ara o Tama Ariki,Richmond,
3081490,7020,Ara o Te Atiawa,Richmond,
3083165,3119,Ara o Te Pohue,Te Puke,
3083961,7091,Ara o Waonui,Brightwater,
3081655,6023,Ara Paekawakawa,Island Bay,Wellington
3039391,,Arapaepae Road,"Koputaroa,Levin","Levin,Shannon"
1803815,4182,Arapaepae Road,Te Haroto,Napier
3029435,5571,Arapaepae South Road,"Levin,Ohau",
1809911,3981,Arapae Road,Te Mapara,Te Kuiti
3079928,9884,Ara Pahu,Curio Bay,Tokanui
3082680,5028,Ara Paiwhenua,Tawa,Wellington
1819366,0593,Arapaoa Road,Tinopai,
3081732,2110,Arapapa Road,Papakura,
1803035,4189,Arapata Road,Raupunga,
1795712,4779,Arapata Road,Waituna West,Feilding
3082446,3225,Arapatiki Street,Raglan,
3081403,5028,Ara Patukawenga,Tawa,Wellington
3035803,5026,Arapawa Place,Plimmerton,Porirua
3083466,8051,Arapawa Street,Belfast,Christchurch
1815477,3382,Arapera Road,Hatepe,Turangi
1771019,7110,Arapeta Place,Takaka,
1788142,7011,Arapiki Road,Stoke,Nelson
1789293,7011,Arapiki Way,Stoke,Nelson
1800506,6037,Arapiko Street,Johnsonville,Wellington
3080385,5391,Arapipi Way,Peka Peka,Waikanae
3084463,6037,Ara Pipiwharauroa,Paparangi,Wellington
3084558,2023,Ara Piriopono,Otara,Auckland
1789542,7893,Arapito Road,"Kahurangi National Park,Karamea",
1823434,0604,Arapito Road,Titirangi,Auckland
1806754,3503,Arapito Street,Ngatea,
1830598,0374,Arapohue Road,"Arapohue,Turiwiri",Dargaville
1808173,2697,Arapoto Road,Onewhero,
1825495,1061,Arapuni Avenue,Onehunga,Auckland
3008908,3880,Arapuni Lake Road,Wharepapa South,Te Awamutu
1814114,,Arapuni Road,"Arapuni,Kihikihi,Lake Arapuni,Parawera,Pukeatua,Putaruru","Parawera,Pukeatua,Putaruru,Te Awamutu"
1815163,3411,Arapuni Street,Putaruru,
3077898,2022,Ararata Lane,Mangere Bridge,Auckland
1817479,4674,Ararata Road,"Ararata,Hawera",Hawera
3083306,8081,Ararat Lane,Clifton,Christchurch
3082268,2022,Ara Reti,"Mangere,Mangere Bridge",Auckland
3083372,2025,Ara Rewarewa,Papatoetoe,Auckland
3052514,3991,Ararimu East Road,"Aukopae,Taumarunui",Taumarunui
3057768,2579,Ararimu Road,"Ararimu,Hunua,Ramarama","Drury,Hunua"
3057767,3991,Ararimu Road,"Aukopae,Ohura","Ohura,Taumarunui"
1821019,0882,Ararimu Valley Road,"Helensville,Riverhead,Waimauku",
1792683,5018,Ararino Street,"Silverstream,Trentham",Upper Hutt
1815953,3118,Araroa Place,Papamoa Beach,Papamoa
1820357,0481,Araroa Road,Ahipara,Kaitaia
1819371,,Ararua Road,"Ararua,Matakohe,Waiotira","Matakohe,Waiotira"
1831425,1050,Ara Street,Remuera,Auckland
3084625,0931,Ara Taha Crescent,Orewa,
1812549,3382,Arataha Street,Motuoapa,
1828207,2012,Ara Tai,Half Moon Bay,Auckland
1841517,5510,Arataki Grove,Waitarere Beach,Levin
3080917,1062,Arataki Lane,Otahuhu,Auckland
1803705,4130,Arataki Road,Havelock North,
1812548,3492,Arataki Road,Whakamaru,Mangakino
2006825,0602,Arataki Views Way,Glen Eden,Auckland
1788991,7096,Aratapu Road,Tapawera,Wakefield
1817220,4320,Aratapu Street,Waitara,
1810188,3010,Arataua Street,Ohinemutu,Rotorua
1826264,0112,Aratiatia Place,Tikipunga,Whangarei
1805879,3378,Aratiatia Road,"Rotokawa,Wairakei",Taupo
1828218,2023,Aratiatia Street,Otara,Auckland
1812546,3378,Aratiatia Village Road,Rotokawa,Taupo
1792569,7020,Aratia Way,Richmond,
1796287,5512,Aratika Crescent,Otaki,
1841074,7872,Aratika Drive,Arnold Valley,
1793207,5019,Aratika Grove,Stokes Valley,Lower Hutt
3081825,6037,Ara Toetoe,Woodridge,Wellington
1825538,1051,Aratonga Avenue,Greenlane,Auckland
1786630,8081,Aratoro Place,Mount Pleasant,Christchurch
3082681,6012,Ara Toutouwai,Karori,Wellington
3084519,2113,Aratuhia Lane,Rosehill,Papakura
3083974,,Ara Tuhono,"Puhoi,Warkworth",Warkworth
3081511,1062,Ara Tutaki,Otahuhu,Auckland
1841295,8083,Araucana Way,Burwood,Christchurch
1831052,0624,Arawa Avenue,Devonport,Auckland
1808422,3189,Arawa Avenue,Maketu,
1812229,3420,Arawa Crescent,Tokoroa,
3079360,2110,Arawai Terrace,Papakura,
1838685,3510,Arawa Lane,Whitianga,
1796907,4501,Arawa Place,Castlecliff,Whanganui
1831858,0110,Arawa Place,Onerahi,Whangarei
1800505,6021,Arawa Road,Hataitai,Wellington
1808421,3186,Arawa Road,Pongakawa,
1814743,3120,Arawa Road,Whakatane,
3082177,0992,Arawaru Avenue,Wainui,
1774961,9013,Arawa Street,"Andersons Bay,Tainui",Dunedin
1810138,3983,Arawa Street,Aria,
1807182,3204,Arawa Street,Frankton,Hamilton
1775983,9710,Arawa Street,Gore,
1835302,1023,Arawa Street,Grafton,Auckland
1815081,3400,Arawa Street,Matamata,
3036290,3194,Arawa Street,Matata,
1822904,0600,Arawa Street,New Lynn,Auckland
1796607,4625,Arawa Street,Ohakune,
1832124,2110,Arawa Street,Papakura,
1806755,3597,Arawa Street,Pipiroa,Ngatea
1796019,5032,Arawa Street,Raumati Beach,Paraparaumu
1810190,3010,Arawa Street,Rotorua,
1782589,8013,Arawa Street,Shirley,Christchurch
1816770,4312,Arawa Street,Welbourn,New Plymouth
1823440,0618,Arawa Street,Whenuapai,Auckland
1809117,3112,Arawata Avenue,Welcome Bay,Tauranga
1826514,0176,Arawata Road,Pipiwai,Whangarei
1812887,3800,Arawata Street,Te Awamutu,
3033558,9300,Arawata Terrace,"Fernhill,Sunshine Bay",Queenstown
3077761,0794,Ara Weiti Road,"Okura Bush,Stillwater",Silverdale
3038265,5571,Arawhata Road,Hokio Beach,Levin
1820355,0483,Arawhata Road,Kaingaroa,Kaitaia
3038267,4681,Arawhata Road,Opunake,
1801447,5032,Arawhata Road,Paraparaumu,
3038268,,Arawhata Road,"Ruatiti,Whanganui National Park","Raetihi,Whanganui National Park"
3005266,5024,Arawhata Street,Ranui,Porirua
1834158,2121,Arawhata Way,Tuakau,
3078263,2014,Arawhetu Drive,Mellons Bay,Auckland
3083446,0614,Arawhiti Rise,Massey,Auckland
3019397,4884,Arbons Road,"Pohangina,Ruahine Forest Park","Ashhurst,Ruahine Forest Park"
1828232,2102,Arbor Close,Manurewa,Auckland
3084537,7614,Arbor Green Boulevard,Rolleston,
3083897,8083,Arbor Grove,Kainga,Christchurch
3079604,9371,Arbor Lane,Mount Creighton,Queenstown
1789791,7020,Arbor-Lea Avenue,Richmond,
1842793,5794,Arbor Place,Greytown,
1842306,0932,Arbors Track,Silverdale,
1803366,4120,Arbroath Avenue,Flaxmere,Hastings
1803699,4120,Arbuckle Road,Frimley,Hastings
1823907,1010,Arcade 32,Auckland Central,Auckland
1822561,0629,Arcadia Crescent,Bayview,Auckland
3079567,9372,Arcadia Lane,Glenorchy,
1804984,4130,Arcadia Lane,Havelock North,
1819723,0582,Arcadian Lane,Waipu,
3077612,0975,Arcadian Rise,Mangawhai,
3021912,9010,Arcadia Place,Halfway Bush,Dunedin
3082017,9812,Arcadia Place,Seaward Bush,Invercargill
1818713,1023,Arcadia Road,Epsom,Auckland
3072280,0571,Arcadia Road,"Mareretu,Paparoa","Maungaturoto,Paparoa"
3072278,7175,Arcadia Road,Tasman,Upper Moutere
1800507,6037,Archbold Street,Newlands,Wellington
1832189,2024,Archboyd Avenue,Mangere East,Auckland
1784571,8042,Archdall Place,Avonhead,Christchurch
1779397,7581,Archdalls Road,Robinsons Bay,
1823922,1072,Archdall Street,Meadowbank,Auckland
1785664,8025,Archduke Lane,Halswell,Christchurch
1806318,3216,Archer Court,Hamilton East,Hamilton
1787923,7825,Archer Place,Carters Beach,Westport
1785536,7400,Archer Place,Rangiora,
1838872,0632,Archer Rayner Place,Greenhithe,Auckland
3049113,,Archers Road,"Glenfield,Hillcrest,Wairau Valley",Auckland
1791225,7195,Archers Road,Tennyson Inlet,Marlborough Sounds
1782576,8013,Archer Street,Mairehau,Christchurch
1795024,5810,Archer Street,Masterton,
1786516,7910,Archer Street,Parkside,Timaru
3079724,3400,Archford Street,Matamata,
3079487,0932,Archibald Drive,Wainui,
3081509,2584,Archibald Lane,Opaheke,Papakura
1818715,0602,Archibald Road,"Glen Eden,Kelston",Auckland
1782192,7980,Archibald Road,Morven,Waimate
1820282,0410,Archibald Street,Kaitaia,
3052970,7700,Archibald Street,Tinwald,Ashburton
1772243,9013,Archibald Street,Waverley,Dunedin
1841730,9305,Archie Douglas Drive,Wanaka,
3081515,7614,Archie Lane,Rolleston,
1780096,7672,Archies Peak Road,"Ataahua,Gebbies Valley",Tai Tapu
3083680,3289,Archie Way,Whatawhata,Hamilton
1823427,0602,Archlynn Road,Kelston,Auckland
1828198,2010,Archmillen Avenue,Pakuranga Heights,Auckland
1842886,7604,Archrob Avenue,Prebbleton,
3084159,2580,Arcole Road,Karaka,Papakura
1784066,8042,Arcon Drive,Broomfield,Christchurch
1795437,5791,Arcus Road,Dalefield,Carterton
1800738,5582,Arcus Road,Te Horo,Otaki
1826263,0110,Arcus Street,Raumanga,Whangarei
1807195,3200,Arcus Street,St Andrews,Hamilton
1801503,6021,Arcus Way,Hataitai,Wellington
1832521,2016,Ardagh Place,Dannemora,Auckland
1793204,5010,Ardal Grove,Tirohanga,Lower Hutt
1832864,2016,Ardee Close,East Tamaki,Auckland
3080906,0174,Ardeevin Rise,Parua Bay,
1832191,2019,Arden Court,Clover Park,Auckland
1817215,4314,Arden Place,Oakura,
1784861,8083,Arden Place,Parklands,Christchurch
3047863,3177,Arden Road,Athenree Gorge,Waihi
1809111,3112,Arden Street,Gate Pa,Tauranga
1817217,4374,Arden Street,Kaitake,New Plymouth
1772249,9010,Arden Street,North East Valley,Dunedin
1794557,6012,Arden Way,Wilton,Wellington
1823438,0614,Arde Place,Massey,Auckland
1821014,0932,Ardern Avenue,Stanmore Bay,Whangaparaoa
1771279,9383,Ardgour Road,"Bendigo,Tarras",Cromwell
3032806,9492,Ardgowan Road,"Ardgowan,Oamaru North,Rosebery",Oamaru
1789199,7011,Ardilea Avenue,Stoke,Nelson
1833127,2016,Ardkeen Place,East Tamaki,Auckland
1774200,9024,Ardley Place,Mosgiel,
1821016,0930,Ardlui Avenue,Manly,Whangaparaoa
3041140,7783,Ardlui Road,"Bankside,Hororata",
3010144,9776,Ardlussa Cattleflat Road,"Ardlussa,Cattle Flat",Riversdale
3011245,9776,Ardlussa Road,"Ardlussa,Longridge North",Riversdale
1772247,9012,Ardmore Drive,Kensington,Dunedin
1782566,8053,Ardmore Place,Bishopdale,Christchurch
1827673,2582,Ardmore Quarry Road,"Ardmore,Hunua","Hunua,Papakura"
1781968,7987,Ardmore Road,Albury,
3042772,9587,Ardmore Road,"Heriot,Kelso",Tapanui
1823921,1011,Ardmore Road,"Herne Bay,Ponsonby",Auckland
1771551,9305,Ardmore Street,Wanaka,
3077938,8042,Ardnave Lane,Broomfield,Christchurch
1805602,4120,Ardrossan Avenue,Flaxmere,Hastings
1787420,8061,Ardrossan Street,Avondale,Christchurch
1773952,9532,Ardrossan Street,Lawrence,
2016644,7672,Ardrossan Way,Tai Tapu,
1794549,6035,Ardross Avenue,Khandallah,Wellington
1841310,5810,Ardsley Lane,Lansdowne,Masterton
1785871,8022,Ardtrea Lane,Heathcote Valley,Christchurch
1775985,9710,Ardwick Street,Gore,
1840245,9810,Arena Avenue,Avenal,Invercargill
2002443,4410,Arena Court,Palmerston North,
1827268,2684,A Renall Road,Pollok,
3000641,5022,Arene Grove,Titahi Bay,Porirua
1817381,4399,Areno Road,Matemateaonga,Eltham
3034946,5022,Arero Place,Titahi Bay,Porirua
1802357,4079,Arero Road,Mangatuna,
1813937,3382,Areta Lane,Hatepe,Turangi
1841144,5571,Arete Lane,Levin,
1802356,4087,Arewhana Street,Te Araroa,
1779576,7334,Argelins Road,Hanmer Springs,
1794545,6022,Argentine Avenue,Miramar,Wellington
1818699,0992,Argent Lane,"Dairy Flat,Wainui",
1841790,2019,Argento Avenue,Flat Bush,Auckland
1828208,2012,Argo Drive,Half Moon Bay,Auckland
1784570,8051,Argo Place,Casebrook,Christchurch
1821029,0986,Argo Rise,Omaha,
1790861,7201,Argosy Place,Blenheim,
1774436,9310,Argus Avenue,Cromwell,
1822563,0627,Argus Place,Hillcrest,Auckland
1810211,3015,Argus Street,Sunnybrook,Rotorua
1798379,5510,Argyle Avenue,Levin,
1827864,2113,Argyle Avenue,Pahurehure,Papakura
1799197,4410,Argyle Avenue,"Palmerston North,Takaro",Palmerston North
1792687,5018,Argyle Grove,Trentham,Upper Hutt
3006635,9874,Argyle Otahuti Road,"Isla Bank,Otahuti,Spar Bush,Waianiwa,Wrights Bush","Invercargill,Otautau"
1786047,7700,Argyle Place,Allenton,Ashburton
1771443,9302,Argyle Place,Arrowtown,
1816780,4312,Argyle Place,Highlands Park,New Plymouth
1838425,7604,Argyle Place,Prebbleton,
3044344,9778,Argyle Road,"Argyle Hill,Steeple Burn",Waikaia
1831094,0630,Argyle Road,"Browns Bay,Rothesay Bay",Auckland
1773371,9230,Argyle Street,Balclutha,
1790856,7201,Argyle Street,Blenheim,
1787924,7891,Argyle Street,Denniston,Westport
1790305,7803,Argyle Street,Dunollie,Runanga
1771556,9372,Argyle Street,Glenorchy,
1776677,9877,Argyle Street,Greenhills,Invercargill
1777560,9818,Argyle Street,Halfmoon Bay / Oban,Stewart Island
1807205,3216,Argyle Street,Hamilton East,Hamilton
1817481,4610,Argyle Street,Hawera,
1831423,1011,Argyle Street,Herne Bay,Auckland
1776576,9812,Argyle Street,Kew,Invercargill
1803041,4198,Argyle Street,Mahia,
3048123,7910,Argyle Street,"Marchwiel,Waimataitai",Timaru
1776053,9712,Argyle Street,Mataura,
1824985,1025,Argyle Street,Morningside,Auckland
1772250,9011,Argyle Street,Mornington,Dunedin
1775691,9024,Argyle Street,Mosgiel,
1826508,0510,Argyle Street,Waipu,
1770687,9401,Argyle Street,Weston,Oamaru
1796902,4500,Argyle Street,Whanganui,
1822572,0620,Argyle Terrace,Milford,Auckland
1804066,4112,Argyll Crescent,Tamatea,Napier
3073440,,Argyll Road,"Argyll,Otane,Te Onepu",Otane
1809110,3112,Argyll Road,Greerton,Tauranga
1840201,7925,Argyll Street,Fairlie,
1802797,4010,Argyll Street,Mangapapa,Gisborne
1815548,3214,Aria Court,Fairview Downs,Hamilton
3039385,,Aria-Matiere Road,"Matiere,Otangiwai",Matiere
1828220,2023,Aria Place,Clover Park,Auckland
1819243,0391,Ari Ari Road,Pouto,
1810215,3010,Ariariterangi Street,Ohinemutu,Rotorua
1809917,,Aria Road,"Aria,Piopio",
1810173,3979,Aria Street,Aria,
1809918,4376,Aria Terrace,Mokau,
1771809,3110,Aria View,Bethlehem,Tauranga
1838094,3210,Arie Lane,Flagstaff,Hamilton
1782573,8061,Ariel Place,Aranui,Christchurch
1838251,0920,Ariel Place,Snells Beach,
1837760,0583,Ariels Lane,Paparoa,
1812276,4332,Ariel Street,Stratford,
1788151,7010,Ariesdale Terrace,Toi Toi,Nelson
1810216,3010,Aries Place,Kawaha Point,Rotorua
1828231,2014,Aries Place,Shelly Park,Auckland
1832793,2016,Arigna Place,East Tamaki,Auckland
1812554,3330,Arihia Street,Nukuhau,Taupo
3082689,4120,Arihi Crescent,Frimley,Hastings
1821811,0624,Ariho Terrace,Devonport,Auckland
1776678,9879,Ariki Avenue,Otatara,Invercargill
1821024,0920,Ariki Drive,Snells Beach,
1786881,8042,Ariki Place,Hei Hei,Christchurch
1827867,2110,Ariki Place,Red Hill,Papakura
1794546,6021,Ariki Road,"Hataitai,Roseneath",Wellington
1800239,5010,Ariki Street,Boulcott,Lower Hutt
1823925,1021,Ariki Street,Grey Lynn,Auckland
1815411,3494,Ariki Street,Karapiro,Cambridge
1816783,4310,Ariki Street,New Plymouth,
1814865,3010,Ariki Street,Ngongotaha,Rotorua
1838272,2022,Ari Lane,Mangere,Auckland
1794536,6037,Arima Place,Grenada Village,Wellington
1830525,2110,Arimu Road,Papakura,
3078696,9383,Arion Court,Mount Pisa,Cromwell
1839664,2112,Arion Road,Takanini,Auckland
1829602,0632,Arirang Rise,Pinehill,Auckland
1837691,3210,Arista Way,Rototuna North,Hamilton
1840639,7614,Aristotle Lane,Rolleston,
1832190,2112,Aristoy Close,Conifer Grove,Takanini
1794531,6021,Arizona Grove,Brooklyn,Wellington
1834627,3710,Arkle Avenue,Te Kauwhata,
1807214,3200,Arkle Place,Nawton,Hamilton
1821028,0932,Arkles Drive,"Arkles Bay,Manly",Whangaparaoa
1821027,0932,Arkles Strand,Arkles Bay,Whangaparaoa
1834337,0483,Arkles Way,Taipa,
1828214,2012,Arkley Avenue,Farm Cove,Auckland
1830919,0932,Arklow Lane,Stanmore Bay,Whangaparaoa
1805131,4120,Arklow Place,Flaxmere,Hastings
1771766,9305,Arklow Street,Albert Town,Wanaka
1799932,5032,Arko Place,Paraparaumu,
1784065,8025,Arkwright Place,Halswell,Christchurch
1823435,0614,Arlette Place,Massey,Auckland
3084473,7615,Arley Street,Rolleston,
1801501,4410,Arli Court,Hokowhitu,Palmerston North
3035805,5036,Arlington Avenue,Waikanae,
1770576,7400,Arlington Boulevard,Rangiora,
3081102,7201,Arlington Close,Springlands,Blenheim
1833840,3210,Arlington Court,Rototuna North,Hamilton
3047072,4282,Arlington Road,"Hatuma,Waipukurau",Waipukurau
1779166,8053,Arlington Street,Burnside,Christchurch
1794525,6011,Arlington Street,Mount Cook,Wellington
1823924,1026,Arlington Street,Waterview,Auckland
1833040,0614,Arlose Place,Westgate,Auckland
1780642,7677,Armack Drive,Rolleston,
1823439,0612,Armada Drive,Ranui,Auckland
3059402,3391,Armadale Road,"Gordon,Wardville","Manawaru,Waharoa"
1823927,1050,Armadale Road,Remuera,Auckland
1771547,9372,Armadale Street,Kinloch,Glenorchy
1843014,9024,Armadale Street,Mosgiel,
1786626,8013,Armagh Court,Christchurch Central,Christchurch
1823929,0600,Armagh Road,Blockhouse Bay,Auckland
3035608,,Armagh Street,"Christchurch Central,Linwood",Christchurch
1776575,9812,Armagh Street,Clifton,Invercargill
1809112,3112,Armagh Street,Greerton,Tauranga
1807220,3216,Armagh Street,Hamilton East,Hamilton
1798380,5510,Armagh Street,Levin,
1798755,4710,Armagh Terrace,Marton,
1825864,1072,Armein Road,Panmure,Auckland
3080536,9305,Armidale Crescent,Wanaka,
1793349,5012,Armidale Street,Petone,Lower Hutt
1784063,8042,Armilla Lane,Hei Hei,Christchurch
1787763,7608,Armil Place,Lincoln,
1842517,3283,Armistead Lane,Tamahere,Hamilton
1807221,3214,Armitage Place,Fairfield,Hamilton
1827508,2121,Armitage Place,Tuakau,
1779578,7392,Armitage Road,Balmoral,
1784893,7476,Armitage Road,Eyrewell,West Eyreton
1833866,3771,Armitage Road,Ohinewai,Huntly
1821025,0900,Armitage Road,Wellsford,
1786958,8053,Armitage Street,Bishopdale,Christchurch
1794556,6035,Armitage Street,Ngaio,Wellington
1800510,6011,Armour Avenue,Mount Victoria,Wellington
1838496,8025,Armour Place,Halswell,Christchurch
1804067,4110,Armour Place,Onekawa,Napier
1771093,9395,Armour Road,Gimmerburn,Ranfurly
1823425,0604,Armour Road,Parau,Auckland
1832794,2016,Armoy Drive,East Tamaki,Auckland
3083452,9024,Armson Close,Mosgiel,
3055365,5036,Arms Park Way,Waikanae,
1795362,5713,Armstrong Avenue,Carterton,
1782585,8022,Armstrong Avenue,Saint Martins,Christchurch
1787288,7674,Armstrong Avenue,Springston,
1815301,3800,Armstrong Avenue,Te Awamutu,
1816445,4320,Armstrong Avenue,Waitara,
1814744,3120,Armstrong Avenue,Whakatane,
1831859,0110,Armstrong Avenue,Woodhill,Whangarei
1779398,7520,Armstrong Crescent,Akaroa,
1837777,2016,Armstrong Farm Drive,East Tamaki Heights,Auckland
1812544,3330,Armstrong Grove,Hilltop,Taupo
3028617,9018,Armstrong Lane,Abbotsford,Dunedin
1796903,4501,Armstrong Place,Gonville,Whanganui
1822901,0600,Armstrong Place,New Lynn,Auckland
1804756,4978,Armstrong Road,Dannevirke,
3057625,9883,Armstrong Road,"Ermedale,Waipango",Riverton/Aparima
1831181,0632,Armstrong Road,Rosedale,Auckland
1819370,0591,Armstrong Road,Ruawai,
1808420,3174,Armstrong Road,Te Puna,Tauranga
3057628,3198,Armstrong Road,Waiotahe,Opotiki
1802454,4094,Armstrong Road,Whatatutu,Te Karaka
3016095,9883,Armstrong Road North,Ermedale,Riverton/Aparima
1782204,7977,Armstrongs Road,"Elephant Hill,Waihaorunga",Waimate
1779850,7420,Armstrongs Road,Waikari,
1805910,3415,Armstrong Street,Arapuni,Putaruru
1771105,9230,Armstrong Street,Balclutha,
1810885,3700,Armstrong Street,Huntly,
1806840,3674,Armstrong Street,Karangahake,
1799200,4414,Armstrong Street,Roslyn,Palmerston North
1812310,4397,Armstrong Street,Tahora,Stratford
1816446,4383,Armstrong Street,Tikorangi,Waitara
1781466,7974,Armstrongs Zig Zag Road,Levels Valley,Timaru
1839917,2123,Armstrong Way,Waiuku,
1835198,3210,Arncliffe Terrace,Flagstaff,Hamilton
1782560,8061,Arncliff Street,Bexley,Christchurch
1823917,1050,Arney Crescent,Remuera,Auckland
1823428,0612,Arney Road,Ranui,Auckland
1823913,1050,Arney Road,Remuera,Auckland
1790258,7805,Arney Street,"Blaketown,Greymouth",Greymouth
1797359,4777,Arney Street,Kiwitea,Feilding
1794533,6021,Arney Street,Newtown,Wellington
3003964,3600,Arney Street,Paeroa,
1772242,9012,Arney Street,South Dunedin,Dunedin
1804071,4112,Arney Street,Tamatea,Napier
1827470,2120,Arnhem Place,Pukekohe,
1796021,5032,Arnold Grove,Paraparaumu Beach,Paraparaumu
1788989,7095,Arnold Lane,Brightwater,
3049713,4395,Arnold Road,"Aotuhia,Pohokura",Stratford
1780285,7020,Arnold Savage Place,Richmond,
1823906,1021,Arnold Street,Grey Lynn,Auckland
1812737,3432,Arnold Street,Leamington,Cambridge
1810225,3010,Arnold Street,Ngongotaha,Rotorua
1772256,9010,Arnold Street,North East Valley,Dunedin
1805300,4110,Arnold Street,Onekawa,Napier
1786629,8081,Arnold Street,Sumner,Christchurch
1973631,4071,Arnolds Way,Lytton West,Gisborne
3069021,,Arnold Valley Road,"Arnold Valley,Moana,Stillwater","Arnold Valley,Greymouth,Moana"
3077853,5712,Arnold Walk,Greytown,
1792682,5018,Arnot Avenue,Clouston Park,Upper Hutt
1790262,7805,Arnott Heights,Greymouth,
1790261,7805,Arnott Heights East,Greymouth,
3029354,9892,Arnott Road,Mimihau,Wyndham
1770855,9320,Arnott Street,Alexandra,
1797627,4702,Arnott Street,Feilding,
1772244,9014,Arnott Street,Portobello,Dunedin
1790008,7871,Arnould Street,Ahaura,
1786628,8061,Arnst Place,Burwood,Christchurch
1828216,2102,Arnwood Street,Manurewa,Auckland
3078008,3225,Aroaro Lane,Raglan,
1823437,0612,Arodella Crescent,Ranui,Auckland
1824928,1025,Aroha Avenue,Sandringham,Auckland
3081946,3118,Aroha Close,Papamoa Beach,Papamoa
3081693,2676,Arohaina Avenue,Karaka,Papakura
3081702,2676,Arohanoa Lane,Paerata,Pukekohe
3081697,2124,Arohanui Road,Karaka,Papakura
1810884,3700,Arohanui Street,Huntly,
1842841,0975,Aroha Road,Te Arai,Wellsford
3029914,4410,Aroha Street,"Palmerston North,Takaro",Palmerston North
1839835,7612,Aroha Street,Pegasus,
1811908,3320,Aroha View Avenue,Te Aroha,
3079205,3112,Arohena Court,Ohauiti,Tauranga
1821031,0920,Arohia Place,Snells Beach,
3022194,0810,Aro Mato Place,Huapai,Kumeu
3078093,0994,Arone Way,Wainui,
1828199,2105,Aronia Way,Goodwood Heights,Auckland
1775515,9320,Aronui Road,Bridge Hill,Alexandra
1823424,0602,Aronui Terrace,Kelston,Auckland
1805204,4181,Aropaoanui Road,Tangoio,Napier
3078991,0610,Arorangi Rise,Te Atatu Peninsula,Auckland
1822555,0620,Arosa Place,Forrest Hill,Auckland
1784568,8083,Arosa Place,Parklands,Christchurch
1794540,6021,Aro Street,Aro Valley,Wellington
1835303,1023,Arotau Place,Grafton,Auckland
1786424,7975,Arowhenua Road,Kerrytown,Timaru
1781469,7973,Arowhenua Station Road,"Kerrytown,Seadown","Seadown,Timaru"
1781470,7992,Arowhenua Street,Arundel,Geraldine
1829993,1971,Arran Bay Road,Waiheke Island,
1782580,8062,Arran Crescent,Woolston,Christchurch
3079290,3178,Arran Drive,Aongatete,
3045092,0931,Arran Drive,"Hauraki Gulf / Tikapa Moana,Orewa,Silverdale","Orewa,Silverdale"
3046997,9371,Arran Lane,Jacks Point,Queenstown
1840845,2019,Arranmore Drive,Flat Bush,Auckland
1800887,4500,Arran Place,Aramoho,Whanganui
1812226,3420,Arran Place,Tokoroa,
1944694,0931,Arran Point Parade,Orewa,
1822053,0630,Arran Road,"Browns Bay,Pinehill",Auckland
1807235,3210,Arran Road,Chartwell,Hamilton
1776987,9793,Arran Street,Athol,
1823930,0600,Arran Street,Avondale,Auckland
1798378,5510,Arran Street,Levin,
1772814,9024,Arran Street,Mosgiel,
1829943,2013,Arrathorne Place,Northpark,Auckland
1830122,0632,Arrenway Drive,Rosedale,Auckland
1955724,0932,Arriere Lane,Silverdale,
3080959,0110,Arrondi Terrace,Port Whangarei,Whangarei
1824872,1051,Arron Street,Ellerslie,Auckland
3081329,3118,Arrow Close,Papamoa,
1770193,9401,Arrow Crescent,Holmes Hill,Oamaru
1813954,3112,Arrowfield Drive,Pyes Pa,Tauranga
3039974,9371,Arrow Junction Road,"Arrow Junction,Arrowtown","Arrowtown,Queenstown"
1771431,9302,Arrow Lane,Arrowtown,
3078035,4110,Arrow Place,Te Awa,Napier
1822556,0620,Arrow Road,Forrest Hill,Auckland
1815240,3330,Arrowsmith Avenue,"Hilltop,Waipahihi",Taupo
1830443,2019,Arrowsmith Drive,"Clover Park,Flat Bush",Auckland
3082914,8025,Arrowsmith Drive,Halswell,Christchurch
3081816,7730,Arrowsmith Drive,Methven,
1821017,0782,Arrowsmith Road,Waitakere,Auckland
1771179,9396,Arrow Street,Naseby,
1806974,3600,Arrow Street,Paeroa,
1788979,7025,Arrow Street,Wakefield,
1788162,7010,Arrow Street,Washington Valley,Nelson
3006217,9371,Arrowtown-Lake Hayes Road,"Arrowtown,Lake Hayes","Arrowtown,Queenstown"
1818726,2682,Arrowville Road,Aka Aka,Waiuku
3077958,2019,Artemis Way,Flat Bush,Auckland
1829696,2016,Artesia Close,Shamrock Park,Auckland
1790019,7201,Arthur Baker Place,Redwoodtown,Blenheim
1825867,1060,Arthur Brown Place,Mount Wellington,Auckland
1794537,6037,Arthur Carman Street,Johnsonville,Wellington
1839350,2120,Arthur Carwen Place,Pukekohe,
3053065,7772,Arthur Cates Way,Newland,Ashburton
1838868,4102,Arthur Close,Clive,
1822565,0622,Arthur Crescent,Hauraki,Auckland
1812556,3330,Arthur Crescent,Hilltop,Taupo
1791362,7220,Arthur Crescent,Waikawa,Picton
1838712,3110,Arthur Grove,Bethlehem,Tauranga
1801118,5036,Arthur Grove,Waikanae,
1804064,4112,Arthur Hobson Avenue,Pirimai,Napier
1807240,3210,Arthur Place,Chartwell,Hamilton
1827866,2113,Arthur Place,Opaheke,Papakura
1842200,3288,Arthur Porter Drive,"Avalon,Burbush",Hamilton
1805704,4112,Arthur Richards Village,Tamatea,Napier
3018493,4373,Arthur Road,"Bell Block,Paraite",New Plymouth
1832188,2102,Arthur Road,Hillpark,Auckland
1804750,4974,Arthur Road,Norsewood,
1773826,9585,Arthur Road,Owaka,
1812856,3285,Arthur Road,Te Pahu,
1806156,3575,Arthur Road,Thornton Bay,Thames
1985247,0614,Arthur Rolfe Lane,Swanson,Auckland
3017539,7282,Arthurs Bay,"Arthurs Bay,Bay Of Many Coves",Marlborough Sounds
1778960,8023,Arthurson Mews,Woolston,Christchurch
1771545,9371,Arthurs Point Road,Arthurs Point,Queenstown
1841881,7886,Arthurs Road,Franz Josef/Waiau,
1789743,7096,Arthurs Road,Spooners Range,Wakefield
1790496,7883,Arthurstown Road,Ruatapu,
1842169,9371,Arthurs Track,Arthurs Point,Queenstown
1790857,7201,Arthur Street,Blenheim,
1806164,3506,Arthur Street,Coromandel,
1770055,9016,Arthur Street,Dunedin Central,Dunedin
1824871,1051,Arthur Street,Ellerslie,Auckland
1781981,7925,Arthur Street,Fairlie,
1823916,1011,Arthur Street,Freemans Bay,Auckland
1776579,9810,Arthur Street,Gladstone,Invercargill
1810233,3010,Arthur Street,Glenholme,Rotorua
1817482,4674,Arthur Street,Hawera,
1781463,7991,Arthur Street,Hilton,Geraldine
1770194,9401,Arthur Street,Holmes Hill,Oamaru
1826268,0112,Arthur Street,Kensington,Whangarei
1802904,4075,Arthur Street,Matawai,
1775232,9220,Arthur Street,Milton,
1790500,7886,Arthur Street,Okarito,Whataroa
1825487,1061,Arthur Street,Onehunga,Auckland
1795691,5512,Arthur Street,Otaki,
1797861,4910,Arthur Street,Pahiatua,
1796029,5032,Arthur Street,Paraparaumu Beach,Paraparaumu
1821013,0820,Arthur Street,Riverhead,
1781923,7910,Arthur Street,"Seaview,Timaru",Timaru
1800509,6011,Arthur Street,Te Aro,Wellington
1802907,4079,Arthur Street,Tokomaru Bay,
1812228,3420,Arthur Street,Tokoroa,
1784572,8041,Arthur Street,Upper Riccarton,Christchurch
1798241,5573,Arthur Street,Waikawa Beach,Manakau
1793431,5014,Arthur Street,Wainuiomata,Lower Hutt
1815767,3510,Arthur Street,Whitianga,
1778044,9720,Arthur Street,Winton,
1772246,9013,Arthurs Walk,Vauxhall,Dunedin
2015892,0293,Arthur Taylor Place,Kerikeri,
1773349,9230,Arthur Terrace,Balclutha,
1838412,7010,Arthur Vista,Atawhai,Nelson
3081304,2018,Arthur Wright Place,Maraetai,Auckland
1827863,2110,Artillery Drive,Papakura,
1789879,7081,Artillery Place,Richmond,
1838900,0582,Artillery Road,Waipu,
1818086,2016,Artisan Place,Flat Bush,Auckland
3080607,3495,Artistic Avenue,Leamington,Cambridge
3080870,2110,Artistry Lane,Papakura,
1941595,2018,Artists Avenue,Beachlands,Auckland
1815985,3411,Arts Lane,Putaruru,
1784577,8041,Arts Road,Ilam,Christchurch
1842632,6037,Aruba Grove,Grenada Village,Wellington
3082812,8042,Aruhe Road,"Hornby South,Islington",Christchurch
1835420,1072,Aruhe Street,Stonefields,Auckland
1803046,4198,Aruhetoronga Road,Mahia,
1814811,3988,Aruka Marae Road,Taharoa,
1790010,7805,Arum Road,Karoro,Greymouth
2011875,2024,Aruna Place,Favona,Auckland
1776577,9810,Arun Crescent,Glengarry,Invercargill
1794530,6023,Arun Crescent,Southgate,Wellington
1801718,5032,Arundel Avenue,Paraparaumu,
3009470,7992,Arundel Belfield Road,"Belfield,Orton,Rangitata","Geraldine,Temuka"
3071682,4310,Arundel Crescent,"Frankleigh Park,Westown",New Plymouth
1776573,9812,Arundel Crescent,"Heidelberg,Strathern",Invercargill
1786957,8042,Arundel Gate,Avonhead,Christchurch
1792688,5019,Arundel Grove,Silverstream,Upper Hutt
3030524,4578,Arundell Road,Taunoka,Whanganui
1815550,3200,Arundel Place,Nawton,Hamilton
1796906,4501,Arundel Place,Springvale,Whanganui
3015720,,Arundel Rakaia Gorge Road,"Alford Forest,Carew,Cavendish,Mayfield,Methven,Mount Hutt,Mount Somers,Ruapuna,Staveley,Windwhistle","Ashburton,Hororata,Methven,Mount Somers"
1787378,7992,Arundel Rangitata Road,Rangitata,Geraldine
1825259,1041,Arundel Street,Mount Roskill,Auckland
1770196,9400,Arundel Street,Oamaru North,Oamaru
1809109,3110,Arundel Street,Tauranga,
1770192,9400,Arun Street,"Holmes Hill,South Hill",Oamaru
1781927,7910,Arun Street,Marchwiel,Timaru
1830918,0932,Arun Street,Stanmore Bay,Whangaparaoa
3083821,0614,Arura Place,Massey,Auckland
1797569,4822,Aru Street,Tangimoana,
1829842,2120,Arvidson Way,Pukekohe,
3081804,0616,Arvo Lane,Hobsonville,Auckland
1828222,2013,Arwen Place,East Tamaki,Auckland
1822050,0630,Asbury Crescent,Campbells Bay,Auckland
1824979,1042,Ascania Place,Lynfield,Auckland
1848571,3118,Ascarina Way,Papamoa Beach,Papamoa
1850856,0931,Ascension Crescent,Orewa,
3077368,2471,Ascension Lane,Pokeno,
1822557,0632,Ascension Place,Rosedale,Auckland
3078108,2019,Ascent Street,Flat Bush,Auckland
1784894,7475,Aschens Road,Ohoka,
1772252,9022,Ascog Road,Ravensbourne,Dunedin
1823423,0610,Ascot Avenue,Henderson,Auckland
1821812,0624,Ascot Avenue,Narrow Neck,Auckland
1836510,0632,Ascot Avenue,Northcross,Auckland
3067309,8083,Ascot Avenue,North New Brighton,Christchurch
1823931,,Ascot Avenue,Remuera,Auckland
1805708,4112,Ascot Avenue,Taradale,Napier
1826259,0112,Ascot Avenue,Te Kamo,Whangarei
3079870,7608,Ascot Close,Lincoln,
1812543,3330,Ascot Close,Richmond Heights,Taupo
1799609,4702,Ascot Court,Feilding,
3052467,0295,Ascot Downs Lane,Kerikeri,
1813967,3192,Ascot Lane,Otakiri,Whakatane
1815914,3400,Ascot Place,Matamata,
1808826,3116,Ascot Place,Mount Maunganui,
1780726,7700,Ascot Place,Netherby,Ashburton
1770670,7400,Ascot Place,Rangiora,
1812886,3800,Ascot Place,Te Awamutu,
1814380,3210,Ascot Road,Chartwell,Hamilton
1828234,2022,Ascot Road,Mangere,Auckland
1808823,3116,Ascot Road,Mount Maunganui,
1770682,9401,Ascot Road,Weston,Oamaru
3079371,7020,Ascot Street,"Appleby,Richmond",Richmond
1799188,4410,Ascot Street,Hokowhitu,Palmerston North
1798381,5510,Ascot Street,Levin,
1772909,9012,Ascot Street,Saint Kilda,Dunedin
1794542,6011,Ascot Street,Thorndon,Wellington
1779490,7910,Ascot Street,Washdyke,Timaru
1778445,9812,Ascot Terrace,Kingswell,Invercargill
1801227,3074,Ascot Vale,Tikitere,Rotorua
1818571,0931,Ascot Way,Orewa,
3077724,7614,Asha Close,Rolleston,
1837215,9305,Ash Avenue,Albert Town,Wanaka
1836937,0632,Ash Avenue,Fairview Heights,Auckland
1842861,8025,Ashboult Street,Halswell,Christchurch
1785183,3204,Ashbourne Lane,Dinsdale,Hamilton
1823436,0602,Ashbourne Place,Glendene,Auckland
1784581,8053,Ashbourne Street,Burnside,Christchurch
3017498,8024,Ashbrook Lane,Somerfield,Christchurch
1833026,0931,Ashburn Close,Orewa,
1791973,4412,Ashburn Lane,Awapuni,Palmerston North
1793433,5014,Ashburn Road,Wainuiomata,Lower Hutt
1770190,9400,Ashburn Street,Oamaru North,Oamaru
1774001,9593,Ashburn Street,Waitahuna,Lawrence
1781103,,Ashburton Gorge Road,"Ashburton Lakes,Mount Somers",Mount Somers
1787809,7776,Ashburton River Road,"Ashburton Forks,Methven","Ashburton,Methven"
3040168,,Ashburton Staveley Road,"Ashburton Forks,Greenstreet,Mount Somers,Staveley","Ashburton,Mount Somers"
1807258,3216,Ashbury Avenue,Silverdale,Hamilton
1781929,7910,Ashbury Avenue,Waimataitai,Timaru
3083241,7774,Ashbury Drive,Tinwald,Ashburton
1789219,7011,Ashbury Street,Stoke,Nelson
1823904,1071,Ashby Avenue,"Glen Innes,Saint Heliers",Auckland
1785062,7630,Ashby Grove,Kaiapoi,
1798848,4787,Ashby Lane,Marton,
1782563,8052,Ashby Place,Bryndwr,Christchurch
1822554,0632,Ashby Place,Greenhithe,Auckland
1827471,2120,Ashby Place,Pukekohe,
3020371,7481,Ashbys Road,"Balcairn,Leithfield,Sefton","Amberley,Leithfield,Sefton"
3020372,5771,Ashbys Road,"Kahutara,Lake Reserve","Featherston,Kahutara"
1819633,0202,Ashby Street,Russell,
3081396,5510,Ash Close,Levin,
3032720,4283,Ashcott Road,"Ashley Clinton,Waipukurau","Takapau,Waipukurau"
1822051,0630,Ashcraig Court,Torbay,Auckland
1828655,2022,Ashcroft Avenue,Mangere Bridge,Auckland
1784584,8053,Ashcroft Place,Burnside,Christchurch
1788119,7020,Ashcroft Place,Richmond,
1804070,4112,Ashcroft Street,Pirimai,Napier
1782571,8052,Ashdale Lane,Strowan,Christchurch
3082384,5510,Ashdale Way,Levin,
1789938,7011,Ashdonleigh Grove,Stoke,Nelson
1797265,4702,Ashdown Crescent,Feilding,
3082672,0793,Ashdown Park Lane,Riverhead,
1827868,2113,Ashdown Place,Pahurehure,Papakura
1856050,7615,Ashdown Way,Rolleston,
1792685,5019,Ashdown Way,Silverstream,Upper Hutt
3078218,7930,Ash Drive,Geraldine,
1860169,9371,Ashenhurst Way,Lower Shotover,Queenstown
1812564,3382,Asher Avenue,Motuoapa,
1812014,9600,Asher Avenue,Te Anau,
1934218,8025,Asheridge Place,Wigram,Christchurch
1809363,3175,Asher Road,Welcome Bay,Tauranga
1776989,9875,Ashers Road,Ashers,Invercargill
1791746,6037,Ashfield Grove,Churton Park,Wellington
1784573,8041,Ashfield Place,Ilam,Christchurch
1841182,7020,Ashfield Place,Richmond,
1822569,0627,Ashfield Road,Wairau Valley,Auckland
1799207,4410,Ashford Avenue,Hokowhitu,Palmerston North
3001193,7772,Ashford Avenue,Newland,Ashburton
3077356,7604,Ashford Avenue,Prebbleton,
1790260,7273,Ashford Grove,Rapaura,Blenheim
1790932,5018,Ashford Lane,Upper Hutt Central,Upper Hutt
1807261,3210,Ashford Mews,Flagstaff,Hamilton
1805160,4130,Ashford Place,Havelock North,
3083513,2585,Ashford Rise,Clevedon,
1789359,7096,Ashford Road,Tapawera,Wakefield
1800314,5014,Ashforth Street,Wainuiomata,Lower Hutt
1832756,0520,Ash Grove,Maungaturoto,
3069313,5024,Ash Grove,Ranui,Porirua
1839167,3800,Ash Grove,Te Awamutu,
1830688,0204,Ash Grove Circle,Haruru,
1816099,3216,Ashgrove Court,Hamilton East,Hamilton
1837164,7608,Ashgrove Court,Lincoln,
3080745,4470,Ashgrove Lane,Ashhurst,
3080005,9382,Ashgrove Lane,Wanaka,
1838567,3112,Ashgrove Place,Ohauiti,Tauranga
1828689,2022,Ashgrove Road,Mangere,Auckland
1785269,7400,Ashgrove Street,Rangiora,
3018712,8024,Ashgrove Terrace,"Beckenham,Somerfield",Christchurch
3028774,4481,Ashhurst Road,"Ashhurst,Bunnythorpe","Ashhurst,Palmerston North"
1837396,3210,Ashington Grove,Huntington,Hamilton
1991424,5019,Ashington Road,Silverstream,Upper Hutt
1837727,2103,Ashkirk Place,Wattle Downs,Auckland
1830440,2103,Ashland Place,Weymouth,Auckland
3040044,9482,Ashlands Road,"Hampden,Hillgrove","Hampden,Moeraki"
1837027,9310,Ash Lane,Cromwell,
1851011,7774,Ash Lane,Huntingdon,Ashburton
3080764,3114,Ash Lane,Omokoroa,
3077468,4310,Ashlar Court,Spotswood,New Plymouth
3061399,4474,Ashlea Road,"Opiki,Tokomaru",Palmerston North
1794547,6022,Ashleigh Crescent,Miramar,Wellington
1801825,5036,Ashleigh Way,Waikanae Beach,Waikanae
1822573,0630,Ashley Avenue,Long Bay,Auckland
1828668,2024,Ashley Avenue,Mangere East,Auckland
1826266,0110,Ashley Avenue,Raumanga,Whangarei
1805370,4286,Ashley Clinton Road,Ashley Clinton,Takapau
1786183,7677,Ashley Dene Road,Springston,
1773721,9584,Ashley Downs Road,Ashley Downs,Clinton
3064710,7805,Ashley Drive,Paroa,Greymouth
1841765,7472,Ashley Forest Village,Ashley,Rangiora
3033994,7495,Ashley Gorge Road,"Glentui,Oxford,Starvation Hill",Oxford
1826265,0110,Ashley Lane,Raumanga,Whangarei
1785060,7630,Ashley Place,Kaiapoi,
1839234,3592,Ashley Place,Matarangi,Whitianga
1838738,3118,Ashley Place,Papamoa Beach,Papamoa
3061193,7471,Ashley Road,"Cust,Starvation Hill","Cust,Oxford"
1817171,4373,Ashley Road,Lepperton,New Plymouth
1772136,9011,Ashley Street,Belleknowes,Dunedin
1810259,3010,Ashley Street,Glenholme,Rotorua
1801271,4410,Ashley Street,Palmerston North,
1785267,7400,Ashley Street,Rangiora,
1814384,3200,Ashley Street,St Andrews,Hamilton
3083606,7011,Ashley Terrace,Stoke,Nelson
1832433,2025,Ashlynne Avenue,Papatoetoe,Auckland
1815847,3610,Ashman Road,Waihi,
1833094,2103,Ashmere Lane,Weymouth,Auckland
1782686,8023,Ashmole Street,Woolston,Christchurch
1790257,7802,Ashmore Avenue,Cobden,Greymouth
1813589,3110,Ashmore Court,Bethlehem,Tauranga
1815446,3210,Ashmore Court,Huntington,Hamilton
1832882,0910,Ashmore Crescent,Warkworth,
1808928,4310,Ashmore Drive,Frankleigh Park,New Plymouth
1785861,8052,Ashmore Lane,Strowan,Christchurch
3077518,5713,Ashmore Park Road,Carterton,
1814011,3015,Ashmore Place,Fairy Springs,Rotorua
1828666,2024,Ashmore Place,Favona,Auckland
1772137,9010,Ashmore Street,Halfway Bush,Dunedin
1814871,3073,Ash Pit Road,Rerewhakaaitu,
1796910,4500,Ash Place,Aramoho,Whanganui
1775082,9024,Ash Place,Mosgiel,
1807254,3200,Ash Place,Pukete,Hamilton
1818057,4310,Ash Place,Whalers Gate,New Plymouth
1804073,4110,Ashridge Road,Napier South,Napier
1828657,2104,Ash Road,Wiri,Auckland
1831427,1026,Ash Street,"Avondale,New Lynn",Auckland
1782572,8011,Ash Street,Christchurch Central,Christchurch
1770195,9401,Ash Street,Holmes Hill,Oamaru
1802805,4010,Ash Street,Mangapapa,Gisborne
1811638,3300,Ash Street,Morrinsville,
1776580,9812,Ash Street,"Newfield,Rockdale",Invercargill
1806178,3500,Ash Street,Thames,
1838970,8042,Ashtead Lane,Sockburn,Christchurch
1807897,3889,Ash Terrace,Kawhia,
1832275,2023,Ashton Avenue,Otara,Auckland
1791745,6021,Ashton Fitchett Drive,Brooklyn,Wellington
1790675,7805,Ashton Lane,Greymouth,
1785493,8051,Ashton Mews,Casebrook,Christchurch
1799198,4412,Ashton Place,Highbury,Palmerston North
1842247,7671,Ashton Rise,West Melton,
1781112,7774,Ashton Road,Ashton,Ashburton
3008847,9593,Ashton Road,"Forsyth,Waitahuna,Waitahuna Gully",Lawrence
1825114,1024,Ashton Road,Mount Eden,Auckland
3008850,0985,Ashton Road,Whangateau,
1770056,9024,Ashton Street,"East Taieri,Mosgiel",Mosgiel
1778343,9710,Ashton Street,Gore,
3039376,9783,Ashton Street,Limehills,Winton
1796905,4501,Ashton Terrace,Castlecliff,Whanganui
1792684,5371,Ashton Warner Way,Whitemans Valley,Upper Hutt
1840533,3210,Ashton Way,Huntington,Hamilton
3078178,3112,Ashton Way,Welcome Bay,Tauranga
1814385,3200,Ashurst Avenue,Pukete,Hamilton
3084472,7678,Ashurst Crescent,Rolleston,
1838340,0632,Ashurst Lane,Greenhithe,Auckland
1794186,7400,Ashview Place,Rangiora,
1811300,3792,Ashwell Crescent,Ngaruawahia,
1808174,2695,Ashwell Drive,Port Waikato,
1823909,1071,Ashwell Street,Saint Heliers,Auckland
1781983,7987,Ashwick Flat Road,Ashwick Flat,Fairlie
1836287,3210,Ashwick Terrace,Huntington,Hamilton
1833036,0792,Ashwood Avenue,Dairy Flat,
1838019,3330,Ashwood Avenue,Tauhara,Taupo
1791535,7201,Ashwood Drive,Witherlea,Blenheim
1838482,5810,Ashwood Grove,Masterton,
1804615,3114,Ashwood Grove,Omokoroa,
1986495,4312,Ashwood Lane,Bell Block,New Plymouth
1784579,8083,Ashwood Street,Parklands,Christchurch
1837455,6037,Ashwood Street,Woodridge,Wellington
3070710,7472,Ashworth Bush Road,"Balcairn,Sefton","Amberley,Sefton"
1787480,3116,Ashworth Lane,Mount Maunganui,
1817733,3400,Ashworth Place,Matamata,
1837430,7481,Ashworths Beach Road,Leithfield,
3006821,7481,Ashworths Road,"Amberley,Leithfield,Sefton",
1787617,7475,Ashworths Road,"Fernside,Ohoka","Ohoka,Rangiora"
1785140,7495,Ashworths Road,View Hill,Oxford
1770854,9320,Ashworth Street,Alexandra,
1815187,3420,Ashworth Street,Tokoroa,
1833305,2024,Asics Drive,Favona,Auckland
3082451,7630,Askeaton Drive,Kaiapoi,
1837577,2016,Askerne Drive,Flat Bush,Auckland
1831749,1010,Askew Avenue,Rakino Island,Auckland
1836761,3112,Askew Lane,Pyes Pa,Tauranga
1828662,2012,Askew Place,Farm Cove,Auckland
1781984,7984,Askins Road,Albury,
1836256,2113,Asola Place,Karaka,Papakura
1829942,2013,Aspatria Place,Northpark,Auckland
1826509,0173,Aspden Place,Matapouri,Whangarei
3084089,7615,Aspect Street,Rolleston,
1837195,3210,Aspen Court,Huntington,Hamilton
1774255,9300,Aspen Grove,Fernhill,Queenstown
1793138,5010,Aspen Grove,Maungaraki,Lower Hutt
1799594,3283,Aspenleigh Drive,Tamahere,Hamilton
1810265,3010,Aspen Place,Owhata,Rotorua
1813849,3118,Aspen Place,Papamoa Beach,Papamoa
1784576,8083,Aspen Place,Parklands,Christchurch
1789911,7011,Aspen Place,Stoke,Nelson
1838493,4310,Aspen Place,Whalers Gate,New Plymouth
1823926,1026,Aspen Street,Avondale,Auckland
1840116,7400,Aspen Street,Rangiora,
1816937,4414,Aspen Way,Kelvin Grove,Palmerston North
1833360,2024,Aspenwood Place,Favona,Auckland
1778192,9781,Aspinall Road,Springhills,Winton
1774493,9305,Aspinall Street,Wanaka,
3070271,3496,Aspin Road,"Cambridge,Te Miro",Cambridge
3044585,2019,Aspiring Avenue,"Clover Park,Flat Bush",Auckland
1799193,4414,Aspiring Avenue,Milson,Palmerston North
1807271,3210,Aspiring Crescent,Chartwell,Hamilton
3077419,4182,Aspiring Drive,Poraiti,Napier
1809115,3112,Aspiring Place,Ohauiti,Tauranga
1819245,0379,Aspiring Road,Kaihu,
1839038,5024,Aspiring Terrace,Aotea,Porirua
1771549,9305,Aspiring Terrace,Wanaka,
1818727,1025,Asquith Avenue,Mount Albert,Auckland
1772154,9012,Asquith Street,Caversham,Dunedin
1775855,9712,Asquith Street,Mataura,
1802275,4010,Asquith Street,Te Hapara,Gisborne
1794535,6021,Asquith Terrace,Brooklyn,Wellington
1801013,4777,Assaye Street,Cheltenham,Feilding
1782662,8081,Assisi Street,Mount Pleasant,Christchurch
1797357,4777,Association Road,Kimbolton,
1842949,4414,Astelia Court,Milson,Palmerston North
1813468,3114,Astelia Drive,Omokoroa,
2016958,3118,Astelia Lane,Papamoa Beach,Papamoa
1841448,3210,Astelia Lane,Rototuna North,Hamilton
1832274,2105,Astelia Place,Goodwood Heights,Auckland
1832858,7020,Astelia Place,Richmond,
1814111,3330,Astelia Way,Waipahihi,Taupo
3078186,6037,Astelia Way,Woodridge,Wellington
1809114,3112,Aster Lane,Hairini,Tauranga
1842109,2019,Aster Place,Flat Bush,Auckland
1823433,0614,Asti Lane,Westgate,Auckland
1822939,0600,Astley Avenue,New Lynn,Auckland
3081120,5018,Aston Crescent,Wallaceville,Upper Hutt
1784586,8083,Aston Drive,"North New Brighton,Parklands,Waimairi Beach",Christchurch
3082942,4410,Aston Lane,West End,Palmerston North
1789213,7020,Aston Place,Richmond,
1771278,9387,Aston Road,"Manorburn,Moa Creek",Moa Creek
1799929,5391,Aston Road,Waikanae,
1790849,7201,Aston Street,Springlands,Blenheim
1842032,3204,Astor Avenue,Dinsdale,Hamilton
1829628,2013,Astoria Place,Northpark,Auckland
3084105,7615,Astoria Street,Rolleston,
1785443,8025,Astor Place,Halswell,Christchurch
1828688,2102,Astor Place,Manurewa,Auckland
1818658,0931,Astor Place,Orewa,
1813836,3112,Astor Place,Welcome Bay,Tauranga
1794560,6012,Astor Street,Karori,Wellington
1799711,4702,Astrada Court,Feilding,
1828685,2019,Astral Place,Clover Park,Auckland
3084218,9305,Astral Rise,Wanaka,
1790096,7871,A Street,Ahaura,
1799201,4412,Astrid Court,Awapuni,Palmerston North
3080116,0230,Astrid Drive,Kerikeri,
1838309,0900,Astrid Lane,Wellsford,
1821264,0930,Astrolabe Place,Gulf Harbour,Whangaparaoa
1792182,5024,Astrolabe Street,Cannons Creek,Porirua
1808825,3116,Astrolabe Street,Mount Maunganui,
1789801,7197,Astrolabe View,Kaiteriteri,Motueka
1801769,5024,Astronomer Place,Whitby,Porirua
1779849,7385,Astrop Road,Pyramid Valley,Waikari
3077543,1062,Ataahua Lane,Mount Wellington,Auckland
3080708,5710,Ataahua Place,Featherston,
3082541,3198,Ataahua Rise,Waiotahe,Opotiki
3079050,3592,Ataahua Views Terrace,Wharekaho,Whitianga
1814578,3183,Atahua Way,Te Puke,
1793141,5010,Atahu Grove,Tirohanga,Lower Hutt
1953601,2018,Atalanta Way,Beachlands,Auckland
1833011,0116,Ata-Mahina Way,Ruakaka,
3052282,6037,Atamira Close,"Churton Park,Johnsonville",Wellington
1825116,1024,Atanga Avenue,Mount Eden,Auckland
1986953,8051,Atap Place,Northwood,Christchurch
3084506,0873,Ata Rangi Close,Wainui,
1825548,1051,Atarangi Road,Greenlane,Auckland
1796215,5032,Atarau Grove,Paraparaumu,
3061277,,Atarau Road,"Atarau,Blackball,Ikamatua","Blackball,Greymouth,Reefton"
1789258,7011,Atarau Way,Tahunanui,Nelson
1833921,1071,Atareta Street,Orakei,Auckland
3079618,2578,Ata Road,Karaka,Papakura
1823431,0604,Atarua Gardens,Waiatarua,Auckland
3028627,0604,Atarua Way,"Oratia,Waiatarua",Auckland
3012207,8025,Atatu Lane,Wigram,Christchurch
1788178,7010,Atawhai Crescent,Atawhai,Nelson
3030570,7010,Atawhai Drive,"Atawhai,Marybank,The Wood",Nelson
3084418,8051,Atawhai Lane,Belfast,Christchurch
1840994,1022,Atawhai Lane,Mount Albert,Auckland
1799209,4410,Atawhai Road,Fitzherbert,Palmerston North
3084574,2585,Atchison Lane,Clevedon,
3083760,4610,Atea Place,Hawera,
3017487,4576,Atene Track,"Parikino,Whanganui National Park","Whanganui,Whanganui National Park"
3018193,7371,Athelney Road,"Kaikoura,Kaikoura Flat",Kaikoura
1776233,9814,Athelney Street,Bluff,
1828686,2023,Athelstan Place,Otara,Auckland
1782684,8024,Athelstan Street,Spreydon,Christchurch
1839312,3110,Athelstan Way,Bethlehem,Tauranga
1822339,0629,Athena Drive,Totara Vale,Auckland
3029557,9591,Athenaeum Road,"Craigellachie,Tuapeka West",Lawrence
1771091,9395,Athenaeum Road,Wedderburn,Ranfurly
1791792,4412,Athena Grove,Highbury,Palmerston North
1813723,3118,Athena Grove,Papamoa Beach,Papamoa
1839890,7612,Athena Street,Pegasus,
1825262,1042,Athenic Avenue,Lynfield,Auckland
1813801,3177,Athenree Heights,Athenree,Waihi Beach
1808419,3177,Athenree Road,"Athenree,Athenree Gorge","Waihi,Waihi Beach"
1830009,2016,Athenry Place,Dannemora,Auckland
1770858,9320,Athenry Road,Bridge Hill,Alexandra
1825488,1061,Athens Road,Onehunga,Auckland
1794555,6022,Athens Street,Miramar,Wellington
1804069,4112,Atherfold Crescent,Greenmeadows,Napier
1793139,5010,Atherstone Lane,Belmont,Lower Hutt
1774186,9305,Atherton Place,Wanaka,
1823928,1023,Atherton Road,Epsom,Auckland
3080310,6037,Atherton Terrace,Churton Park,Wellington
1816088,3110,Athfield Drive,Bethlehem,Tauranga
3077658,3210,Athier Avenue,Chartwell,Hamilton
3062750,4472,Athletic Track Access Road,Turitea,Palmerston North
3019337,5011,Athlone Crescent,"Avalon,Boulcott",Lower Hutt
1801590,5011,Athlone Crescent North,Avalon,Lower Hutt
1815465,3493,Athlone Drive,Cambridge,
1799195,4410,Athlone Place,Hokowhitu,Palmerston North
1823918,1071,Athlone Road,Glendowie,Auckland
1840076,9491,Athol Brae Road,Tokarahi,Oamaru
1794552,6011,Athol Crescent,Wellington Central,Wellington
3030783,9793,Athol Five Rivers Highway,"Athol,Lowther,Parawa","Athol,Lowther"
1830026,0920,Athol Place,Algies Bay,
1773350,9230,Athol Place,Balclutha,
1780031,8971,Athol Place,Diamond Harbour,
3047736,7910,Athol Place,"Highfield,Marchwiel",Timaru
1772145,9022,Athol Place,Ravensbourne,Dunedin
1823912,1071,Athol Place,Saint Heliers,Auckland
1806822,3682,Athol Road,Waikino,Waihi
3013579,7071,Athol Street,Glenduan,Nelson
1771552,9300,Athol Street,Queenstown,
1787939,7891,Athol Street,Waimangaroa,Westport
1779167,8041,Athol Terrace,"Ilam,Upper Riccarton",Christchurch
1837606,2104,Athy Place,Wiri,Auckland
3083611,5018,Atiamuri Crescent,Haywards,Lower Hutt
1800241,5010,Atiawa Crescent,Waiwhetu,Lower Hutt
1816777,4312,Atiawa Street,Glen Avon,New Plymouth
1801575,5012,Atiawa Street,Petone,Lower Hutt
1800728,3334,Atirau Road,Turangi,
1829730,2024,Atiu Place,Favona,Auckland
1823932,1071,Atkin Avenue,Mission Bay,Auckland
1833324,0573,Atkin Road,Mangawhai,
1815845,3097,Atkins Lane,Hamurana,
1825868,1062,Atkinson Avenue,Otahuhu,Auckland
1795692,5512,Atkinson Avenue,Otaki Beach,Otaki
1832426,2025,Atkinson Avenue,Papatoetoe,Auckland
1817169,4371,Atkinson Road,Hurworth,New Plymouth
1820471,0482,Atkinson Road,Kaingaroa,Kaitaia
1791227,7285,Atkinson Road,Seddon,
1831336,0604,Atkinson Road,Titirangi,Auckland
1807911,3874,Atkinson Road,Wharepuhunga,Te Awamutu
1839878,7612,Atkinsons Lane,Pegasus,
1787318,7310,Atkinson Street,Cheviot,
1809829,3127,Atkinson Street,Kawerau,
1813017,3875,Atkinson Street,Kihikihi,Te Awamutu
1800965,4777,Atkinson Street,Kiwitea,Feilding
1802804,4010,Atkinson Street,Mangapapa,Gisborne
1795064,5810,Atkinson Street,Masterton,
1794561,6037,Atkinson Street,Newlands,Wellington
1817531,4614,Atkinson Street,Normanby,Hawera
1772151,9012,Atkinson Street,South Dunedin,Dunedin
1817167,4320,Atkinson Street,Waitara,
1804872,4920,Atkinson Street,Woodville,
3016623,9775,Atkins Road,"Glenkenich,Tapanui","Gore,Tapanui"
1841036,9382,Atkins Road,Luggate,Wanaka
1801102,5583,Atkins Road,Otaki,
1826504,0178,Atkins Road,Portland,Whangarei
1821263,0974,Atkins Road,Te Arai,Wellsford
1788973,7120,Atkins Street,Motueka,
1801985,4072,Atkins Street,Patutahi,Gisborne
1815818,3112,Atkins Way,Ohauiti,Tauranga
1813814,3129,Atlanta Court,Katikati,
1794543,6021,Atlanta Grove,Brooklyn,Wellington
1838561,3118,Atlantic Close,Papamoa Beach,Papamoa
3077450,4472,Atlantic Drive,Fitzherbert,Palmerston North
1832582,2105,Atlantic Place,Goodwood Heights,Auckland
3000946,3200,Atlantic Street,"Avalon,Nawton",Hamilton
1822348,0629,Atlantis Place,Totara Vale,Auckland
1836073,8083,Atlantis Street,New Brighton,Christchurch
1782669,8011,Atlas Lane,Christchurch Central,Christchurch
1831144,0632,Atlas Place,Rosedale,Auckland
3051431,9783,Atlas Street,Limehills,Winton
1774834,9371,Atley Road,Arthurs Point,Queenstown
1796298,5512,Atmore Avenue,Otaki,
1788184,7010,Atmore Terrace,Maitai,Nelson
1782685,8023,Atom Lane,Woolston,Christchurch
1826941,2120,Attewell Road,Pukekohe,
1838558,9330,Attfield Close,Clyde,
1830426,0994,Attitude Avenue,Waitoki,
1784578,8053,Attlee Crescent,Bryndwr,Christchurch
1800944,4702,Attlee Place,Feilding,
1802277,4010,Attlee Place,Gisborne,
1842189,4501,Attrill Place,Tawhero,Whanganui
3082463,3189,Attwood Lane,Paengaroa,
1822345,0632,Attwood Road,Paremoremo,Auckland
1826510,0176,Attwood Road,Ruatangata West,Whangarei
1826511,0174,Attwood Street,Tamaterau,Whangarei
1833130,2016,Attymon Lane,East Tamaki,Auckland
1808704,3119,Atuaroa Avenue,Te Puke,
1804496,4295,Atua Road,Elsthorpe,
1794534,6037,Atua Street,Johnsonville,Wellington
1798135,5036,Atua Street,Waikanae Beach,Waikanae
3082808,3118,Atutahi Lane,"Papamoa,Papamoa Beach",Papamoa
3080317,4310,Atutahi Street,Hurdon,New Plymouth
1795904,3381,Atutahi Street,Tokaanu,Turangi
1837301,0478,Atwell Road,Kaeo,
1794559,6037,Atwood Grove,Churton Park,Wellington
1832533,2013,Atworth Way,Burswood,Auckland
3078857,2682,Auahi Island,Port Waikato,
1810239,3970,Auahi North Road,Piopio,
1810271,3970,Auahi South Road,Piopio,
3079521,1026,Aua Lane,Waterview,Auckland
1842076,7674,Aua Street,Lincoln,
1814042,3802,Aubin Close,Pirongia,
1812545,3330,Aubrey Crescent,Rainbow Point,Taupo
3079813,8022,Aubrey Lane,Cracroft,Christchurch
1771554,9305,Aubrey Road,"Albert Town,Wanaka",Wanaka
1826505,0175,Aubrey Road,Pataua North,Parua Bay
1821262,0993,Aubrey Road,Stillwater,Silverdale
1779262,7520,Aubrey Street,Akaroa,
1816771,4310,Aubrey Street,New Plymouth,
1826260,0112,Aubrey Street,Regent,Whangarei
1818301,4320,Aubrey Street,Waitara,
1779265,7520,Aubrey Street South,Akaroa,
3016006,3110,Aubrey Way,Brookfield,Tauranga
3078889,3285,Aubrey Way,Whatawhata,Hamilton
1784580,8041,Auburn Avenue,Upper Riccarton,Christchurch
3083016,4376,Auburn Green,Peacocke,Hamilton
3000825,9810,Auburn Road,"Hargest,Waihopai",Invercargill
1823915,1023,Auburn Street,Grafton,Auckland
1822341,0622,Auburn Street,Takapuna,Auckland
3017527,7571,Auchenflower Road,"Coalgate,Darfield,Sheffield",
3027009,0473,Auckland Block Road,"Otaua,Taheke",Kaikohe
3017109,,Auckland-Hamilton Motorway,"Auckland Central,Bombay,Clover Park,Conifer Grove,Drury,Eden Terrace,Ellerslie,Epsom,Freemans Bay,Goodwood Heights,Grafton,Greenlane,Karaka,Manukau,Mount Eden,Mount Wellington,Otahuhu,Otara,Pahurehure,Papatoetoe,Penrose,Ramarama,Randwick Park,Remuera,Rosehill,Takanini,The Gardens,Totara Heights,Wiri","Auckland,Bombay,Drury,Papakura,Takanini"
3037337,,Auckland-Kumeu Motorway,"Auckland Central,Avondale,Eden Terrace,Grey Lynn,Henderson,Massey,Mount Albert,Point Chevalier,Te Atatu Peninsula,Waitemata Harbour,Waterview,West Harbour,Western Springs,Westgate,Whenuapai",Auckland
1805302,4112,Auckland Road,Greenmeadows,Napier
1823908,1071,Auckland Road,Saint Heliers,Auckland
3024369,0910,Auckland Road,Warkworth,
1784995,7472,Auckland Street,Ashley,Rangiora
1790844,7201,Auckland Street,Mayfield,Blenheim
3050504,7220,Auckland Street,Picton,
1821275,0973,Auckland Street,Port Albert,Wellsford
1791883,6023,Auckland Terrace,Melrose,Wellington
3067966,,Auckland-Waiwera Motorway,"Albany,Albany Heights,Dairy Flat,Fairview Heights,Forrest Hill,Northcote,Northcote Point,Oteha,Pinehill,Redvale,Rosedale,Silverdale,Stillwater,Sunnynook,Takapuna,Totara Vale,Wairau Valley","Auckland,Dairy Flat,Silverdale"
1819637,0272,Aucks Road,"Okiato,Russell",Russell
3080308,3112,Audax Lane,Pyes Pa,Tauranga
1832461,2014,Auden Close,Somerville,Auckland
1785816,7614,Auden Common,Rolleston,
1784587,8042,Audley Gate,Avonhead,Christchurch
1784886,7630,Audley Street,Kaiapoi,
1818716,0800,Audrey Luckens Lane,Helensville,
1842790,3210,Audrey Place,Flagstaff,Hamilton
1809128,3110,Audrey Place,Matua,Tauranga
3028668,0620,Audrey Road,"Milford,Takapuna",Auckland
1800233,2120,Aufidius Place,Pukekohe,
1842670,0932,Auger Lane,Silverdale,
1837304,3579,Augusta Drive,Pauanui,
1842580,4312,Augusta Grove,Waiwhakaiho,New Plymouth
1831145,0620,Augusta Place,Forrest Hill,Auckland
1819635,0230,Augusta Place,Kerikeri,
1835793,3300,Augusta Place,Morrinsville,
1778642,9822,Augusta Place,Riverton/Aparima,
1826258,0112,Augusta Place,Te Kamo,Whangarei
3079775,3114,Augusta Rise,Omokoroa,
1807297,3214,Augusta Street,Fairfield,Hamilton
1782668,8081,Augusta Street,Redcliffs,Christchurch
1793432,5014,August Avenue,Wainuiomata,Lower Hutt
1842015,8025,Augustine Drive,"Aidanfield,Halswell,Hillmorton",Christchurch
1782120,7924,Augustine Street,Waimate,
1825549,1061,August Place,Greenlane,Auckland
1793137,5019,August Street,Stokes Valley,Lower Hutt
1811909,3320,August Street,Te Aroha,
1810295,3015,Augustus Earle Place,Pukehangi,Rotorua
1830329,1052,Augustus Steps,Parnell,Auckland
1795361,5713,Augustus Street,Carterton,
1806203,3500,Augustus Street North,Thames,
1814215,3500,Augustus Street South,Thames,
1823905,1052,Augustus Terrace,Parnell,Auckland
1817362,4679,Aui Street,Awatuna,Hawera
1817937,4387,Aukawa Road,Matau,Stratford
1788007,7830,Auld Street,Blacks Point,Reefton
1772908,9012,Auld Street,Saint Kilda,Dunedin
1822054,0630,Auld Street,Torbay,Auckland
1818625,2580,Aulyn Drive,Karaka,Papakura
3079992,2102,Aumangea Lane,Manurewa,Auckland
3083601,2024,Aumarire Lane,Favona,Auckland
3084614,4312,Aumoana Drive,"Bell Block,Waiwhakaiho",New Plymouth
3081921,1061,Aumoana Lane,Onehunga,Auckland
1831426,1071,Aumoe Avenue,Saint Heliers,Auckland
1832535,2105,Aunceston Rise,Alfriston,Auckland
1804487,4276,Aupaki Farm Settlement Road,Otane,
1804495,4178,Aupaki Road,Poukawa,
1801616,4797,Auputa Road,"Mangaweka,Rangiwahia","Kimbolton,Mangaweka"
3080556,2578,Auranga Drive,Karaka,Papakura
1832273,2010,Aurea Avenue,Pakuranga,Auckland
1837939,3330,Aurea Place,Tauhara,Taupo
3080235,0891,Aurea Terrace,Kumeu,
3043787,0483,Aurere Beach Road,Taipa,
1775522,9387,Auripo Road,"Ida Valley,Poolburn",Oturehua
3000991,4678,Auroa Road,"Auroa,Awatuna,Otakeho",Hawera
1805229,4182,Auroa Road,Te Haroto,Napier
1825260,1025,Aurora Avenue,"Mount Albert,Wesley",Auckland
1821269,0920,Aurora Avenue,Snells Beach,
1815909,3112,Aurora Avenue,Welcome Bay,Tauranga
1842887,7604,Aurora Close,Prebbleton,
1834539,5032,Aurora Grove,Raumati Beach,Paraparaumu
3077917,9305,Aurora Lane,Wanaka,
1786880,8042,Aurora Street,Hei Hei,Christchurch
1800287,5012,Aurora Street,Petone,Lower Hutt
3046308,3015,Aurora Street,"Pomare,Sunnybrook",Rotorua
1807301,3216,Aurora Terrace,Hillcrest,Hamilton
3026212,6012,Aurora Terrace,"Kelburn,Wellington Central",Wellington
1772872,9023,Aurora Terrace,Port Chalmers,Dunedin
1774298,9310,Aurum Court,Cromwell,
1774287,9300,Aurum Lane,Fernhill,Queenstown
1777649,9881,Aurum Street,Orepuki,Riverton/Aparima
1774642,9430,Auskerry Street,Palmerston,
1812713,3432,Austen Place,Leamington,Cambridge
1836665,2120,Austen Place,Pukekohe,
1842456,7614,Austen Place,Rolleston,
1811296,3782,Austen Street,Rangiriri,Te Kauwhata
1781528,7011,Austen Ward Heights,Enner Glynn,Nelson
1842190,3112,Austen Way,Hairini,Tauranga
3051822,7999,Auster Avenue,Pukaki,
1842764,8042,Auster Avenue,Wigram,Christchurch
3081805,0616,Auster Lane,Hobsonville,Auckland
1816781,4312,Auster Place,Bell Block,New Plymouth
1828683,2022,Auster Place,Mangere,Auckland
1842743,2024,Austin Brave Place,Favona,Auckland
1839963,7300,Austin Close,Kaikoura,
1815916,3510,Austin Drive,Whitianga,
1783855,8022,Austin Kirk Lane,Huntsbury,Christchurch
1781462,7992,Austin Lane,Orari,Temuka
1799189,4412,Austin Place,Awapuni,Palmerston North
1770934,9310,Austin Place,Cromwell,
1843008,5713,Austin Reid Avenue,Carterton,
1830961,0794,Austin Road,Dairy Flat,
1798571,4891,Austin Road,Foxton,
1822346,0632,Austin Road,Greenhithe,Auckland
1790085,7872,Austin Road,Hochstetter,Moana
1807917,3973,Austin Road,Honikiwi,Otorohanga
1826506,0110,Austin Road,Maunu,Whangarei
3025677,4673,Austin Road,"Normanby,Okaiawa",Hawera
1777650,9881,Austin Road,Ruahine,Riverton/Aparima
1806848,3681,Austin Road,Waihi,
1791396,7300,Austin Street,Kaikoura,
1791884,6011,Austin Street,Mount Victoria,Wellington
1805303,4110,Austin Street,Onekawa,Napier
1819636,0200,Austin Street,Opua,
1782656,8023,Austin Street,Sydenham,Christchurch
1794551,6011,Austin Terrace,Mount Victoria,Wellington
1770933,9310,Austral Place,Cromwell,
3080269,1010,Autahi Lane,Auckland Central,Auckland
3084606,7183,Autahi Lane,Pohara,Takaka
1812517,4387,Autawa Road,"Huiroa,Purangi,Tarata","Stratford,Tarata"
1816779,4312,Autere Street,Strandon,New Plymouth
1831218,0602,Autumn Avenue,Glen Eden,Auckland
3079240,0616,Autumn Blaze Street,Hobsonville,Auckland
1784864,8052,Autumn Place,Mairehau,Christchurch
1838569,3112,Autumn Place,Ohauiti,Tauranga
1825570,1061,Autumn Place,Penrose,Auckland
1792199,5022,Auty Lane,Porirua City Centre,Porirua
1823220,0604,Ava Avenue,Titirangi,Auckland
1838137,9305,Avalanche Place,Wanaka,
1788978,7120,Avalon Court,Motueka,
1825863,1062,Avalon Court,Otahuhu,Auckland
1793136,5011,Avalon Crescent,Avalon,Lower Hutt
1771553,9300,Avalon Crescent,Fernhill,Queenstown
1807312,3200,Avalon Drive,"Avalon,Nawton",Hamilton
1842754,7700,Avalon Grove,Netherby,Ashburton
3079706,5011,Avalon Park Drive,Avalon,Lower Hutt
1789596,7011,Avalon Place,Enner Glynn,Nelson
1822343,0629,Avalon Place,Glenfield,Auckland
1806210,3620,Avalon Place,Whangamata,
3079606,9305,Avalon Station Drive,Wanaka,
1782651,8013,Avalon Street,"Edgeware,Richmond",Christchurch
1814228,3800,Ava Mae Drive,Te Awamutu,
3079953,7615,Avanda Avenue,Rolleston,
1782671,8061,Ava Place,Dallington,Christchurch
1793327,5012,Ava Street,Petone,Lower Hutt
1775490,9483,Avebury Street,Waynes,Palmerston
1831422,1072,Aveline Place,Glen Innes,Auckland
1786080,7395,Aveling Road,"Hanmer Forest,Hanmer Springs",Hanmer Springs
1776304,9810,Avenal Street,Avenal,Invercargill
1781468,7985,Avenel Street,Winchester,
3028536,8042,Avenger Crescent,Wigram,Christchurch
1818648,2582,Avenger Lane,Ardmore,Papakura
1831297,0602,Avenger Place,Glendene,Auckland
1825117,1024,Avenham Walk,Mount Eden,Auckland
1839159,7201,Avening Close,Blenheim,
1798134,5510,Avenue North Road,Levin,
1792098,,Avenue Road,Foxton,
1804068,4112,Avenue Road,Greenmeadows,Napier
1781924,7910,Avenue Road,"Highfield,West End",Timaru
1825866,1062,Avenue Road,Otahuhu,Auckland
1816407,4375,Avenue Road,Urenui,
1803318,4122,Avenue Road East,"Hastings,Parkvale",Hastings
1825865,1062,Avenue Road East,Otahuhu,Auckland
1810106,3372,Avenue Road North,Morrinsville,
1810123,3372,Avenue Road South,Morrinsville,
1803321,,Avenue Road West,"Hastings,Saint Leonards",Hastings
1823919,1071,Averill Avenue,Kohimarama,Auckland
1831963,2402,Averill Road,Pokeno,
1827809,2110,Averill Street,Papakura,
1779168,8013,Averill Street,Richmond,Christchurch
1828692,2013,Averton Place,East Tamaki,Auckland
1793134,5011,Avery Grove,Boulcott,Lower Hutt
1785961,8081,Avery Place,Redcliffs,Christchurch
1790847,7201,Avery Place,Witherlea,Blenheim
1780502,7600,Avery Road,Burnham,
1804999,4182,Avery Road,Eskdale,Napier
1797923,4984,Avery Road,Pahiatua,
1819241,0391,Avery Road,Pouto,
1792804,5371,Avian Crescent,Blue Mountains,Upper Hutt
1841610,2019,Aviano Close,Flat Bush,Auckland
3079011,3210,Avian Place,Flagstaff,Hamilton
1792801,5371,Avian Road,Blue Mountains,Upper Hutt
1832876,2013,Aviara Court,Northpark,Auckland
1840784,7471,Aviation Avenue,Fernside,Rangiora
1813994,3116,Aviation Avenue,Mount Maunganui,
3078450,0616,Aviation Drive,Hobsonville,Auckland
3046429,9679,Aviation Drive,Manapouri,
3046430,8051,Aviation Drive,McLeans Island,Christchurch
3078870,9024,Aviation Lane,Mosgiel,
3077755,2112,Aviation Street,Takanini,Auckland
1798530,4472,Aviation Way,Turitea,Palmerston North
1823920,1050,Avice Street,Remuera,Auckland
3011902,9435,Aviemore Dam Road,"Aviemore,Kirkliston","Hakataramea Valley,Kurow"
3005012,2010,Aviemore Drive,"Botany Downs,Bucklands Beach,Highland Park",Auckland
2016869,8083,Aviemore Drive,Marshland,Christchurch
1781931,7910,Aviemore Street,Glenwood,Timaru
1840465,7272,Avignon Place,Fairhall,
1796217,5032,Avion Terrace,Raumati Beach,Paraparaumu
1829460,2025,Avis Avenue,Papatoetoe,Auckland
1803646,4172,Avison Lane,Whakatu,Hastings
3079279,7901,Avlis Place,Twizel,
3021149,3110,Avocado Lane,Bethlehem,Tauranga
1838249,0975,Avocado Lane,Mangawhai,
3078679,9401,Avoca Drive,Waiareka Junction,Oamaru
1819244,0372,Avoca East Road,Tangowahine,Dargaville
1838555,9412,Avoca Lane,Lake Ohau,Omarama
3001273,0372,Avoca North Road,"Mamaranui,Tangowahine",Dargaville
1786246,7510,Avoca Place,Darfield,
1827985,2014,Avoca Road,Cockle Bay,Auckland
3003436,0372,Avoca Road,"Mamaranui,Parore,Tangowahine",Dargaville
1819240,0372,Avoca South Road,Tangowahine,Dargaville
1791399,7300,Avoca Street,Kaikoura,
3058731,9011,Avoca Street,"Maryhill,Mornington,The Glen",Dunedin
1771172,9396,Avoca Street,Naseby,
1783852,8022,Avoca Valley Road,"Heathcote Valley,Hillsborough",Christchurch
1805137,3112,Avocet Avenue,Maungatapu,Tauranga
1788197,7010,Avonbank Place,Marybank,Nelson
1832878,2120,Avonbrook Lane,Pukekohe,
1812537,3330,Avon Close,Richmond Heights,Taupo
3017396,1026,Avondale Road,Avondale,Auckland
3017393,8061,Avondale Road,"Avondale,Burwood",Christchurch
1777646,,Avondale Road,"Castle Downs,Dunearn,Taringatura","Dipton West,Winton"
3017395,4112,Avondale Road,"Greenmeadows,Tamatea,Taradale",Napier
1791149,7276,Avondale Road,Waihopai Valley,
1772150,9018,Avondale Street,Corstorphine,Dunedin
1841211,4198,Avon Drive,Mahia,
1787565,8042,Avon Gate,Russley,Christchurch
1833119,2103,Avonglen Court,Wattle Downs,Auckland
3055845,8042,Avonhead Road,"Avonhead,Sockburn,Yaldhurst",Christchurch
3066891,7678,Avonie Place,Rolleston,
1823910,1052,Avon Lane,Parnell,Auckland
1801532,5010,Avonlea Grove,Belmont,Lower Hutt
1832721,2120,Avonlea Lane,Pukekohe,
1823210,0604,Avonleigh Road,"Green Bay,Titirangi",Auckland
1776300,9812,Avon Place,Clifton,Invercargill
1788977,7020,Avon Place,Richmond,
1796912,4501,Avon Place,Springvale,Whanganui
1815612,3112,Avon Rise,Welcome Bay,Tauranga
1778209,9782,Avon Road,"Centre Bush,Limehills",Winton
1776301,9812,Avon Road,"Clifton,Motu Rimu,Tisbury",Invercargill
1826940,2471,Avon Road,"Mangatawhiri,Pokeno",
3018239,9782,Avon Road North,"Centre Bush,Kauana",Winton
3028305,,Avonside Drive,"Avondale,Avonside,Christchurch Central,Linwood,Wainoni",Christchurch
1776982,9793,Avon Street,Athol,
3058134,9891,Avon Street,"Edendale,Menzies Ferry","Edendale,Wyndham"
1807318,3204,Avon Street,Frankton,Hamilton
1776018,9710,Avon Street,Gore,
1794183,6023,Avon Street,Island Bay,Wellington
1798467,5510,Avon Street,Levin,
1776983,9730,Avon Street,Lumsden,
1823914,1052,Avon Street,Parnell,Auckland
1800986,4476,Avon Street,Rongotea,
1772144,9010,Avon Street,Roslyn,Dunedin
1770283,9400,Avon Street,South Hill,Oamaru
1812588,4332,Avon Street,Stratford,
1826180,0112,Avon Street,Tikipunga,Whangarei
1800240,5011,Avon Street,Waterloo,Lower Hutt
3014181,7010,Avon Terrace,"Maitai,The Wood",Nelson
1799190,4414,Avon Terrace,Roslyn,Palmerston North
1803924,4112,Avon Terrace,Taradale,Napier
1791150,7276,Avon Valley Road,Waihopai Valley,
3041445,7999,Avro Avenue,Pukaki,
1784064,8042,Avro Crescent,Hornby,Christchurch
1828674,2022,Avro Place,Mangere,Auckland
1792805,5371,Avro Road,Blue Mountains,Upper Hutt
3081902,0875,Awa Avenue,Helensville,
1788971,7173,Awa Awa Road,"Tasman,Upper Moutere",Upper Moutere
1831741,1971,Awaawaroa Road,Waiheke Island,
3084675,7201,Awa Close,Blenheim,Blenheim
3083507,1072,Awa Crescent,"Saint Johns,Stonefields",Auckland
1840158,0112,Awa Glade Lane,Tikipunga,Whangarei
1804497,4284,Awahiwi Road,Wallingford,Waipukurau
1770688,9435,Awahokomo Road,Kurow,
1839413,4814,Awahou Place,Foxton,
3030246,3191,Awahou Road,"Ruatoki,Taneatua",Taneatua
3069067,4884,Awahou South Road,Ashhurst,
3042204,4775,Awahuri Feilding Road,"Awahuri,Feilding","Feilding,Palmerston North"
1804977,4179,Awahuri Road,Crownthorpe,Hastings
1842506,4702,Awahuri Road,Feilding,
1817839,4372,Awai Road,Tarurutangi,New Plymouth
3052660,3671,Awaiti Canal Road,"Awaiti,Kerepehi,Netherton",Paeroa
3040933,3193,Awaiti North Road,Matata,
1813340,3112,Awaiti Place,Hairini,Tauranga
1813605,3672,Awaiti Road,"Awaiti,Netherton,Otway","Paeroa,Te Aroha"
3055100,3193,Awaiti South Road,"Matata,Otakiri","Matata,Whakatane"
1949030,0931,Awaiti Way,Orewa,
1806777,3672,Awaiti West Road,Netherton,Paeroa
1809942,4376,Awakau Road,"Awakino,Mokau",Mokau
3055740,,Awakeri Road,"Awakeri,Edgecumbe","Edgecumbe,Whakatane"
3079476,0810,Awakeri Street,Kumeu,
1775265,9271,Awakiki Road,Romahapa,Balclutha
1809943,4376,Awakino Heads Road,Awakino,Mokau
1828678,2102,Awakino Place,Manurewa,Auckland
1830619,0372,Awakino Point East Road,Awakino Point,Dargaville
1819247,0372,Awakino Point North Road,Awakino Point,Dargaville
1819087,0310,Awakino Road,"Awakino Point,Dargaville",Dargaville
1774695,9435,Awakino Road,Kurow,
3062321,3910,Awakino Road,Te Kuiti,
1770541,9435,Awakino Skifield Road,Kurow,
3077794,2016,Awakirihi Close,Shamrock Park,Auckland
1814124,3577,Awakite,Thames,
1773581,9272,Awamangu Road,Pukeawa,Balclutha
3078819,0614,Awamarino Way,Westgate,Auckland
3057544,4193,Awamate Road,"Frasertown,Wairoa",Wairoa
3058604,,Awamoa Road,"Awamoa,Holmes Hill,Oamaru",Oamaru
1770681,9491,Awamoko Street,Windsor,Oamaru
1793135,5010,Awamutu Grove,Waiwhetu,Lower Hutt
1821270,0792,Awanohi Road,"Dairy Flat,Redvale","Auckland,Dairy Flat"
1815859,3194,Awanuiarangi Road,Pikowai,Matata
3079639,4410,Awanui Avenue,Hokowhitu,Palmerston North
1838305,3875,Awanui Avenue,Kihikihi,Te Awamutu
1933531,3710,Awanui Avenue,Te Kauwhata,
1858519,0985,Awanui Crescent,Matakana,
1801101,5036,Awanui Drive,Waikanae,
3081645,0179,Awanui Lane,Maunu,Whangarei
1770355,3400,Awanui Place,Matamata,
1809131,3112,Awanui Place,Welcome Bay,Tauranga
1818728,2582,Awanui Rise,Papakura,
3083328,0932,Awanui Road,Red Beach,
1789330,7096,Awanui Road,Tapawera,Wakefield
1802684,4082,Awanui Road,Tikitiki,
1802685,4086,Awanui Road North,Tikitiki,
1821780,0626,Awanui Street,Birkenhead,Auckland
1812539,3330,Awanui Street,Hilltop,Taupo
1816834,4312,Awanui Street,Merrilands,New Plymouth
3084329,2113,Awa Paheke Avenue,Karaka,Papakura
1821266,0973,Awapeka Road,Te Hana,Wellsford
1788970,7895,Awapiriti Road,Shenandoah,Murchison
1842503,7400,Awa Place,Rangiora,
3027185,,Awapuni Road,"Awapuni,Gisborne Airport,Matawhero",Gisborne
3024209,0604,Awarangi Rise,Oratia,Auckland
3084629,0931,Awa Rawhiti Drive,Orewa,
1811292,3781,Awariki Road,Waerenga,Te Kauwhata
1836569,7987,Awarima Road,Fairlie,
3024492,7183,Awaroa Bay,Awaroa Bay,Takaka
3080715,0573,Awaroa Creek Rise,Kaiwaka,
1821267,0891,Awa Road,Kumeu,
3060282,6022,Awa Road,"Miramar,Seatoun",Wellington
1811780,3380,Awa Road,Springdale,
3042339,7183,Awaroa Inlet,"Abel Tasman National Park,Awaroa Bay,Awaroa Inlet","Abel Tasman National Park,Takaka"
1808207,3772,Awaroa Landing Road,Naike,Huntly
1795491,8081,Awaroa Lane,Sumner,Christchurch
1830526,0110,Awaroa River Road,Abbey Caves,Whangarei
3047830,0481,Awaroa River Road,"Broadwood,Pawarenga","Kohukohu,Pawarenga"
3036398,7183,Awaroa Road,"Abel Tasman National Park,Awaroa","Abel Tasman National Park,Takaka"
1820043,0481,Awaroa Road,Broadwood,Kohukohu
1818729,0612,Awaroa Road,"Glendene,Sunnyvale",Auckland
1830859,0800,Awaroa Road,Helensville,
1831964,2682,Awaroa Road,Otaua,
1811294,3781,Awaroa Road,Waerenga,Te Kauwhata
3027872,7781,Awaroa School Road,"Dorie,Pendarves","Ashburton,Dorie"
1830270,2123,Awaroa Stream Drive,Waiuku,
3012544,9877,Awarua Bay Road,Awarua Plains,Invercargill
1803487,4130,Awarua Crescent,Havelock North,
1831568,1071,Awarua Crescent,Orakei,Auckland
1790499,7886,Awarua Place,Haast,
1806232,3620,Awarua Place,Whangamata,
1776674,9879,Awarua Road,Otatara,Invercargill
1839807,7612,Awarua Road,Pegasus,
3015541,9877,Awarua School Road,"Awarua,Woodend",Invercargill
3033262,9877,Awarua Siding Road,"Awarua,Greenhills",Invercargill
3033386,5022,Awarua Street,"Elsdon,Takapuwahia",Porirua
1791885,6035,Awarua Street,Ngaio,Wellington
1822052,0630,Awaruku Road,Torbay,Auckland
1797235,4702,Awa Street,Feilding,
1803069,4198,Awa Street,Nuhaka,
1831785,1062,Awa Street,Otahuhu,Auckland
1814288,3574,Awa Street,Turua,Ngatea
3077930,3112,Awataha Crescent,Pyes Pa,Tauranga
3080427,0627,Awataha Drive,Northcote,Auckland
1822338,0632,Awatahi Place,Greenhithe,Auckland
1814510,3974,Awatane Road,Otorohanga,
1809624,3120,Awatapu Drive,Whakatane,
1800769,5032,Awatea Avenue,Paraparaumu,
3080749,3510,Awatea Drive,Whitianga,
1787655,8042,Awatea Gardens,"Hornby,Wigram",Christchurch
1837155,4625,Awatea Place,Ohakune,
1780841,7011,Awatea Place,Tahunanui,Nelson
1779170,,Awatea Road,"Halswell,Hornby,Wigram",Christchurch
1824700,1052,Awatea Road,Parnell,Auckland
1841379,3285,Awatea Road,Whatawhata,Hamilton
1803316,4122,Awatea Street,Akina,Hastings
1796908,4501,Awatea Street,Castlecliff,Whanganui
1798466,5510,Awatea Street,Levin,
1819431,0505,Awatea Street,Mangawhai Heads,Mangawhai
3060112,5024,Awatea Street,Ranui,Porirua
1831845,0110,Awatea Street,Raumanga,Whangarei
1801273,4410,Awatea Terrace,Hokowhitu,Palmerston North
1810339,3010,Awatea Terrace,Lynmore,Rotorua
1814398,3200,Awatere Avenue,Beerescourt,Hamilton
1821276,0920,Awatere Place,Snells Beach,
1819922,0281,Awatere Road,Motatau,Kawakawa
1805065,4108,Awatere Road,Wairoa,
1828687,2023,Awatere Street,Clover Park,Auckland
3027799,7612,Awatere Street,Pegasus,
1791148,,Awatere Valley Road,"Awatere Valley,Seddon",Seddon
1812623,4392,Awa Terrace,Tututawa,Stratford
1840992,3118,Awatira Drive,Papamoa Beach,Papamoa
3079101,0871,Awatiro Drive,Kaukapakapa,
3078077,1062,Awatiu Road,Otahuhu,Auckland
1939492,9018,Awa Toru Drive,Fairfield,Dunedin
1835974,4183,Awatoto Road,"Awatoto,Meeanee",Napier
3084619,0931,Awa Uru Road,Orewa,
1797642,4779,Awawa Road,Halcombe,
3082804,9304,Awa Way,Lower Shotover,Queenstown
1822330,0192,Awa Way,Parua Bay,
2008254,2103,Awhenga Place,Weymouth,Auckland
3083617,0614,Awhi Lane,Massey,Auckland
1838596,5712,Awhina Drive,Greytown,
3078986,2024,Awhina Street,Favona,Auckland
1823211,0816,Awhiorangi Promenade,Swanson,Auckland
3081965,3118,Awhi Place,Papamoa Beach,Papamoa
1812540,3378,Awhi Road,"Iwitahi,Waitahanui",Taupo
1826945,2684,Awhitu Central Road,Awhitu,
1826946,2684,Awhitu Gully Road,Manukau Heads,Awhitu
3018591,,Awhitu Road,"Awhitu,Karioitahi,Pollok,Waiuku","Awhitu,Pollok,Waiuku"
1837310,0295,Awhitu Road,Kerikeri,
3083194,2578,Awhi Way,Karaka,Papakura
1838902,9571,Awikiki Road,Roxburgh East,Roxburgh
1789403,7096,Axe Road,Golden Downs,Wakefield
3080955,0110,Axis Place,Port Whangarei,Whangarei
1826942,2675,Axtens Road,Mangatawhiri,
1823218,0604,Aydon Road,Titirangi,Auckland
1842831,7700,Ayers Green,Allenton,Ashburton
1785268,7400,Ayers Street,Rangiora,
1815729,3210,Aylesbury Court,Rototuna North,Hamilton
3059553,7671,Aylesbury Road,"Burnham,Kirwee",
1828670,2010,Aylesbury Street,Pakuranga,Auckland
1809127,3110,Aylesbury Terrace,Otumoetai,Tauranga
1800447,6012,Aylesbury Way,Karori,Wellington
1782672,8013,Aylesford Street,Mairehau,Christchurch
1828667,2012,Aylmer Court,Eastern Beach,Auckland
1772135,9011,Aylmer Street,Maryhill,Dunedin
3073108,7812,Aylmer Street,Ross,
1782667,8024,Aylmer Street,"Somerfield,Sydenham",Christchurch
1786032,7520,Aylmers Valley Road,Akaroa,
1785494,8051,Aylsham Lane,Casebrook,Christchurch
1780503,7572,Aynsleys Road,Snowdon,Lake Coleridge
1781921,7910,Aynsley Street,Parkside,Timaru
1782681,8022,Aynsley Terrace,Hillsborough,Christchurch
3080921,9371,Ayr Avenue,Arrowtown,
1840288,9371,Ayrburn Ridge,Arrowtown,
1776676,9810,Ayresdale Road,Ascot,Invercargill
1780172,7674,Ayres Street,Motukarara,Tai Tapu
1799208,4410,Ayr Place,Hokowhitu,Palmerston North
3050937,5024,Ayr Place,Papakowhai,Porirua
1828684,2010,Ayr Road,Pakuranga,Auckland
1813556,3200,Ayrshire Drive,"Grandview Heights,Western Heights",Hamilton
1803182,4130,Ayrshire Drive,Havelock North,
3008330,9024,Ayrshire Drive,Mosgiel,
3082960,8025,Ayrshire Lane,Halswell,Christchurch
3077597,9371,Ayrshire Lane,Speargrass Flat,Queenstown
1832443,2014,Ayrshire Place,Somerville,Auckland
3081599,7020,Ayrshire Street,Appleby,Richmond
1773351,9230,Ayr Street,Balclutha,
1778830,9782,Ayr Street,"Centre Bush,Limehills",Winton
1782003,7925,Ayr Street,Fairlie,
1803315,4120,Ayr Street,Flaxmere,Hastings
1777559,9818,Ayr Street,Halfmoon Bay / Oban,Stewart Island
1772141,9010,Ayr Street,Kaikorai,Dunedin
1787266,7910,Ayr Street,Marchwiel,Timaru
1770057,9024,Ayr Street,Mosgiel,
3007829,9400,Ayr Street,"Oamaru,Oamaru North",Oamaru
1796606,4625,Ayr Street,Ohakune,
3007828,9398,Ayr Street,"Orangapai,Patearoa","Patearoa,Ranfurly"
1824693,1052,Ayr Street,"Parnell,Remuera",Auckland
1784223,8011,Ayr Street,Riccarton,Christchurch
1808097,3611,Ayr Street,Waihi Beach,
1787936,7891,Ayr Street,Waimangaroa,Westport
1820042,0473,Ayrton Road,Omanaia,Kaikohe
1823214,0610,Ayrton Street,Te Atatu South,Auckland
1776153,9772,Ayson Road,Charlton,Gore
1822349,0629,Ayton Drive,Totara Vale,Auckland
1792224,5024,Ayton Drive,Whitby,Porirua
1802276,4010,Ayton Street,Mangapapa,Gisborne
1773553,9091,Ayton Street,Taieri Mouth,
1817286,4616,Aytoun Street,Opunake,
3056524,9013,Aytoun Street,"Shiel Hill,Waverley",Dunedin
1803488,4130,Ayto Way,Havelock North,
1785486,8042,Azalea Close,Templeton,Christchurch
1799771,4412,Azalea Court,Highbury,Palmerston North
1805824,3116,Azalea Dell,Mount Maunganui,
3077885,3330,Azalea Lane,Waipahihi,Taupo
1818064,4310,Azalea Place,Brooklands,New Plymouth
1827540,2123,Azalea Place,Waiuku,
1828669,2104,Azalea Place,Wiri,Auckland
1801804,4414,Azara Court,Milson,Palmerston North
1832272,2025,Azara Place,Papatoetoe,Auckland
3077565,8025,Azara Way,Wigram,Christchurch
1813165,3210,Azimuth Place,Flagstaff,Hamilton
1800055,5024,Azimuth Place,Whitby,Porirua
3079323,3508,Azimuth Road,Tairua,
1839730,3112,Azores Way,Welcome Bay,Tauranga
1827701,2112,Aztec Place,Conifer Grove,Takanini
1813913,3204,Aztec Place,Frankton,Hamilton
1784574,8051,Aztec Place,Redwood,Christchurch
1831143,0632,Azure Grove,Unsworth Heights,Auckland
3079689,0931,Azure Ocean Road,Orewa,
1787590,8083,Azure Place,Burwood,Christchurch
1833833,3210,Azure Place,Huntington,Hamilton
1850566,2019,Azzurro Way,Flat Bush,Auckland
