road_id,postcode,name,locality,city
1777152,9730,Dacia Street,Lumsden,
1775476,9011,Dacre Court,Clyde Hill,Dunedin
1825542,0930,Dacre Grove,Gulf Harbour,Whangaparaoa
1839565,9871,Dacre Morton Mains Road,"Dacre,Morton Mains,Seaward Downs","Invercargill,Wyndham"
1823902,1010,Dacre Street,Eden Terrace,Auckland
1782877,8062,Dacre Street,Linwood,Christchurch
1776064,9712,Dacre Street,Mataura,
1770240,9400,Dacre Street,Oamaru North,Oamaru
1841001,7020,Daelyn Drive,Richmond,
1842177,9879,Daffodil Bay Road,Sandy Point,Invercargill
1835269,5713,Daffodil Grove,Carterton,
3084565,7630,Daffodil Lane,Kaiapoi,
1819725,0474,Daffodil Road,Awarua,Kaikohe
1823402,0604,Daffodil Street,Titirangi,Auckland
1808188,2695,Daff Road,Port Waikato,
1828508,2102,Dagenham Street,Manurewa,Auckland
1806780,3671,Dagger Road,Kerepehi,Paeroa
1795103,5882,Daggs Road,"Bideford,Ihuraua",Masterton
1795206,5888,Daggs Road,Kaituna,Masterton
1804636,4930,Dagmar Street,Dannevirke,
3081185,5018,Dahl Drive,"Trentham,Wallaceville",Upper Hutt
1777910,9682,Dahlenburg Road,Waikoura,Otautau
1836990,0632,Dahlia Drive,Fairview Heights,Auckland
3078983,8025,Dahlia Drive,Wigram,Christchurch
1799436,4410,Dahlia Street,Palmerston North,
1799440,4414,Dahlstrom Grove,Kelvin Grove,Palmerston North
1791542,3989,Dahya Lala Drive,Kakahi,
1832651,0600,Dainton Place,New Lynn,Auckland
3050110,7373,Dairy Farm Road,"Inland Road,Peketa",Kaikoura
1795792,4472,Dairy Farm Road,Turitea,Palmerston North
3064803,,Dairy Flat Highway,Albany,Auckland
3038682,,Dairy Flat Highway,"Albany,Albany Heights,Dairy Flat,Lucas Heights,Silverdale","Auckland,Dairy Flat,Silverdale"
1771338,9391,Dairy Gully Road,Waikerikeri,Alexandra
1832912,2016,Dairyland Drive,East Tamaki Heights,Auckland
1828485,2023,Dairy Road,Otara,Auckland
1821242,0794,Dairy Stream Road,Dairy Flat,
3083321,9871,Dairy Way,Seaward Bush,Invercargill
2018182,0930,Daisy Burrell Drive,Gulf Harbour,Whangaparaoa
1787405,7971,Daisy Hill Road,Otaio,Saint Andrews
1819727,0474,Daisy Road,Awarua,Kaikohe
1814352,3214,Daisy Street,Claudelands,Hamilton
3028093,3225,Daisy Street,Raglan,
1795391,5887,Dakins Road,East Taratahi,Carterton
1821742,0626,Dakota Avenue,Beach Haven,Auckland
1838721,8042,Dakota Crescent,Wigram,Christchurch
3030876,7999,Dakota Drive,Pukaki,
1836069,3591,Dakota Drive,Whitianga,
1792733,5018,Dakota Grove,Totara Park,Upper Hutt
1830512,2582,Dakota Lane,Ardmore,Papakura
1818039,4312,Dakota Place,Bell Block,New Plymouth
2009576,7272,Dakota Place,Burleigh,Blenheim
1826139,0110,Dakota Place,Raumanga,Whangarei
1773034,9018,Dakota Place,Waldronville,Dunedin
3025427,5032,Dakota Road,Paraparaumu,
1788533,7011,Dakota Street,Nelson Airport,Nelson
1836057,3116,Dakota Way,Mount Maunganui,
1779093,7472,Dalbeg Road,"Ashley Forest,Balcairn,Broomfield","Amberley,Broomfield,Loburn"
1811221,3284,Dalbeth Place,Matangi,Hamilton
3053862,3072,Dalbeth Road,"Hamurana,Ngongotaha","Hamurana,Rotorua"
1836714,2016,Dalcross Drive,Flat Bush,Auckland
1803384,4122,Dalcross Street,Mayfair,Hastings
1840187,5512,Dal Din Drive,Otaki,
1830412,0629,Daldys Bush Lane,Bayview,Auckland
1831419,1010,Daldy Street,Auckland Central,Auckland
3083989,7975,Daleast Lane,Levels,Timaru
1778328,9710,Dale Crescent,East Gore,Gore
1832242,2010,Dale Crescent,Pakuranga,Auckland
1782155,7971,Daledew Road,Otaio,Saint Andrews
1783877,8022,Dalefield Drive,Cashmere,Christchurch
1795356,,Dalefield Road,"Carterton,Dalefield",Carterton
1774841,9371,Dalefield Road,Dalefield,Queenstown
1807091,3200,Dale Place,St Andrews,Hamilton
1817464,4672,Dale Road,Hawera,
1832603,0391,Dale Road,Pouto,
1827647,2579,Dale Road,Ramarama,Drury
1796235,5032,Dale Road,Raumati South,Paraparaumu
1778693,9672,Dale Road,Te Anau,
1831326,0618,Dale Road,Whenuapai,Auckland
1807092,3216,Dalesford Street,Silverdale,Hamilton
1808844,3116,Dales Lane,Mount Maunganui,
1840287,9371,Dalesman Lane,Arrowtown,
1827648,2579,Dale South Road,Ramarama,Drury
1771798,9305,Dale Street,Albert Town,Wanaka
1817663,4598,Dale Street,Alton,Patea
1785084,7630,Dale Street,Kaiapoi,
1772648,9010,Dale Street,"Kaikorai,Wakari",Dunedin
1816674,4310,Dale Street,Lower Vogeltown,New Plymouth
1776695,9877,Dale Street,Woodend,Invercargill
1807093,3214,Dalethorpe Avenue,Fairfield,Hamilton
1780491,7580,Dalethorpe Road,"Sheffield,Springfield",
1778212,9720,Daley Place,Winton,
1799443,4412,Dalfield Place,Highbury,Palmerston North
1783879,8022,Dalgarven Place,Hillsborough,Christchurch
3052780,2104,Dalgety Drive,"Manurewa,Wiri",Auckland
3038063,2471,Dalgety Road,Kopuku,Maramarua
1840963,4794,Dalgety Road,Mangaweka,
1786113,7382,Dalgetys Road,Cheviot,
1782872,8041,Dalgety Street,Riccarton,Christchurch
1772919,9012,Dalgety Street,"Saint Kilda,South Dunedin",Dunedin
1842685,9371,Dalgleish Lane,Arrowtown,
1773936,9273,Dalgleish Road,"Lochindorb,Waitepeka",Balclutha
1807094,3200,Dalgliesh Avenue,"Beerescourt,Forest Lake",Hamilton
1782865,8025,Dalglish Place,Hoon Hay,Christchurch
1779284,7583,Dalglishs Road,Le Bons Bay,
1778237,9600,Dalhousie Place,Te Anau,
3011447,9010,Dalhousie Terrace,North East Valley,Dunedin
1799330,0185,Dalkeith Drive,Kauri,
1793101,5010,Dalkeith Lane,Belmont,Lower Hutt
1827872,2113,Dalkeith Place,Opaheke,Papakura
3046898,9023,Dalkeith Road,Port Chalmers,Dunedin
1786684,8025,Dalkeith Street,Hoon Hay,Christchurch
1772649,9010,Dalkeith Street,North East Valley,Dunedin
1830124,0632,Dallan Place,Rosedale,Auckland
1841181,9810,Dallard Way,Waikiwi,Invercargill
1793894,6022,Dallas Court,Miramar,Wellington
3082674,9012,Dallas Lane,Caversham,Dunedin
1812771,3432,Dallas Place,Leamington,Cambridge
1823882,0600,Dallas Place,New Windsor,Auckland
1826141,0110,Dallas Place,Raumanga,Whangarei
1784232,8041,Dallas Street,Riccarton,Christchurch
1777911,9822,Dallas Street,Riverton/Aparima,
1836259,7430,Dalley Lane,Oxford,
1779973,8082,Dalleys Lane,Lyttelton,
3083253,8051,Dallimore Drive,Belfast,Christchurch
3079169,9076,Dallimore Lane,"Concord,Corstorphine",Dunedin
1812770,3434,Dallinger Court,Cambridge,
1807095,3200,Dallinger Street,St Andrews,Hamilton
1822352,0620,Dallinghoe Crescent,Milford,Auckland
1782891,8061,Dallington Terrace,Dallington,Christchurch
1831328,0612,Dallow Place,Henderson,Auckland
1772754,9018,Dall Street,Abbotsford,Dunedin
1825272,1041,Dally Terrace,Mount Roskill,Auckland
1827679,2103,Dalmahoy Place,Wattle Downs,Auckland
1823394,0612,Dalmatia Place,Henderson,Auckland
3018359,0630,Dalmeny Close,"Mairangi Bay,Murrays Bay",Auckland
3033891,7385,Dalmeny Road,"Hawarden,MacDonald Downs,Masons Flat,Pyramid Valley","Hawarden,Waikari"
3004415,9010,Dalmeny Street,"North East Valley,Opoho",Dunedin
1770239,9400,Dalmeny Street,Oamaru North,Oamaru
1812274,3420,Dalmeny Street,Tokoroa,
1807096,3210,Dalmont Place,Chartwell,Hamilton
1772637,9010,Dalmore Crescent,Dalmore,Dunedin
1837731,3385,Dalmore Way,Acacia Bay,Taupo
1793906,6011,Dalmuir Lane,Wellington Central,Wellington
1771226,9572,Dalmuir Road,Ettrick,Roxburgh
3083281,8025,Dalness Crescent,Halswell,Christchurch
1842816,2112,Dalray Avenue,Takanini,Auckland
3014082,3200,Dalray Crescent,"Forest Lake,Te Rapa",Hamilton
1792117,5024,Dalray Place,Ascot Park,Porirua
1782890,8053,Dalriada Street,Papanui,Christchurch
1784362,8041,Dalrye Place,Ilam,Christchurch
1798903,4710,Dalrymple Place,Marton,
1802195,4010,Dalrymple Road,Mangapapa,Gisborne
1834886,4894,Dalrymples Road,Parewanui,Tangimoana
3059501,9812,Dalrymple Street,"Appleby,Strathern",Invercargill
1772645,9010,Dalrymple Street,Pine Hill,Dunedin
1828350,2022,Dalry Place,Mangere Bridge,Auckland
1772631,9011,Dalry Street,Mornington,Dunedin
3054724,9816,Dalry Street,Wallacetown,
1804554,3800,Dalton Avenue,Te Awamutu,
1827434,2120,Dalton Court,Pukekohe,
1807097,3204,Dalton Crescent,Dinsdale,Hamilton
1813584,3118,Dalton Drive,Papamoa Beach,Papamoa
1793100,5019,Dalton Grove,Stokes Valley,Lower Hutt
1784363,8053,Dalton Place,Burnside,Christchurch
1821255,0920,Dalton Road,Snells Beach,
1791006,7178,Daltons Road,Canvastown,Havelock
3063554,4475,Daltons Road,"Kairanga,Newbury","Feilding,Kairanga"
3033767,7810,Dalton Street,Hokitika,
1804038,4110,Dalton Street,Napier South,Napier
1802794,4010,Dalton Street,Outer Kaiti,Gisborne
1831418,1072,Dalton Street,Point England,Auckland
3036257,7618,Dalton Way,West Melton,
1775336,9775,Dalvey Road,"Glenkenich,Pomahaka,Tapanui","Gore,Tapanui"
1798905,4581,Dalvey Road,Turakina,Marton
1774228,9775,Dalvey School Road East,Glenkenich,Gore
1774229,9775,Dalvey School Road West,Glenkenich,Gore
1839451,8025,Dalweny Lane,Cracroft,Christchurch
1777403,9816,Dalwharn Street,Wallacetown,
1828361,2010,Dalwhinnie Parade,Highland Park,Auckland
1842739,7614,Dalwood Crescent,Rolleston,
3051275,8042,Dalwood Drive,Wigram,Christchurch
1799447,4412,Dalwood Grove,Highbury,Palmerston North
3078726,7910,Dalwood Lane,Watlington,Timaru
1785564,7672,Dalys Road,Lincoln,
1800231,5010,Daly Street,Hutt Central,Lower Hutt
1775474,9023,Daly Street,Port Chalmers,Dunedin
1785626,7385,Dalzells Road North,Medbury,Hawarden
3050358,7385,Dalzells Road South,Medbury,Hawarden
1817338,4398,Dalziell Road,Eltham,
1787710,8022,Dalziel Place,Woolston,Christchurch
3001368,,Dalziel Road,"Brockville,Halfway Bush,Mount Grand",Dunedin
3001369,5781,Dalziel Road,Ruakokoputuna,Martinborough
1815039,3781,Dalziel Road,Waerenga,Te Kauwhata
1785385,7471,Dalziels Road,Fernside,Rangiora
1798912,4818,Dalziel Street,Bulls,
1797209,4702,Dalzien Place,Feilding,
1813945,3400,Dame Cath Place,Matamata,
3078346,2681,Dame Nganeko Drive,Glenbrook,
1775129,9510,Dame Street,Waikouaiti,
1793104,5011,Damian Grove,Waterloo,Lower Hutt
1828352,2103,Damian Way,Weymouth,Auckland
1782862,8062,Damien Place,Bromley,Christchurch
1836678,3112,Damien Place,Ohauiti,Tauranga
1814138,3434,Damio Place,Cambridge,
1838905,9571,Dam Lookout,Lake Roxburgh Village,Roxburgh
1799439,4412,Dampier Avenue,Awapuni,Palmerston North
1826618,0172,Dampier Road,Pakotai,Whangarei
1831421,1026,Dampier Street,Avondale,Auckland
1781699,7910,Dampier Street,Oceanview,Timaru
1782897,8023,Dampier Street,Woolston,Christchurch
1803563,4179,Dampney Road,Waiwhare,Hastings
3048010,4477,Dampneys Road,Tiakitahuna,Palmerston North
1828337,2012,Damson Place,Bucklands Beach,Auckland
1775625,9273,Damsteegt Road,Clifton,Balclutha
1782884,8013,Dana Place,Mairehau,Christchurch
1818570,2014,Dana Place,Somerville,Auckland
1830432,2120,Dan Bryant Place,Pukekohe,
1822033,0630,Danbury Drive,Torbay,Auckland
2007608,0618,Danby Court,Hobsonville,Auckland
1777918,9672,Danby Road,Hillside,Te Anau
1806088,3500,Danby Street,Thames,
2007595,2120,Danden Way,Pukekohe,
3078329,9371,Dandys Lane,Arthurs Point,Queenstown
1837987,3400,Danehill Close,Matamata,
3078614,0616,Danga Lane,Hobsonville,Auckland
1820515,0482,Dangen Road,Peria,Kaitaia
1830216,0610,Danica Esplanade,Te Atatu Peninsula,Auckland
3062375,8062,Daniela Lane,Linwood,Christchurch
1828359,2024,Daniel Avenue,Mangere East,Auckland
1809709,3434,Daniel Crescent,Cambridge,
1840876,2016,Danielle Place,Flat Bush,Auckland
1798908,4818,Daniell Street,Bulls,
1801442,5710,Daniell Street,Featherston,
1793896,6021,Daniell Street,Newtown,Wellington
1795095,5810,Daniell Street,Solway,Masterton
1835118,0975,Daniel Parade,Mangawhai,
1833847,4414,Daniel Place,Kelvin Grove,Palmerston North
1813881,3112,Daniel Place,Pyes Pa,Tauranga
3062068,3200,Daniel Place,Te Rapa,Hamilton
1777916,9883,Daniel Road,Otaitai Bush,Riverton/Aparima
3015929,7971,Daniels Road,Normanby,Timaru
1786955,8051,Daniels Road,Redwood,Christchurch
1840729,9305,Daniels Terrace,Wanaka,
1810130,3073,Daniel Street,Kaingaroa Forest,Murupara
1795682,5711,Daniel Street,Martinborough,
1818318,4310,Daniels Way,Whalers Gate,New Plymouth
3056030,0374,Danks Road,Hoanga,Dargaville
1830070,2016,Dannemora Drive,Dannemora,Auckland
1798951,3112,Danny Place,Pyes Pa,Tauranga
1783882,8022,Dannys Lane,Cashmere,Christchurch
3037037,9371,Dan Oconnell Track,"Coronet Peak,Dalefield",Queenstown
3072310,3072,Dansey Road,"Mamaku,Ngongotaha,Ngongotaha Valley","Mamaku,Rotorua"
3023475,,Danseys Pass Road,"Danseys Pass,Kyeburn,Kyeburn Diggings,Livingstone,Naseby","Kyeburn,Naseby,Oamaru"
1834036,5713,Danske Close,Carterton,
3003830,9271,Dans Peak Road,"Ahuriri Flat,Katea","Kaka Point,Owaka"
1789361,7096,Dans Road,Tapawera,Wakefield
1778096,9883,Dan Street,Gummies Bush,Riverton/Aparima
1792727,5018,Dante Road,Trentham,Upper Hutt
1830192,0931,Dan Tori Place,Orewa,
1829577,0602,Danube Lane,Glen Eden,Auckland
1778593,9783,Danube Road,"Limehills,Otapiri",Winton
1793902,6023,Danube Street,Island Bay,Wellington
1772650,9013,Danube Street,Vauxhall,Dunedin
1803472,4130,Danvers Street,Havelock North,
1799768,4412,Daphne Court,Highbury,Palmerston North
1829768,0632,Daphne Harden Lane,Paremoremo,Auckland
3080493,7604,Daphne Lane,Prebbleton,
1982530,0505,Daphne Place,Mangawhai,
1802791,4010,Daphne Place,Outer Kaiti,Gisborne
1773033,9091,Daphne Road,Kuri Bush,Dunedin
1827610,2025,Daphne Road,Papatoetoe,Auckland
1806089,3508,Daphne Road,Tairua,
1802191,4010,Daphne Street,"Inner Kaiti,Outer Kaiti",Gisborne
1823403,0602,Daphne Street,Kelston,Auckland
1806997,3800,Daphne Street,Te Awamutu,
1838698,2019,Dapple Place,Flat Bush,Auckland
1780488,7600,Darby Crescent,Burnham,
1813262,3481,Darby Road,Arapuni,Putaruru
1823885,1010,Darby Street,Auckland Central,Auckland
1781222,7930,Darby Street,Geraldine,
1837823,7999,D'Archiac Drive,Lake Tekapo,
1826612,0174,Darch Point Road,Whangarei Heads,
1777404,9893,Darcy Place,Dacre,Invercargill
1823390,0614,Darcy Place,Massey,Auckland
1805291,4112,D'Arcy Place,Taradale,Napier
1796829,4500,D'Arcy Road,Bastia Hill,Whanganui
1789731,7095,Darcys Road,Golden Downs,Wakefield
1790618,7804,Darcy Street,Blackball,Greymouth
1780188,7632,D'Arcy Street,Leeston,
1788916,7020,D'Arcy Street,Richmond,
1786952,8014,Daresbury Lane,Fendalton,Christchurch
1791830,6023,Dargle Way,Island Bay,Wellington
1829629,2013,Daria Place,Northpark,Auckland
1777420,9875,Darien Street,Fortrose,Tokanui
1830116,0632,Darimouth Place,Albany,Auckland
1838477,8081,Daring Lane,Redcliffs,Christchurch
1841760,2019,Darion Drive,Flat Bush,Auckland
1777419,9793,Darion Street,Lumsden,
1787156,8022,Darjeeling Lane,Cashmere,Christchurch
1811752,3210,Darjon Drive,"Huntington,Puketaha",Hamilton
1789515,7892,Darkies Terrace Road,Charleston,Cape Foulwind
1805578,4181,Darkys Spur Road,Tangoio,Napier
1775043,9012,Darley Pass,Caversham,Dunedin
1807099,3200,Darley Street,"Beerescourt,Maeroa",Hamilton
1782880,8024,Darley Street,Somerfield,Christchurch
2000734,2110,Darley Way,Papakura,
3080113,0179,Darligen Lane,Maunu,Whangarei
1823400,0602,Darlington Place,Glendene,Auckland
1793891,6022,Darlington Road,Miramar,Wellington
1814290,3503,Darlington Street,Ngatea,
1793889,6022,Darlington Terrace,Miramar,Wellington
1838780,0573,Darmah Lane,Mangawhai,
1832213,2019,Darnell Crescent,Clover Park,Auckland
1775046,9013,Darnell Street,Andersons Bay,Dunedin
1816676,4312,Darnell Street,Fitzroy,New Plymouth
3068335,2679,Darnika Way,Patumahoe,Pukekohe
1779930,7483,Darnley Road,Glasnevin,Amberley
1837940,0295,Daroux Drive,Waipapa,
1836666,4775,Darragh Road,Feilding,
3035438,9683,Darragh Road,"Isla Bank,Otautau",Otautau
1840365,3110,Darraghs Lane,Brookfield,Tauranga
1809175,3110,Darraghs Road,"Brookfield,Otumoetai",Tauranga
1828351,2012,Darren Crescent,Half Moon Bay,Auckland
1821247,0986,Darroch Slope,Omaha,
1780185,7783,Darrochs Road,Bankside,
1837474,7383,Darrochs Road,Domett,
1787491,8051,Darroch Street,Belfast,Christchurch
1810132,3015,Darroch Street,Fairy Springs,Rotorua
1793911,6023,Dart Crescent,Island Bay,Wellington
1784551,8083,Dartford Street,Brooklands,Christchurch
1816670,4310,Dartmoor Avenue,Westown,New Plymouth
1789857,7020,Dartmoor Place,Richmond,
1803561,,Dartmoor Road,"Dartmoor,Puketapu",Napier
1773638,9210,Dartmouth Street,Kaitangata,
3081320,7020,Dartnall Lane,Appleby,Richmond
1771608,9300,Dart Place,Fernhill,Queenstown
1788923,7096,Dart River Road,Tapawera,Wakefield
1780922,7782,Darts Road,Methven,
1780487,7572,Darts Road,Windwhistle,Hororata
1776382,9810,Dart Street,Hawthorndale,Invercargill
1774609,9400,Dart Street,Oamaru North,Oamaru
1817664,4520,Dart Street,Patea,
1789732,7096,Dart West Road,Tapawera,Wakefield
1784233,8011,Darvel Street,Riccarton,Christchurch
1805292,4110,Darwin Crescent,Maraenui,Napier
1816668,4310,Darwin Crescent,Spotswood,New Plymouth
1823894,1050,Darwin Lane,Remuera,Auckland
1819721,0230,Darwin Road,Kerikeri,
1795615,4010,Darwin Road,Outer Kaiti,Gisborne
1793900,6012,Darwin Street,Karori,Wellington
1805173,4171,Dasent Road,Maraekakaho,
1793903,6012,Dasent Street,Karori,Wellington
3077653,0981,Dashper Drive,Warkworth,
1782156,7924,Dash Street,Waimate,
1790949,7201,Dashwood Street,Blenheim,
1838869,0632,Data Way,Albany,Auckland
1834743,8025,Date Crescent,Aidanfield,Christchurch
3084438,5512,D'Ath Street,Otaki,
1836612,5032,Datum Way,Paraparaumu,
1822358,0620,Datura Place,Sunnynook,Auckland
1956205,2019,Daubeny Road,Flat Bush,Auckland
1818639,2582,Dauntless Lane,Ardmore,Papakura
1782154,7978,D'Auvergnes Road,Makikihi,Waimate
1842867,8042,Davaar Crescent,Broomfield,Christchurch
1786144,7387,Davaar Road,Greta Valley,
1842578,0112,Dave Culham Drive,"Parahaki,Whangarei,Whangarei Harbour",Whangarei
1839391,8024,Dave Jamieson Lane,Hillmorton,Christchurch
1787167,7614,Davenant Common,Rolleston,
1813082,3495,Davenport Road,Ohaupo,
1823903,1026,Daventry Street,Waterview,Auckland
1832493,0600,Davern Lane,New Lynn,Auckland
1788913,7095,Daves Road,Golden Downs,Wakefield
1809801,3127,Dave Weston Place,Kawerau,
1944703,0931,Davey Crescent,Orewa,
1807100,3214,Davey Place,Fairfield,Hamilton
1781341,7986,Davey Road,Milford,Temuka
1788926,7175,Davey Road,Upper Moutere,
1805465,4997,Davey Road,Woodville,
1775358,9302,Daveys Place,Arrowtown,
1838720,0281,Daveys Road,Moerewa,
1832211,2102,David Avenue,Hillpark,Auckland
1821741,0626,David Beattie Place,Chatswood,Auckland
1859641,8025,David Buist Crescent,Halswell,Christchurch
3078657,0616,David Carnegie Road,Hobsonville,Auckland
3082869,2102,David Condon Williams Avenue,Manurewa,Auckland
1793895,6012,David Crescent,Karori,Wellington
1841024,5791,David Lowes Lane,Waingawa,Carterton
1806090,3508,David Mason Avenue,Tairua,
1838799,0932,David McCathie Place,Silverdale,
1847240,8083,David Palmer Street,Marshland,Christchurch
1841301,9310,David Place,Cromwell,
3079299,0614,David Rogers Lane,Swanson,Auckland
1832632,0932,David Sidwell Place,Stanmore Bay,Whangaparaoa
1804037,4112,Davidson Avenue,Pirimai,Napier
1826614,0174,Davidson Avenue,Tamaterau,Whangarei
1784018,8042,Davidson Crescent,Hornby,Christchurch
1797666,4910,Davidson Crescent,Pahiatua,
1793572,5028,Davidson Crescent,Tawa,Wellington
1834626,3283,Davidson Lane,Tamahere,Hamilton
1803562,4130,Davidson Road,Havelock North,
1817591,4672,Davidson Road,Hawera,
3064201,0875,Davidson Road,Helensville,
1777400,9872,Davidson Road,Mabel Bush,Invercargill
1778597,9891,Davidson Road,Mataura Island,Wyndham
1770582,9491,Davidson Road,Tapui,Oamaru
1811602,3473,Davidson Road,Te Poi,Matamata
1777417,9774,Davidson Road,Tuturau,
1778736,9772,Davidson Road East,Otaraia,Mataura
1778134,9772,Davidson Road West,Otaraia,Mataura
3019701,7674,Davidsons Road,"Lincoln,Springston",
1780804,7700,Davidson Street,Allenton,Ashburton
1810133,3010,Davidson Street,Glenholme,Rotorua
1817594,4610,Davidson Street,Hawera,
1816675,4310,Davidson Street,New Plymouth,
3040210,7912,Davidson Street,Pareora,
1791645,7300,Davidson Terrace,Kaikoura,
1770587,9482,Davids Street,Moeraki,
1822355,0622,David Street,Bayswater,Auckland
1772633,9012,David Street,Caversham,Dunedin
1776386,9810,David Street,Hawthorndale,Invercargill
1780912,7773,David Street,Hinds,Ashburton
1809270,3110,David Street,Judea,Tauranga
1770586,9491,David Street,Livingstone,Oamaru
3058841,4310,David Street,"Lynmouth,Westown",New Plymouth
1811660,3300,David Street,Morrinsville,
1807101,3200,David Street,Nawton,Hamilton
1777908,9635,David Street,Ohai,
1799445,4410,David Street,Palmerston North,
1778810,9822,David Street,Riverton/Aparima,
1791906,5036,David Street,Waikanae,
1791005,7201,David Street,Yelverton,Blenheim
1832786,0910,David William Place,Warkworth,
1815838,5510,Davie Court,Levin,
1821243,0981,Davie Martin Road,Kaipara Flats,Warkworth
1828354,2104,Davies Avenue,Manukau,Auckland
1840493,0632,Davies Drive,Albany,Auckland
1789805,7010,Davies Drive,Atawhai,Nelson
1807877,3889,Davies Drive,Kawhia,
1818040,4310,Davies Lane,New Plymouth,
1784919,7476,Davies Road,Eyrewell,West Eyreton
1780492,7673,Davies Road,"Glentunnel,Whitecliffs",Glentunnel
1816672,4310,Davies Road,Hurdon,New Plymouth
1780190,7683,Davies Road,Leeston,
1791507,7275,Davies Road,Onamalutu,Wairau Valley
1832088,2579,Davies Road,Ramarama,Drury
1815038,3791,Davies Road,Taupiri,
1821238,0900,Davies Road,Wellsford,
1772762,9018,Davies Street,Concord,Dunedin
1779202,7991,Davies Street,Geraldine,
3063849,0112,Davies Street,Kensington,Whangarei
1810134,3015,Davies Street,Mangakakahi,Rotorua
1814323,3600,Davies Street,Paeroa,
1793569,5028,Davies Street,Tawa,Wellington
1790350,7810,Davie Street,Hokitika,
1785090,7630,Davie Street,Kaiapoi,
1781654,7920,Davie Street,Temuka,
1839269,7632,Da Vinci Avenue,Leeston,
1785633,8053,Da Vinci Lane,Burnside,Christchurch
1823393,0618,Da Vinci Place,West Harbour,Auckland
1832492,2013,Davington Way,Burswood,Auckland
1833050,0112,Daviot Place,Te Kamo,Whangarei
1771016,9332,Davis Avenue,Ranfurly,
1787289,7674,Davis Avenue,Springston,
1800149,5018,Davis Crescent,Elderslea,Upper Hutt
1780805,7700,Davis Crescent,Netherby,Ashburton
1825414,1023,Davis Crescent,Newmarket,Auckland
1819728,0200,Davis Crescent,Paihia,
1793474,5014,Davis Grove,Wainuiomata,Lower Hutt
3061094,7096,Davis Gully Road,"Dovedale,Stanley Brook",Wakefield
1819513,0520,Davis Landing Road,Maungaturoto,
1786399,7983,Davison Road,Cave,
1811222,3286,Davison Road,Newstead,Hamilton
1779672,7379,Davison Road,Rotherham,
1787175,7773,Davisons Road,Lowcliffe,Ashburton
1782158,7972,Davisons Road,Southburn,
1810877,3700,Davis Place,Huntly,
1786683,8023,Davis Place,Woolston,Christchurch
1796338,4470,Davis Road,Ashhurst,
1786244,7600,Davis Road,Burnham,
1785386,7471,Davis Road,Cust,
3025179,4389,Davis Road,"Inglewood,Waiongana",Inglewood
3025183,3592,Davis Road,Kuaotunu,Whitianga
1780626,7672,Davis Road,Lincoln,
1803559,4172,Davis Road,Longlands,Hastings
1818779,0281,Davis Road,Moerewa,
1802448,4092,Davis Road,Otoko,Te Karaka
1811224,3784,Davis Road,Te Hoe,Tahuna
1820249,0410,Davis Street,Kaitaia,
1803829,4112,Davis Street,Meeanee,Napier
3016016,6011,Davis Street,"Pipitea,Thorndon",Wellington
1787986,7830,Davis Street,Reefton,
1803231,4120,Davis Street,Saint Leonards,Hastings
1829787,0293,Davis Strongman Place,Kerikeri,
1828333,2012,Davita Place,Farm Cove,Auckland
1933554,3283,Davren Way,Tamahere,Hamilton
1802196,4010,Davy Place,Outer Kaiti,Gisborne
1795355,5713,Davy Street,Carterton,
1806091,3500,Davy Street,Thames,
1779279,7583,Dawbers Road,Le Bons Bay,
1789062,7804,Dawes Street,Blackball,Greymouth
1786681,8013,Dawe Street,Mairehau,Christchurch
1798550,4815,Dawick Street,Foxton Beach,Foxton
1790953,7201,Dawkins Place,Islington,Blenheim
3079295,9310,Dawkins Street,Cromwell,
1814202,3591,Dawn Avenue,Hahei,Whitianga
1792730,5018,Dawn Grove,Brown Owl,Upper Hutt
1831330,0610,Dawnhaven Drive,Te Atatu Peninsula,Auckland
1842533,3120,Dawn Parade,Coastlands,Whakatane
1779052,7571,Dawn Place,Kirwee,
1823391,0610,Dawn Place,Te Atatu South,Auckland
1829963,2123,Dawn Place,Waiuku,
1807102,3206,Dawn Rise,Glenview,Hamilton
1808254,3176,Dawn View Place,Minden,Tauranga
1830464,2105,Dawood Place,The Gardens,Auckland
1838284,0482,Dawson Access Road,Kaitaia,
1785645,7630,Dawson Douglas Place,Kaiapoi,
1814853,3010,Dawson Drive,Ngongotaha,Rotorua
1795901,3122,Dawson Drive,Opotiki,
3083156,9013,Dawson Lane,Waverley,Dunedin
1774726,9320,Dawson Place,Alexandra,
3081530,3591,Dawson Place,Cooks Beach,Whitianga
1813645,3178,Dawson Road,Aongatete,
3005736,2023,Dawson Road,"Clover Park,Flat Bush,Otara",Auckland
1790353,7881,Dawson Road,Kokatahi,
1777416,9871,Dawson Road,Longbush,Invercargill
1778599,9891,Dawson Road,Mataura Island,Wyndham
1817280,4684,Dawson Road,Rahotu,Opunake
1821256,,Dawson Road,Snells Beach,
1811225,3791,Dawson Road,Taupiri,
1806540,7173,Dawson Road,Upper Moutere,
3021209,7774,Dawsons Road,"Ashton,Eiffelton",Ashburton
1787221,7692,Dawsons Road,Ohoka,
1803512,7891,Dawsons Road,Seddonville,Westport
1780627,7678,Dawsons Road,Templeton,Christchurch
1793899,6023,Dawson Street,Berhampore,Wellington
1782875,8011,Dawson Street,Christchurch Central,Christchurch
1805725,4930,Dawson Street,Dannevirke,
1798549,4815,Dawson Street,Foxton Beach,Foxton
1807103,3216,Dawson Street,Hamilton East,Hamilton
1817340,4679,Dawson Street,Kaponga,Hawera
1811636,3400,Dawson Street,Matamata,
1816677,4310,Dawson Street,New Plymouth,
1797853,4910,Dawson Street,Pahiatua,
1833333,0110,Dawson Street,Port Whangarei,Whangarei
1781700,7910,Dawson Street,Timaru Port,Timaru
1796372,4826,Dawson Street,Waiouru,
1821253,0986,Day Dawn Crescent,Omaha,
1789478,7010,Dayman Way,The Wood,Nelson
1836457,3112,Dayna Avenue,Ohauiti,Tauranga
1810135,3015,Day Place,Springfield,Rotorua
1777401,9783,Day Road,Oreti Plains,Winton
1827135,2679,Day Road,Patumahoe,Pukekohe
1811226,3283,Day Road,Tamahere,Hamilton
1813081,3883,Day Road,Te Awamutu,
1830959,0974,Day Road,Wellsford,
1800925,4574,Day Road,Westmere,Whanganui
1791907,5011,Daysh Street,"Avalon,Naenae",Lower Hutt
3080901,7011,Dayson Place,Stoke,Nelson
1832214,2010,Dayspring Way,Pakuranga,Auckland
1779972,8082,Days Road,Lyttelton,
1778598,9783,Days Road,South Hillend,Winton
1780194,7674,Days Road,Springston,
1781826,7011,Days Track,"Britannia Heights,Moana",Nelson
1823897,1010,Day Street,Auckland Central,Auckland
1819089,0310,Day Street,Dargaville,
1861419,9384,Daytona Avenue,Cromwell,
1784550,8083,Daytona Place,Parklands,Christchurch
1823392,0610,Daytona Road,Henderson,Auckland
3068832,2678,Dazeley Road,"Pukekohe,Puni",Pukekohe
1821259,0892,Deacon Road,"Kumeu,Riverhead",
3018960,0892,Deacon Road,Riverhead,
1821251,0874,Deacon Road,Woodhill Forest,South Head
1798909,4795,Deacons Road,Taihape,
1842860,8025,Deacon Street,Halswell,Christchurch
1777412,9875,Dead Horse Road,Tokanui,
1779670,7395,Deadman Road,Hanmer Forest,Hanmer Springs
1786581,7891,Deadmans Road,"Fairdown,Westport",Westport
1774153,9679,Deadmans Track,Fiordland National Park,
1840966,9672,Deaker Road,Te Anau,
1771339,9376,Deaker Street,Omakau,
1803564,4102,Deakin Place,Clive,
1803230,4120,Deal Crescent,Flaxmere,Hastings
1791381,7300,Deal Street,Kaikoura,
1781701,7910,Deal Street,Seaview,Timaru
1842772,8042,Deal Street,Wigram,Christchurch
1806876,3682,Deam Road,Waihi,
1807003,3682,Dean Crescent,Waihi,
1820070,0481,De Andrad Road,Broadwood,Kohukohu
1823397,0604,Deane Avenue,Titirangi,Auckland
3058507,9691,Dean Forest Road,Lillburn,Tuatapere
1811659,3300,Deanna Avenue,Morrinsville,
1823398,0618,Deanna Drive,West Harbour,Auckland
1816989,4312,Dean Place,Waiwhakaiho,New Plymouth
1827132,2471,Dean Road,Pokeno,
1804325,4287,Dean Road,Takapau,
1779203,8011,Deans Avenue,"Addington,Christchurch Central,Riccarton",Christchurch
3078945,9382,Deans Drive,Wanaka,
1800242,5011,Deans Grove,Taita,Lower Hutt
1839781,7612,Deans Lane,Pegasus,
3081147,7410,Deans Place,Amberley,
1777393,9782,Deans Road,"Browns,Winton",Winton
3013254,7571,Deans Road,"Coalgate,Darfield,Sheffield",
3013255,7072,Deans Road,"Glenhope,Kahurangi National Park","Kahurangi National Park,St. Arnaud"
1780925,7772,Deans Street,Fairton,Ashburton
1823886,1021,Dean Street,Grey Lynn,Auckland
1772644,9010,Dean Street,"Kaikorai,Wakari",Dunedin
3047877,9085,Deans Valley Road,Mount Cargill,Waitati
1807105,3206,Deanwell Avenue,"Deanwell,Melville",Hamilton
1806944,3600,Dearle Street,Paeroa,
1782887,8011,Dearsley Street,Phillipstown,Christchurch
1831773,1062,Deas Place,Otahuhu,Auckland
1798911,4788,Deaths Road,Marton,
1838444,8022,Deavoll Place,Heathcote Valley,Christchurch
1789822,7095,Debbies Road,Golden Downs,Wakefield
3083455,9011,de Beer Close,Brockville,Dunedin
1809775,3510,Debenham Drive,Whitianga,
1813265,9383,de Bettencor Place,Mount Pisa,Cromwell
1782861,8061,De Bloge Place,Burwood,Christchurch
1828353,2103,De Bloge Place,Clendon Park,Auckland
1836571,0573,De Boer Lane,Mangawhai,
1841752,4702,Debonair Court,Feilding,
1830188,1062,Deborah Hatton Lane,Mount Wellington,Auckland
1807106,3204,Deborah Place,Dinsdale,Hamilton
1810136,3015,Deborah Place,Mangakakahi,Rotorua
1828363,2022,Deborah Place,Mangere,Auckland
1822362,0792,Deborah Place,Okura,Auckland
1812559,3379,Deborah Rise,Maunganamu,Taupo
1793908,6012,Debra Way,Karori,Wellington
1823887,1050,Debron Avenue,Remuera,Auckland
1779422,7583,Decanter Bay Road,Little Akaloa,
2003084,3110,Decanter Lane,Bethlehem,Tauranga
1775100,9012,De Carle Street,Saint Kilda,Dunedin
1837462,7201,de Castro Drive,Blenheim,
3005870,5022,De Castro Place,Titahi Bay,Porirua
1806945,3600,De Castro Street,Paeroa,
1789453,7072,Deception Road,Kikiwa,St. Arnaud
1781363,7010,De Cesare Way,The Wood,Nelson
3078936,7173,Deck Road,Tasman,Upper Moutere
1793145,5011,Deckston Grove,Taita,Lower Hutt
1802793,4010,De Costa Avenue,Te Hapara,Gisborne
1782870,8061,De Courcy Place,Avondale,Christchurch
1823883,1011,Dedwood Terrace,"Ponsonby,Saint Marys Bay",Auckland
1806092,3578,Deeble Road,Thames,
1790355,7886,Deehan Road,Whataroa,
1786682,8024,Deejay Lane,Spreydon,Christchurch
1833073,,Deele Close,Pinehill,Auckland
1775507,9320,Deel Street,Alexandra,
1787981,7830,Deemac Street,Reefton,
1830701,0272,Deeming Road,Okiato,Russell
1796826,4501,Deem Place,Tawhero,Whanganui
3077745,2025,Deepak Lane,Papatoetoe,Auckland
3081173,7281,Deep Bay,"Arapaoa Island,Deep Bay,Queen Charlotte Sound / Totaranui",Marlborough Sounds
3007736,9818,Deep Bay Road,Stewart Island/Rakiura,Stewart Island
3039993,7872,Deep Creek Road,"Hochstetter,Moana",Moana
3039990,9398,Deep Creek Road,"Lake Onslow,Serpentine","Patearoa,Roxburgh"
1771337,9383,Deep Creek Road,"Lindis Valley,Tarras",Cromwell
1809885,3081,Deep Creek Road,Reporoa,
1822037,0630,Deep Creek Road,"Torbay,Waiake",Auckland
1782159,7978,Deep Creek Road,Waimate,
1775303,9771,Deep Creek Road,Waipahi,Gore
1788793,7173,Deepdale Road,Upper Moutere,
1784549,8053,Deepdale Street,Burnside,Christchurch
3037288,9587,Deepdell Road,"Park Hill,Wilden",Tapanui
1795123,5810,Dee Place,Masterton,
1818535,0630,Dee Place,Torbay,Auckland
1799444,4412,Dee Place,West End,Palmerston North
3038127,9679,Deepwater Basin Road,"Fiordland National Park,Milford Sound",
3081518,3112,Deepwater Views Way,Maungatapu,Tauranga
1810141,3010,Deere Avenue,Fenton Park,Rotorua
1838704,2019,Deerfield Place,Flat Bush,Auckland
1829498,2025,Deering Place,Papatoetoe,Auckland
3078029,9382,Deering Street,Wanaka,
1821300,0920,Deerness Crescent,Algies Bay,
1788799,7173,Dee Road,Tasman,Upper Moutere
1779745,7310,Deer Park Road,Cheviot,
1934220,8025,Deerwood Lane,Wigram,Christchurch
1832212,2585,Deerys Road,Orere Point,
3034994,9810,Dee Street,"Avenal,Gladstone,Invercargill,Prestonville",Invercargill
1775325,9591,Dee Street,Beaumont,Lawrence
1770581,9494,Dee Street,Georgetown,Oamaru
1774049,9587,Dee Street,Heriot,Tapanui
1793901,6023,Dee Street,Island Bay,Wellington
1772840,9024,Dee Street,Kinmont Park,Mosgiel
1798509,5510,Dee Street,Levin,
1786678,8014,Dee Street,"Mairehau,St Albans",Christchurch
1808845,3116,Dee Street,Mount Maunganui,
1775575,9010,Dee Street,North East Valley,Dunedin
1770174,9400,Dee Street,Oamaru,
1804544,4202,Dee Street,Otane,
1797453,4476,Dee Street,Rongotea,
1786471,7910,Dee Street,"Seaview,Timaru",Timaru
1812234,3420,Dee Street,Tokoroa,
1842625,2018,Defender Crescent,Beachlands,Auckland
1785685,8081,Defender Lane,Redcliffs,Christchurch
1807107,3216,Defoe Avenue,Hillcrest,Hamilton
1782893,8023,Defoe Place,Waltham,Christchurch
1819726,0200,De Haven Street,Opua,
1816987,4312,De Havilland Drive,Bell Block,New Plymouth
1830148,2105,De Havilland Drive,Goodwood Heights,Auckland
3000476,7999,De Havilland Drive,Pukaki,
1811428,4312,De Havilland Drive West,Bell Block,New Plymouth
1818640,2582,De Havilland Lane,Ardmore,Papakura
1826138,0110,De Havilland Place,Onerahi,Whangarei
1842152,0616,De Havilland Road,Hobsonville,Auckland
1784017,8042,De Havilland Street,Hornby,Christchurch
1841859,3116,De Havilland Way,Mount Maunganui,
1789712,7198,Dehra Doon Road,Riwaka,Motueka
1812024,3482,Deihl Road,Lichfield,Putaruru
1823401,0604,Deirdre Place,Titirangi,Auckland
1776218,9720,Dejoux Road,Winton,
3083719,3710,De Joux Street,Te Kauwhata,
1793907,6035,Dekka Street,Khandallah,Wellington
1808516,3173,Dekker Road,Omanawa,
1839641,5713,De Lacy Lane,Carterton,
1775042,9022,De Lacy Street,Maia,Dunedin
1787542,7775,Delamaine Street,Hinds,Ashburton
1829645,0632,Delamare Court,Sunnynook,Auckland
1815544,3432,De La Mare Drive,Leamington,Cambridge
1836596,9300,De La Mare Place,Frankton,Queenstown
3029021,3200,Delamare Road,"Pukete,St Andrews",Hamilton
1808510,7614,Delamare Way,Rolleston,
1809802,3127,Delamere Drive,Kawerau,
3049149,1081,Delamore Drive,Oneroa,Waiheke Island
1815373,3800,Delaney Court,Te Awamutu,
1793142,5019,Delaney Drive,Stokes Valley,Lower Hutt
1784021,8042,De Lange Street,Wigram,Christchurch
1812557,3378,Delany Drive,Tauhara,Taupo
3081230,9371,De La Perrelle Lane,Arrowtown,
3081455,7674,Delapre Drive,Rolleston,
1831664,1042,Delargey Avenue,Hillsborough,Auckland
3045654,4010,De Lautour Road,"Inner Kaiti,Kaiti,Outer Kaiti",Gisborne
1784545,8042,Delaware Crescent,Russley,Christchurch
1792728,5018,Delaware Grove,Totara Park,Upper Hutt
1836000,3200,De Leeuw Place,Te Rapa Park,Hamilton
1823890,1072,Delemere Place,Glen Innes,Auckland
1791908,4500,Delhi Avenue,Aramoho,Whanganui
1793910,6035,Delhi Crescent,Khandallah,Wellington
1783878,8022,Delhi Place,Cashmere,Christchurch
1805346,4110,Delhi Road,Hospital Hill,Napier
1777790,9822,Delhi Street,Riverton/Aparima,
1803028,4108,Delhi Street,Wairoa,
1840932,3210,Delia Court,Flagstaff,Hamilton
1816743,0179,De L'Isle Lane,Maungatapere,Whangarei
1822357,0632,Delisle Place,Windsor Park,Auckland
3077949,8025,Dellaca Lane,Wigram,Christchurch
1789790,7825,Dellaca Place,Westport,
1827680,2112,Della Place,Conifer Grove,Takanini
1823900,1050,Dell Avenue,Remuera,Auckland
1795354,5713,Deller Drive,Carterton,
1792732,5019,Deller Grove,Silverstream,Upper Hutt
1786677,8024,Dellow Place,Spreydon,Christchurch
1800759,5032,Dell Road,Raumati South,Paraparaumu
1829795,2679,Dell Road,Waiau Pa,Pukekohe
1827979,2014,Dell Way,Bucklands Beach,Auckland
1809274,3110,Dell Way,Judea,Tauranga
1822842,0612,Dellwood Avenue,Henderson,Auckland
1779504,7020,Dellwood Green,Richmond,
1791347,5510,Dellys Grove,Levin,
1829781,2016,Del Mar Court,Shamrock Park,Auckland
1817923,4312,Del Mar Place,Merrilands,New Plymouth
1832839,2016,Delmont Close,East Tamaki Heights,Auckland
1782869,8024,Deloraine Street,Somerfield,Christchurch
3079441,7614,Delorean Drive,Rolleston,
1772847,9023,Delphic Street,Sawyers Bay,Dunedin
1836683,2121,Delphi Grove,Tuakau,
1824920,1025,Delphine Close,Mount Albert,Auckland
1810142,3015,Delphi Place,Sunnybrook,Rotorua
1784548,8042,Delph Street,Avonhead,Christchurch
1829697,2016,Delray Place,Shamrock Park,Auckland
1830968,0932,Delshaw Avenue,Stanmore Bay,Whangaparaoa
1822933,0600,Delta Avenue,New Lynn,Auckland
1840092,3112,Delta Close,Pyes Pa,Tauranga
1791003,7204,Delta Drive,Renwick,
1773038,9018,Delta Drive,Waldronville,Dunedin
1827781,7271,Delta Lake Heights,Renwick,
1838864,4102,Delta Mews Place,Clive,
1799437,4414,Delta Place,Milson,Palmerston North
1775044,9011,Delta Street,Belleknowes,Dunedin
3078436,3381,Delta View Lane,Omori,Turangi
3079306,3288,Delta Way,Te Kowhai,Hamilton
1785761,8023,Delta Way,Woolston,Christchurch
1821252,0930,De Luen Avenue,Tindalls Beach,Whangaparaoa
1823892,1022,De Luen Street,Point Chevalier,Auckland
1823888,1072,Delwyn Lane,Glen Innes,Auckland
1786484,7891,De Malmanches Road,Mokihinui,Westport
3083799,7615,Demarks Lane,Rolleston,
1800243,5011,De Menech Grove,Avalon,Lower Hutt
1820197,0405,De Merle Street,Kaikohe,
1814560,3183,Demeter Road,Te Puke,
3077964,2019,Demeter Street,Flat Bush,Auckland
1779094,7472,Demmocks Road,"Ashley Forest,Loburn",Loburn
3001525,9679,Demon Trail,Fiordland National Park,
3082280,7630,Dempsey Street,Kaiapoi,
1793144,5011,Dempsey Street,Naenae,Lower Hutt
1823898,1050,Dempsey Street,Remuera,Auckland
1773037,9471,Dempster Road,Bucklands Crossing,Waikouaiti
1819473,0571,Dem Street,Pahi,Paparoa
1934193,8025,Denali Street,Halswell,Christchurch
1823399,0602,Denarius Lane,Glendene,Auckland
1825211,1041,Denbigh Avenue,"Mount Roskill,Wesley",Auckland
1801308,4412,Denbigh Place,Awapuni,Palmerston North
1811883,4394,Denbigh Road,Midhirst,Stratford
1797211,4702,Denbigh Square,Feilding,
1774813,9302,Denbigh Street,Arrowtown,
1797212,4702,Denbigh Street,Feilding,
1773032,9597,Denbigh Street,Middlemarch,
1778671,9881,Denbigh Street,Orepuki,Riverton/Aparima
1793904,6012,Denbigh Way,Wilton,Wellington
1808252,3177,Denby Close,Athenree,Waihi Beach
1826140,0112,Denby Crescent,Tikipunga,Whangarei
1839452,4672,Denby Heights,Hawera,
1822158,0627,Denby Lane,Northcote Point,Auckland
1779669,7334,Denby Place,Hanmer Springs,
1796825,4501,Denby Place,Springvale,Whanganui
3013724,7495,Denby Road,"Coopers Creek,Oxford",Oxford
1817596,4672,Denby Road,Hawera,
1823884,1052,Denby Street,Parnell,Auckland
1779037,7385,Dench Road,Medbury,Hawarden
1785384,7400,Denchs Road,Rangiora,
3080265,0932,Dendro Ring Road,Wainui,
1822273,0632,Dene Court Lane,Greenhithe,Auckland
1830180,0812,Denehurst Drive,Waimauku,
1835197,3210,Denham Court,Flagstaff,Hamilton
1779763,7420,Denham Terrace,Waikari,
1818452,0931,Denham Way,Orewa,
1804237,4110,Denholm Road,Hospital Hill,Napier
1773935,9587,Denholm Street,Kelso,Tapanui
1842708,7614,Denimes Crescent,Rolleston,
1833004,0632,Denim Place,Albany,Auckland
1784019,8042,Denise Crescent,Hornby,Christchurch
1789368,7096,Denise Road,Tapawera,Wakefield
1825207,1041,Denize Road,Wesley,Auckland
1797130,4577,Denlair Road,Fordell,
1785537,8042,Denley Gardens,Avonhead,Christchurch
1783103,8081,Denman Street,Sumner,Christchurch
1804638,4930,Denmark Street,Dannevirke,
1781957,7925,Denmark Street,Fairlie,
1781653,7920,Denmark Street,Temuka,
1817930,4394,Denmark Terrace,Midhirst,Stratford
1815398,3330,Denmar Rise,Acacia Bay,Taupo
1805101,4120,Dennett Street,Mahora,Hastings
1830037,1051,Denning Place,Ellerslie,Auckland
1811786,7608,Dennings Lane,Lincoln,
1828332,2102,Dennis Avenue,Hillpark,Auckland
1796131,5032,Dennis Grove,Paraparaumu Beach,Paraparaumu
3078923,8025,Dennis Lane,Halswell,Christchurch
3082725,4120,Dennis Oliver Place,Flaxmere,Hastings
1802961,9371,Dennison Way,Arrowtown,
1821298,0981,Dennis Road,Kaipara Flats,Warkworth
1832435,2025,Dennis Road,Papatoetoe,Auckland
1777418,9778,Dennis Road,Waikaia,
1802192,4010,Dennis Street,Outer Kaiti,Gisborne
1791779,5032,Dennis Taylor Court,Paraparaumu,
1784541,8051,Denniston Crescent,Redwood,Christchurch
1789525,7891,Denniston Road,"Denniston,Waimangaroa",Westport
1771797,9382,Denniston Road,John Creek,Lake Hawea
1781340,7992,Dennistoun Road,Peel Forest,Mount Peel
1791806,6023,Dennis Way,Island Bay,Wellington
3078812,0230,Dennis Yates Way,Kerikeri,
1783094,8083,Dennitt Street,New Brighton,Christchurch
1825209,1041,Denny Avenue,Wesley,Auckland
1813754,3116,Denny Hulme Drive,Mount Maunganui,
3080488,8083,Denny Street,Marshland,Christchurch
1840737,0272,de Nora Drive,Russell,
3063490,9014,Densem Street,Portobello,Dunedin
1785888,7777,Denshires Road North,Pendarves,Ashburton
3013491,7777,Denshires Road South,"Pendarves,Wakanui",Ashburton
1789485,7804,Denston Street,Blackball,Greymouth
1798014,5571,Denton Road,Levin,
1939328,7410,Denton Street,Amberley,
1775912,9710,Denton Street,Gore,
1795796,4472,Denton Street,Linton,Palmerston North
3082333,7110,Denton Way,Motupipi,Takaka
1827883,2110,Dent Place,Red Hill,Papakura
1790694,7811,Dents Road,Kaniere,Hokitika
1773934,9273,Dents Road,Waitepeka,Balclutha
1806781,3503,Dent Street,Ngatea,
1826137,0110,Dent Street,Whangarei,
1823405,0612,Denver Avenue,Sunnyvale,Auckland
1800150,5018,Denver Grove,Totara Park,Upper Hutt
1814353,3216,Denver Place,Hamilton East,Hamilton
1799446,4414,Denver Place,Milson,Palmerston North
1783088,8052,Denvir Street,Strowan,Christchurch
1831248,0600,Denyer Place,New Lynn,Auckland
1796469,3989,Denzil Drive,Raurimu,Owhango
1807109,3200,Denz Street,Maeroa,Hamilton
3036421,2105,Deodar Place,Totara Heights,Auckland
1848924,2120,Deol Drive,Pukekohe,
1819531,4110,Depot Place,Onekawa,Napier
3059252,,Depot Road,"Burnt Hill,Oxford,View Hill",Oxford
1813429,3492,Depot Road,Mangakino,
1819424,0571,Depot Road,Paparoa,
3059253,3980,Depot Road,"Retaruke,Tokirima","Ohura,Owhango"
3078746,8042,Depot Street,Hornby South,Christchurch
1810143,3015,Depot Street,Mangakakahi,Rotorua
1815155,3410,Depot Street,Tirau,
1838751,5024,Deptford Lane,Whitby,Porirua
1818449,2010,De Quincey Terrace,Highland Park,Auckland
3082582,7610,Derbridge Street,Woodend,
1787550,7604,Derby Close,Prebbleton,
1830492,1051,Derby Downs Place,Ellerslie,Auckland
1800033,5024,Derby Place,Cannons Creek,Porirua
1802698,4112,Derby Place,Tamatea,Napier
3049249,9783,Derby Road,Limehills,Winton
1818206,4394,Derby Road,Midhirst,Stratford
3049252,4388,Derby Road,Norfolk,
3049251,4388,Derby Road,"Norfolk,Tariki","Norfolk,Stratford"
1817834,4388,Derby Road North,Norfolk,
3055731,4394,Derby Road South,"Midhirst,Tariki",Stratford
1827137,2580,Derbyshire Lane,Karaka,Papakura
1785151,3204,Derbyshire Place,Dinsdale,Hamilton
1771421,9302,Derby Street,Arrowtown,
3067990,0624,Derby Street,"Devonport,Narrow Neck",Auckland
1817339,4322,Derby Street,Eltham,
1800939,4702,Derby Street,Feilding,
1802792,4010,Derby Street,Gisborne,
1772761,9018,Derby Street,Green Island,Dunedin
1770578,9410,Derby Street,Hampden,
1798506,5510,Derby Street,Levin,
1795793,4472,Derby Street,Linton,Palmerston North
1783107,8014,Derby Street,"Merivale,St Albans",Christchurch
1793912,6011,Derby Street,Mount Victoria,Wellington
1807110,3200,Derby Street,Nawton,Hamilton
1790751,7886,Derby Street,Okarito,Whataroa
1818274,4520,Derby Street,Patea,
1800604,5810,Derby Street,Solway,Masterton
1781892,7011,Derby Street,Stoke,Nelson
1774810,9522,Derby Street,Tapanui,
1777806,9689,Derby Street,Wairio,Otautau
1788116,7825,Derby Street,Westport,
1776732,9877,Derby Street,Woodend,Invercargill
1836876,3112,Derby Way,Pyes Pa,Tauranga
3004685,9471,Derdan Hill Road,"Bucklands Crossing,Waikouaiti",Waikouaiti
1773279,9081,Derdan Street,Purakaunui,Port Chalmers
1973585,8025,Derek Anderson Place,Halswell,Christchurch
1787113,7571,De Renzie Place,Kirwee,
1784544,8042,Derenzy Place,Avonhead,Christchurch
1833304,2013,Derg Place,East Tamaki,Auckland
1771159,9396,Derg Street,Naseby,
1773274,9085,Derg Street,Waitati,
1791753,5581,Derham Road,Te Horo,Otaki
1797455,4476,Dermer Street,Awahuri,Palmerston North
1807111,3206,Dermont Street,Bader,Hamilton
1825785,1072,Derna Road,Panmure,Auckland
1828362,2022,Derrett Place,Mangere Bridge,Auckland
1786719,8022,Derrett Place,Saint Martins,Christchurch
1780495,7572,Derretts Road,Hororata,
1830700,0210,Derrick Road,Kawakawa,
1828356,2019,Derrimore Heights,Clover Park,Auckland
1799778,6037,Derry Hill,Churton Park,Wellington
1783880,8022,Derrynane Lane,Cashmere,Christchurch
1770993,9310,Derry Street,Cromwell,
1823896,1051,Derry Street,Greenlane,Auckland
1832601,2103,Derryveagh Lane,Weymouth,Auckland
1801625,5032,Derwent Close,Paraparaumu,
1776379,9810,Derwent Crescent,Glengarry,Invercargill
1823406,0604,Derwent Crescent,Titirangi,Auckland
3048493,5011,Derwent Lee Grove,"Boulcott,Epuni",Lower Hutt
1842627,3210,Derwent Place,Flagstaff,Hamilton
1784546,8053,Derwent Street,Bryndwr,Christchurch
1776383,9810,Derwent Street,Glengarry,Invercargill
1772632,9010,Derwent Street,Helensburgh,Dunedin
1793898,6023,Derwent Street,Island Bay,Wellington
1818780,1022,Derwent Street,Morningside,Auckland
1771163,9396,Derwent Street,Naseby,
1770177,9400,Derwent Street,"Oamaru,Oamaru North",Oamaru
1793473,5014,Derwent Street,Wainuiomata,Lower Hutt
1842000,0174,Derwin Lane,Parua Bay,
3078481,0616,Desalt Drive,Hobsonville,Auckland
1811417,3218,Deseret Road,Temple View,Hamilton
3082009,5018,Desert Gold Lane,Wallaceville,Upper Hutt
1792119,5024,Desert Gold Street,Ascot Park,Porirua
1802497,4189,Desert Road,Putere,Raupunga
1828341,2022,Desford Place,Mangere,Auckland
1786852,8022,Desi Place,Hillsborough,Christchurch
1816983,4312,Desmond Place,Bell Block,New Plymouth
1828340,2023,Desmond Place,Otara,Auckland
1841956,0932,Desmond Road,Silverdale,
1802197,4010,Desmond Road,Te Hapara,Gisborne
1786953,8014,Desmond Street,Merivale,Christchurch
1822266,0622,Des Swann Drive,Takapuna,Auckland
1839940,0510,Des Terry Way,Waipu,
1828336,2112,Destino Court,Conifer Grove,Takanini
1820501,0483,De Surville Road,Karikari Peninsula,
1839793,7612,De Surville Way,Pegasus,
1782899,8081,De Thier Lane,Richmond Hill,Christchurch
1820069,0473,De Thierry Street,Rawene,Kaikohe
1828355,2010,De Thiery Place,Pakuranga Heights,Auckland
1839964,7614,Detroit Drive,Rolleston,
1840282,8011,Detroit Place,Addington,Christchurch
1829497,2025,Detro Street,Papatoetoe,Auckland
1822157,0627,Deuxberry Avenue,Northcote,Auckland
1823388,0604,De Val Drive,Titirangi,Auckland
1829863,0630,Devana Court,Torbay,Auckland
3081761,2402,De Velga Lane,Pokeno,
1939576,7010,Devenish Place,Atawhai,Nelson
1771014,9395,Devenney Road,Gimmerburn,Ranfurly
1807104,3210,De Vere Crescent,Chartwell,Hamilton
1822036,0632,Deverell Place,Northcross,Auckland
1777408,9782,Devereux Road,Winton,
1793576,5028,Deveron Place,Tawa,Wellington
1828335,2102,Deveron Road,Manurewa,Auckland
1776380,9810,Deveron Street,"Invercargill,Queens Park",Invercargill
1826144,0112,Deveron Street,Regent,Whangarei
1802674,4195,Devers Road,Tuai,Wairoa
3002614,9682,Devery Road,"Eastern Bush,Merrivale",Otautau
1805058,4193,Devery Road,Frasertown,Wairoa
1789545,7872,Devery Street,Arnold Valley,
1802790,4010,Devery Street,Mangapapa,Gisborne
1802457,4094,Devery Street,Whatatutu,Te Karaka
1819422,0975,Devich Road,Mangawhai,
1786676,8061,De Ville Place,Burwood,Christchurch
1788575,7073,Devil's Boots Road,Rockville,Collingwood
3009718,9492,Devils Bridge Road,"Rosebery,Weston",Oamaru
1805174,4274,Devils Gully Road,Tikokino,
1789363,7096,Devils Road,Tapawera,Wakefield
1841215,4130,Devine Close,Havelock North,
3044762,7678,Devine Drive,Rolleston,
1815044,3283,Devine Road,Tamahere,Hamilton
3079378,3432,Devise Way,Cambridge,
1841926,7400,Devlin Avenue,Rangiora,
1801225,4818,Devon Crescent,Bulls,
1785410,7510,Devon Crescent,Darfield,
2007937,5713,Devon Lane,Carterton,
1833391,0624,Devon Lane,Devonport,Auckland
1827435,2120,Devon Lane,Pukekohe,
1792120,5024,Devon Place,Cannons Creek,Porirua
1770029,9024,Devon Place,Mosgiel,
1841912,4414,Devon Place,Roslyn,Palmerston North
1812236,3420,Devon Place,Tokoroa,
1786716,8014,Devonport Lane,St Albans,Christchurch
1809269,,Devonport Road,"Tauranga,Tauranga South",Tauranga
1775070,9018,Devonport Street,Green Island,Dunedin
3000925,,Devon Road,"Bell Block,Brixton,Sentry Hill,Waitara,Waiwhakaiho","New Plymouth,Waitara"
1828343,2012,Devon Road,Bucklands Beach,Auckland
1814354,3204,Devon Road,Frankton,Hamilton
1771010,9395,Devon Road,Gimmerburn,Ranfurly
1791909,4501,Devon Road,Springvale,Whanganui
1804241,4112,Devonshire Place,Taradale,Napier
1800401,6022,Devonshire Road,Miramar,Wellington
1774800,9376,Devonshire Road,Omakau,
1822268,0632,Devonshire Road,Unsworth Heights,Auckland
1776731,9810,Devonshire Street,Lorneville,Invercargill
3036087,6021,Devon Street,"Aro Valley,Kelburn",Wellington
1775694,9302,Devon Street,Arrowtown,
1777409,9791,Devon Street,Dipton West,
1772643,9016,Devon Street,Dunedin Central,Dunedin
1823899,1021,Devon Street,Eden Terrace,Auckland
3036093,3010,Devon Street,"Glenholme,Hillcrest",Rotorua
1778330,9710,Devon Street,Gore,
1809275,3112,Devon Street,Greerton,Tauranga
1790289,7805,Devon Street,Greymouth,
1779674,7334,Devon Street,Hanmer Springs,
1775846,9793,Devon Street,Kingston,
1798507,5510,Devon Street,Levin,
1819427,0505,Devon Street,Mangawhai Heads,Mangawhai
3036078,9792,Devon Street,Mossburn,
1777791,9610,Devon Street,Otautau,
1818176,4520,Devon Street,Patea,
1791331,7220,Devon Street,Picton,
1778847,9776,Devon Street,Riversdale,
1795124,5810,Devon Street,Solway,Masterton
1781925,7011,Devon Street,Stoke,Nelson
1783097,8023,Devon Street,Sydenham,Christchurch
1773970,9522,Devon Street,Tapanui,
1804233,4112,Devon Street,Taradale,Napier
1831299,0610,Devon Street,Te Atatu South,Auckland
1807002,3610,Devon Street,Waihi,
1800325,5014,Devon Street,Wainuiomata,Lower Hutt
1786472,7910,Devon Street,Watlington,Timaru
1776735,9877,Devon Street,Woodend,Invercargill
1809186,,Devon Street East,"Fitzroy,New Plymouth,Strandon,Waiwhakaiho",New Plymouth
3040102,4310,Devon Street West,"Blagdon,Lynmouth,Marfell,New Plymouth",New Plymouth
3040103,3015,Devon Street West,"Hillcrest,Pomare",Rotorua
1770176,9400,Devon Terrace,Oamaru,
1787196,7410,Devonvale Lane,Amberley,
1823891,1071,Devore Street,Saint Heliers,Auckland
1839334,3010,Devoy Drive,Owhata,Rotorua
3080129,2025,Dewan Lane,Papatoetoe,Auckland
1839268,7604,Dewar Lane,Prebbleton,
2012846,9304,Dewar Street,Lake Hayes,Queenstown
1797210,4702,Dewe Avenue,Feilding,
1774520,9586,Dewe Road,"Maclennan,Tahakopa",Owaka
1802355,4087,Dewes Road,Te Araroa,
1801168,4815,Dewe Terrace,Foxton Beach,Foxton
1828338,2024,Dewhurst Place,Favona,Auckland
1793475,5014,Dewsbury Grove,Wainuiomata,Lower Hutt
1818180,8023,Dewsbury Lane,Sydenham,Christchurch
3072389,0620,Dewsbury Terrace,Castor Bay,Auckland
1797956,4982,Dews Road,Pahiatua,
1831647,1024,Dexter Avenue,Mount Eden,Auckland
3081840,3187,Dexter Way,Papamoa,
3058639,8023,Deyell Crescent,"Spreydon,Sydenham",Christchurch
1807112,3216,Dey Street,Hamilton East,Hamilton
1819421,0505,Dey Street,Mangawhai Heads,Mangawhai
1772838,9024,Dey Street,Mosgiel,
1974144,0612,Dhaka Lane,Ranui,Auckland
3083122,3112,Dhami Way,Gate Pa,Tauranga
1777407,9793,Diack Road,Lowther,
1777410,9892,Diack Road,Mimihau,Wyndham
1811773,3380,Diagonal Road,"Manawaru,Ngarua","Manawaru,Waitoa"
1783093,8024,Diamond Avenue,Spreydon,Christchurch
1839212,4810,Diamond Court,Ashhurst,
1806094,3508,Diamond Drive,Tairua,
1840946,5018,Diamond Grove,Brown Owl,Upper Hutt
1813659,3112,Diamond Head,Hairini,Tauranga
3077669,0793,Diamond Lane,Riverhead,
1839140,9305,Diamond Lane,Wanaka,
1776207,9772,Diamond Peak Road,"Diamond Peak,Kaiwera",Gore
1820068,0473,Diamond Road,Omapere,Kaikohe
1795357,5713,Diamond Street,Carterton,
1831417,1021,Diamond Street,Eden Terrace,Auckland
1810146,3015,Diamond Street,Pukehangi,Rotorua
1802892,4010,Diana Avenue,Mangapapa,Gisborne
1814203,3620,Diana Avenue,Whangamata,
1822267,0627,Diana Drive,"Glenfield,Wairau Valley",Auckland
1809553,3120,Diana Glade,Whakatane,
1799921,4500,Diana Place,Otamatea,Whanganui
1830222,0612,Diana Place,Ranui,Auckland
1810147,3015,Diana Place,Sunnybrook,Rotorua
1776730,9876,Diana Road,Makarewa,Invercargill
3040118,9730,Diana Street,Lumsden,
1794231,6037,Diane Grove,Paparangi,Wellington
1935023,7614,Diane Place,Rolleston,
3078467,3288,Diane Place,Te Kowhai,Hamilton
1828339,2012,Dianne-Louise Drive,Half Moon Bay,Auckland
1822032,0630,Dianthus Place,Browns Bay,Auckland
3080655,8025,Dianthus Place,Wigram,Christchurch
1789352,7095,Diawa Road,Golden Downs,Wakefield
1803227,4120,Diaz Drive,Flaxmere,Hastings
1803228,4120,Diaz Place,Flaxmere,Hastings
3084547,3072,Dibley Drive,Hamurana,
1800924,4571,Dickens Lane,Otamatea,Whanganui
1797129,4572,Dickenson Road,Fordell,
1812732,3432,Dickens Place,Leamington,Cambridge
1778232,9691,Dickens Road,Papatotara,Tuatapere
1778231,9691,Dickens Road South,Papatotara,Tuatapere
1783077,8024,Dickens Street,Addington,Christchurch
1818782,1021,Dickens Street,Grey Lynn,Auckland
1804238,4110,Dickens Street,Napier South,Napier
1810148,3010,Dickens Street,Owhata,Rotorua
1781926,7011,Dickens Street,Stoke,Nelson
1789710,7173,Dicker Road,Tasman,Upper Moutere
1830779,0405,Dickeson Street,Kaikohe,
1806877,3682,Dickey Flat Road,Waikino,Waihi
1831977,2684,Dickey Road,Manukau Heads,Awhitu
1827032,2682,Dickey Road,Otaua,
1786954,,Dickeys Road,"Belfast,Coutts Island",Christchurch
1831416,0600,Dickey Street,New Windsor,Auckland
1776206,9772,Dickie Road,Mataura,
3051161,7683,Dickies Road,"Lake Ellesmere / Te Waihora,Leeston",Leeston
3077473,4471,Dickins Lane,Aokautere,
1788966,7873,Dickinson Parade,Punakaiki,
3055702,3198,Dickinson Road,Waiotahe,Opotiki
1774227,9771,Dickison Road,Pomahaka,Gore
1804240,4110,Dick Place,Onekawa,Napier
3042862,9482,Dick Road,"Hillgrove,Moeraki",Moeraki
1797421,4774,Dick Road,Kimbolton,
3042861,9077,Dick Road,"Lower Portobello,Okia Flat",Dunedin
1787573,7614,Dick Roberts Place,Rolleston,
1820499,0486,Dick Smith Loop Road,Awanui,
1784022,8042,Dickson Crescent,Hornby,Christchurch
1800873,4500,Dickson Crescent,Saint Johns Hill,Whanganui
1826575,0175,Dickson Road,Glenbervie,Whangarei
1775766,9682,Dickson Road,Otahu Flat,Otautau
1814714,3118,Dickson Road,Papamoa Beach,Papamoa
1825620,1081,Dickson Road,Surfdale,Waiheke Island
1787362,7775,Dicksons Road,"Hinds,Lismore,Winslow",Ashburton
1775175,9091,Dicksons Road,Kuri Bush,Dunedin
1782161,7979,Dicksons Road,Waimate,
1786580,7891,Dickson Street,Denniston,Westport
1802189,4010,Dickson Street,Kaiti,Gisborne
3047792,9014,Dickson Street,Macandrew Bay,Dunedin
1806099,3500,Dickson Street,Thames,
1789388,7095,Dicks Road,Golden Downs,Wakefield
1784934,7472,Dicks Road,Sefton,
1791317,7273,Dicks Road,Spring Creek,
1812734,3434,Dick Street,Cambridge,
1815798,3875,Dick Street,Kihikihi,Te Awamutu
1788077,7830,Dick Street,Reefton,
1772651,9012,Dick Street,South Dunedin,Dunedin
3033124,8083,Dick Tayler Drive,"New Brighton,North New Brighton",Christchurch
1820503,0483,Dick Urlich Road,Karikari Peninsula,
3077615,0810,Dida Park Drive,"Huapai,Kumeu",Kumeu
1841091,9024,Didham Drive,Mosgiel,
1792121,5024,Dido Place,Cannons Creek,Porirua
1814538,3611,Didsbury Drive,Waihi Beach,
1839031,6037,Didsbury Grove,Churton Park,Wellington
1790360,7881,Diedrichs Road,Kokatahi,
1817279,4616,Dieffenbach Street,Opunake,
3025201,4820,Dieppe Place,Linton,Palmerston North
1819724,0293,Diesel Road,Kerikeri,
1780803,7700,Digby Place,Allenton,Ashburton
1783071,8062,Digby Place,Bromley,Christchurch
2010876,0510,Digby Place,Waipu,
1838690,3510,Digby Place,Whitianga,
1777399,9875,Diggers Bridge Road,Otara,Tokanui
1770778,9435,Diggers Gully Road,Kurow,
3037851,9630,Digger Street,Nightcaps,
3003998,,Diggers Valley Road,"Herekino,Kaitaia",Kaitaia
1831420,1022,Dignan Street,Point Chevalier,Auckland
3077677,2110,Dignity Street,Papakura,
1789851,7010,Di Leva Way,The Wood,Nelson
1774504,9679,Dilla Street,Fiordland National Park,
1807113,3200,Dillicar Street,Whitiora,Hamilton
1828344,2010,Dillimore Avenue,Pakuranga,Auckland
1802194,4010,Dillon Bell Road,Whataupoko,Gisborne
1832215,2019,Dillon Crescent,Clover Park,Auckland
1818089,4312,Dillon Drive,Bell Block,New Plymouth
1813946,3216,Dillon Place,Hamilton East,Hamilton
3035134,7334,Dillon Road,"Hanmer Conservation Park,Hanmer Springs",Hanmer Springs
1815241,3492,Dillon Road,Mangakino,
1776205,9773,Dillon Road,Otamita,Gore
1777802,9881,Dillon Road,Pahia,Riverton/Aparima
1815327,3495,Dillon Road,Rotoorangi,Cambridge
3062426,,Dillons Point Road,"Dillons Point,Islington,Mayfield","Blenheim,Dillons Point"
1790951,7201,Dillon Street,Blenheim,
1792854,5013,Dillon Street,Lowry Bay,Lower Hutt
1808115,3611,Dillon Street,Waihi Beach,
1809268,3110,Dillon Way,Otumoetai,Tauranga
1821294,0984,Dill Road,Kaipara Flats,Warkworth
1823893,1050,Dilworth Avenue,Remuera,Auckland
1786902,8011,Dilworth Street,Riccarton,Christchurch
1823901,1052,Dilworth Terrace,Parnell,Auckland
1806782,2471,Dimmock Road,"Maramarua,Waitakaruru","Maramarua,Ngatea"
3022248,5022,Dimock Street,Titahi Bay,Porirua
1787317,7392,Dimple Road,Balmoral,
3079088,0782,Dinaric Lane,Westgate,Auckland
1781336,7985,Dinda Road,Waitohi,Temuka
1809272,3112,Dingadee Street,Welcome Bay,Tauranga
1825819,1060,Dinglebank Road,Mount Wellington,Auckland
1787674,8051,Dinglebay Place,Casebrook,Christchurch
1770014,9382,Dingle Burn Station Road,Dingle Burn,Lake Hawea
1841121,3372,Dingle Road,Morrinsville,
1813012,3882,Dingle Road,Ohaupo,
1817743,4678,Dingle Road,Otakeho,Hawera
1823880,1071,Dingle Road,Saint Heliers,Auckland
3078425,9382,Dingle Street,Lake Hawea,
1814084,3210,Dingwall Court,Rototuna,Hamilton
1828334,2025,Dingwall Place,Papatoetoe,Auckland
1775179,9510,Dingwall Street,Waikouaiti,
1775041,9013,Dinmont Street,Waverley,Dunedin
3080338,4120,Dinneen Close,Frimley,Hastings
1821302,0820,Dinning Road,Riverhead,
1826187,0112,Dinniss Avenue,Regent,Whangarei
1814355,3204,Dinsdale Road,Dinsdale,Hamilton
1810149,3015,Dinsdale Street,Mangakakahi,Rotorua
1784547,8042,Dinton Street,Russley,Christchurch
1804239,4110,Dinwiddie Avenue,Onekawa,Napier
1814051,3210,Diomede Glade,Flagstaff,Hamilton
1822271,0622,Diomede Street,Bayswater,Auckland
1822462,2016,Dione Place,Flat Bush,Auckland
1828345,2019,Diorella Drive,"Clover Park,Goodwood Heights",Auckland
1828342,2010,Diosma Place,Botany Downs,Auckland
3044809,9491,Dip Hill Road,"Island Cliff,Livingstone,Tokarahi",Oamaru
1789868,7010,Di Pierri Way,The Wood,Nelson
1814791,3127,Dippie Place,Kawerau,
1780911,7776,Dip Road,"Ashburton Forks,Lauriston,Methven","Ashburton,Lauriston,Methven"
3050757,7986,Dip Road,"Coldstream,Rangitata Island","Ashburton,Temuka"
1780431,7671,Dip Road,Greendale,Darfield
1820640,0479,Dip Road,Kaeo,
3050758,7683,Dip Road,"Leeston,Southbridge",
1830534,,Dip Road,"Ngararatunua,Te Kamo",Whangarei
3050761,3198,Dip Road,"Opotiki,Otara",Opotiki
1777421,9791,Dipton Bush Road,Dipton West,
3019663,,Dipton Castlerock Road,"Castlerock,Dipton,Dipton West,Wether Hill","Dipton,Dipton West,Lumsden"
1778596,9791,Dipton Flat Road,Dipton West,
3037448,,Dipton Mossburn Road,"Barnhill,Castle Downs,Dipton West,Mossburn","Dipton West,Lumsden,Mossburn"
1776385,9812,Dipton Street,Kingswell,Invercargill
3063606,,Dipton Winton Highway,"Benmore,Centre Bush,Dipton,Limehills,Winton","Dipton,Winton"
1811274,3283,Discombe Road,Tamahere,Hamilton
1815832,3112,Discovery Avenue,Welcome Bay,Tauranga
1805838,3210,Discovery Drive,Flagstaff,Hamilton
1842903,0930,Discovery Drive,Gulf Harbour,Whangaparaoa
3079049,3592,Discovery Drive,Wharekaho,Whitianga
1792122,5024,Discovery Drive,Whitby,Porirua
1816981,4310,Discovery Place,Marfell,New Plymouth
1801930,4077,Discovery Street,Tolaga Bay,
3081139,7220,Discovery Way,Waikawa,Picton
1788787,7095,Dishers Road,Golden Downs,Wakefield
3083572,2019,Dishys Road,Flat Bush,Auckland
1842779,2103,Disley Road,Wattle Downs,Auckland
3011199,6012,Disley Street,"Highbury,Kelburn",Wellington
1841111,9304,Dispute Way,Lake Hayes,Queenstown
3055538,,Disraeli Street,"Addington,Sydenham",Christchurch
1824350,,Disraeli Street,"Epsom,Mount Eden",Auckland
1802190,4010,Disraeli Street,Gisborne,
1817593,4610,Disraeli Street,Hawera,
1800454,6037,Disraeli Street,Johnsonville,Wellington
1788117,7825,Disraeli Street,Westport,
1828360,2019,Dissmeyer Drive,Clover Park,Auckland
1858700,8042,Distribution Lane,Sockburn,Christchurch
1775505,9492,District Road,"Deborah,Weston",Oamaru
1772763,9018,District Road,Green Island,Dunedin
1775247,9282,District Road,Kaitangata,
1777415,9871,District Road,Kennington,Invercargill
1770406,9430,District Road,Palmerston,
1775045,9023,District Road,"Roseneath,Sawyers Bay",Dunedin
3023892,,Dittmer Drive,"Awapuni,West End",Palmerston North
1827678,2110,Dittmer Place,Papakura,
1805406,4978,Dittmer Road,"Dannevirke,Matamau",Dannevirke
3028559,4820,Dittmers Road,Linton,Palmerston North
1796271,5512,Dittmer Street,Otaki,
1795183,5886,Ditton Road,Whangaehu Valley,Masterton
1781339,7975,Divan Road,Levels,Timaru
1809271,3110,Dive Crescent,Tauranga,
1827030,2681,Diver Road,Glenbrook,
1828346,2025,Diversey Lane,Wiri,Auckland
1787296,7472,Diversion Road,Ashley Forest,Loburn
1795587,5771,Diversion Road,"Kahutara,Tauwharenikau","Kahutara,Tauherenikau"
1837425,7476,Diversion Road,Swannanoa,
3080445,9305,Divers Lane,Wanaka,
1811415,3288,Divers Road,Horotiu,Hamilton
1840325,9584,Divers Road,Popotunoa,Clinton
3066939,9782,Divers Road,Winton,
1818172,4610,Dives Avenue,Hawera,
1791096,7010,Di Vetro Way,The Wood,Nelson
1831300,0610,Divich Avenue,Te Atatu South,Auckland
2013505,2112,Divide Loop,Takanini,Auckland
3080473,2102,Divine Lane,Manurewa,Auckland
3004875,4671,Division Road,Okaiawa,Hawera
1814748,3194,Division Street,Matata,
1784234,8041,Division Street,Riccarton,Christchurch
3078671,7020,Divita Place,Richmond,
1791577,7201,Dix Crescent,Riversdale,Blenheim
3023183,5581,Dixie Street,Te Horo Beach,Otaki
1817592,4610,Dixon Avenue,Hawera,
1784927,7476,Dixon Road,Eyrewell,West Eyreton
3018029,7495,Dixon Road,"Eyrewell,Oxford","Oxford,West Eyreton"
3018032,,Dixon Road,"Fitzroy,Glenview,Peacocke",Hamilton
3018030,3010,Dixon Road,Ngapuna,Rotorua
1811060,3794,Dixon Road,Te Akau,Ngaruawahia
1797595,4481,Dixons Line,Bunnythorpe,Palmerston North
3065572,7472,Dixons Road,"Ashley,Loburn","Loburn,Rangiora"
1800640,5713,Dixon Street,Carterton,
1795125,5810,Dixon Street,"Kuripuni,Masterton",Masterton
1817135,4314,Dixon Street,Oakura,
1794239,6011,Dixon Street,Te Aro,Wellington
1777801,9620,Dixon Street,Tuatapere,
1782162,7924,Dixon Street,Waimate,
1801224,4720,Dixon Way,Taihape,
1784016,8042,Dix Street,"Hornby,Wigram",Christchurch
1835861,7206,Dix Street,Woodbourne,Blenheim
1790354,7882,D J Road,Kumara Junction,Greymouth
3038040,7974,Doake Road,"Levels Valley,Pleasant Point,Sutherlands","Pleasant Point,Timaru"
1780920,7777,Doaks Road,Wakanui,Ashburton
1777395,9893,Dobbie Road,Edendale,
1780247,7683,Dobbins Road,Southbridge,
1859639,8025,Dobbs Street,Halswell,Christchurch
1821299,0932,Dobell Road,Stanmore Bay,Whangaparaoa
1770769,9412,Dobson Lane,Lake Ohau,Omarama
1781958,7901,Dobson Place,Twizel,
3060430,7872,Dobson Road,"Arnold Valley,Dunganville",Arnold Valley
1831978,2471,Dobson Road,Mangatawhiri,
1780923,7781,Dobsons Ferry Road,Dorie,
1801826,4470,Dobsons Lane,Kelvin Grove,Palmerston North
1786323,7773,Dobsons Road,Lowcliffe,Ashburton
1785618,7700,Dobson Street,"Ashburton,Hampstead",Ashburton
1789450,7875,Dobson Street,"Dunganville,Hohonu","Arnold Valley,Kumara"
1781702,7910,Dobson Street,"Gleniti,Glenwood",Timaru
1786548,7822,Dobson Street,Hector,
1770776,9412,Dobson Street,Otematata,
1783072,8024,Dobson Street,Spreydon,Christchurch
1814335,3610,Dobson Street,Waihi,
1782163,7924,Dobson Street,Waimate,
3070591,7700,Dobson Street West,Ashburton,
1837054,7987,Dobson View Road,Fairlie,
3043828,7886,Docherty Creek Road,Franz Josef/Waiau,
1839055,3330,Docherty Drive,Nukuhau,Taupo
1804242,4110,Dockery Avenue,Onekawa,Napier
1834858,1010,Dockside Lane,Auckland Central,Auckland
1824347,1010,Dock Street,Auckland Central,Auckland
1794234,6011,Doctors Common,Mount Victoria,Wellington
1770773,9494,Doctors Creek Road,Otekaieke,Duntroon
1819428,,Doctors Hill Road,Maungaturoto,
1818783,0582,Doctors Hill Road,"Ruakaka,Waipu",
1773278,9085,Doctors Point Road,Waitati,
1778354,9712,Doctors Road,Mataura,
3029159,9892,Doctors Road,Wyndham,
1812736,3434,Doctor Tod Court,Cambridge,
1952041,9300,Doc Wells Lane,Queenstown,
1827027,2684,Dodd Road,Manukau Heads,Awhitu
1819423,0588,Dodd Road,Maungaturoto,
1811774,3372,Dodd Road,Motumaoho,Morrinsville
3080406,7615,Dodd Road,Rolleston,
1804836,4999,Dodd Road,Woodville,
1800782,5512,Dodds Crescent,Otaki Beach,Otaki
1820500,0482,Dodds Road,Kaitaia,
1775304,9583,Dodds Road,Slopedown,Clinton
1838238,9491,Dodds Road,Tapui,Oamaru
1822270,0620,Dodson Avenue,Milford,Auckland
1788503,,Dodson Road,Takaka,
1790950,7201,Dodson Street,Mayfield,Blenheim
1791634,7202,Dodson Street,Spring Creek,
1781002,7010,Dodson Valley Road,Atawhai,Nelson
1810151,3077,Dods Road,Waikite Valley,Ngakuru
1820502,0486,Doel Road,Awanui,
1819784,0282,Doel Road,Kawakawa,
1796513,3990,Doe Road,Raurimu,Owhango
1785369,7400,Doggett Place,Rangiora,
1782164,7979,Dog Kennel Road,"Ikawai,Morven",Waimate
1791633,7272,Dog Point Road,"Fairhall,Hawkesbury","Fairhall,Renwick"
3063645,7495,Dog Trial Road,"Burnt Hill,Eyrewell","Oxford,West Eyreton"
1836847,4414,Dogwood Way,Milson,Palmerston North
1775315,9587,Doherty Road,Park Hill,Tapanui
1785163,7430,Dohrmans Road,Oxford,
1782165,7980,Dohrmans Road,Waimate,
1826571,0181,Doidge Road,Hikurangi,
1999011,2571,Doidge Street,Beachlands,Auckland
1770995,9310,Doig Lane,Cromwell,
1780910,7772,Doigs Road,Chertsey,Ashburton
3025101,9777,Dolamore Park Road,"Hokonui Hills,Upper Charlton","Dipton,Gore"
1783080,8061,Dolamore Place,Wainoni,Christchurch
1822932,0600,Dolan Place,New Lynn,Auckland
1780913,7781,Dolans Road,Dorie,
1823227,0604,Dolbear Street,Titirangi,Auckland
1806127,2024,Dolbel Place,Mangere East,Auckland
1805550,4112,Dolbel Street,Taradale,Napier
3083892,2402,Dolcetto Place,Pokeno,
1838590,2022,Dole Place,Mangere,Auckland
1786517,7822,Dole Street,Ngakawau,Hector
1783100,8013,Dollans Lane,Christchurch Central,Christchurch
3040595,7604,Dollar Place,Prebbleton,
1838256,0573,Dolly Lane,Kaiwaka,
1792123,5026,Dolly Varden Crescent,Paremata,Porirua
1780915,7730,Dolma Street,Methven,
1808255,3611,Dolphin Avenue,Waihi Beach,
1806875,3691,Dolphin Drive,Whiritoa,Waihi
1830139,1971,Dolphin Lane,Waiheke Island,
1816550,4312,Dolphin Parade,Bell Block,New Plymouth
1831906,0173,Dolphin Place,Tutukaka,Whangarei
3055694,5018,Dolphin Square,"Heretaunga,Trentham",Upper Hutt
1772635,9010,Dolphin Street,North East Valley,Dunedin
1828347,2010,Dolphin Street,Pakuranga,Auckland
1781698,7910,Domain Avenue,Kensington,Timaru
1810152,3010,Domain Avenue,Ngongotaha,Rotorua
1772636,9013,Domain Avenue,Ocean Grove,Dunedin
1781655,7920,Domain Avenue,Temuka,
1821295,0881,Domain Crescent,Muriwai,
1824344,1010,Domain Drive,"Grafton,Parnell",Auckland
1807878,3900,Domain Drive,Otorohanga,
1839453,2022,Domain Lane,Mangere Bridge,Auckland
1797452,4822,Domain Parade,Tangimoana,
1771267,9384,Domain Road,Bannockburn,Cromwell
3048924,0629,Domain Road,"Birkenhead,Glenfield",Auckland
1798910,4818,Domain Road,Bulls,
3048889,9482,Domain Road,"Bushey,Palmerston",Palmerston
1786808,7892,Domain Road,Cape Foulwind,
1771726,9371,Domain Road,"Dalefield,Speargrass Flat",Queenstown
1778083,9683,Domain Road,Drummond,Winton
1774245,9483,Domain Road,"Dunback,Makareao",Palmerston
3048888,9572,Domain Road,Ettrick,Roxburgh
1786549,7823,Domain Road,Granity,
1803560,4102,Domain Road,Haumoana,
1771763,9382,Domain Road,"Hawea Flat,Lake Hawea",Lake Hawea
1778846,9872,Domain Road,Hedgehope,Invercargill
1842629,3591,Domain Road,Hot Water Beach,Whitianga
1826573,0182,Domain Road,Hukerenui,Hikurangi
1830713,0210,Domain Road,Kawakawa,
1804837,4997,Domain Road,Kumeroa,
1841035,7999,Domain Road,Lake Tekapo,
1780248,7683,Domain Road,Leeston,
1812023,3482,Domain Road,"Lichfield,Putaruru",Putaruru
1828358,2022,Domain Road,Mangere Bridge,Auckland
3048927,0373,Domain Road,Omamari,Dargaville
1826193,0110,Domain Road,Onerahi,Whangarei
1801931,4071,Domain Road,Ormond,Gisborne
1796272,5512,Domain Road,Otaki,
1785162,7495,Domain Road,Oxford,
1831780,1072,Domain Road,Panmure,Auckland
3048920,,Domain Road,Papamoa Beach,Papamoa
1821296,0994,Domain Road,Puhoi,Warkworth
1827022,2120,Domain Road,Pukekohe,
1818247,4685,Domain Road,Pungarehu,
1781643,7992,Domain Road,Rangitata,Geraldine
1801409,3989,Domain Road,Raurimu,Owhango
1819426,0591,Domain Road,Ruawai,
1786233,7681,Domain Road,Springfield,
1815309,3800,Domain Road,Te Awamutu,
1811884,4392,Domain Road,Toko,Stratford
3048887,9777,Domain Road,Upper Charlton,Gore
1806878,3610,Domain Road,Waihi,
1804287,4210,Domain Road,Waipawa,
1804234,4110,Domain Road,Westshore,Napier
1828348,2103,Domain Road,Weymouth,Auckland
1809552,3120,Domain Road,Whakatane,
1821848,0624,Domain Street,Devonport,Auckland
1804637,4977,Domain Street,Ormondville,
1799441,4410,Domain Street,Palmerston North,
1827562,2123,Domain Street,Waiuku,
1811914,4396,Domain Street,Whangamomona,Stratford
1783102,8024,Domain Terrace,"Hillmorton,Spreydon",Christchurch
1789479,7805,Domain Terrace,Karoro,Greymouth
1841135,7402,Domain Terrace,Waikuku Beach,
1814356,3204,Domain View Lane,Frankton,Hamilton
1794571,6023,Domanski Crescent,Owhiro Bay,Wellington
3078012,0981,Dome Lane,Warkworth,
1830969,0931,Doment Crescent,Orewa,
3046136,9812,Dome Street,"Georgetown,Newfield",Invercargill
1831504,1023,Domett Avenue,Epsom,Auckland
1790680,7802,Domett Esplanade,Cobden,Greymouth
3053789,7382,Domett Road,"Cheviot,Domett,Lowry Hills Range","Cheviot,Domett"
1770777,9494,Domett Road,Otiake,Duntroon
1804235,4110,Domett Street,Ahuriri,Napier
3003162,7193,Domett Street,Bulwer,Marlborough Sounds
1809803,3127,Domett Street,Kawerau,
1797422,4777,Domett Street,Kiwitea,Feilding
1805502,4198,Domett Street,Mahia,
1781987,7010,Domett Street,Nelson,
1801739,6037,Domett Street,Newlands,Wellington
3077544,6037,Domett Street,Newlands,Wellington
1818130,4616,Domett Street,Opunake,
1817253,4320,Domett Street,Waitara,
1783092,8023,Domett Street,Waltham,Christchurch
1789524,7825,Domett Street,Westport,
1802229,4010,Domett Street,Whataupoko,Gisborne
1772641,9011,Domigan Street,Brockville,Dunedin
1802231,4010,Dominey Street,Inner Kaiti,Gisborne
1794220,6037,Dominica Crescent,Grenada Village,Wellington
3077950,8025,Dominico Lane,Wigram,Christchurch
1827034,2684,Dominikovich Road,Pollok,
1815273,3434,Dominion Avenue,Cambridge,
1783096,8024,Dominion Avenue,"Somerfield,Spreydon,Sydenham",Christchurch
1794221,6011,Dominion Avenue,Wellington Central,Wellington
1794213,6037,Dominion Park Street,Johnsonville,Wellington
3021455,,Dominion Road,"Eden Terrace,Kingsland,Mount Eden,Mount Roskill",Auckland
1820250,0410,Dominion Road,Kaitaia,
3021449,7975,Dominion Road,"Kerrytown,Levels",Timaru
3021450,7173,Dominion Road,"Mahana,Mapua","Mapua,Upper Moutere"
1807117,3200,Dominion Road,Nawton,Hamilton
1818784,2110,Dominion Road,"Papakura,Red Hill",Papakura
1826574,0178,Dominion Road,Portland,Whangarei
1802232,4010,Dominion Road,Te Hapara,Gisborne
1826948,2121,Dominion Road,Tuakau,
3037350,7973,Dominion Road East,"Kerrytown,Seadown","Seadown,Timaru"
1825210,1041,Dominion Road Extension,Mount Roskill,Auckland
1822274,0622,Dominion Street,Takapuna,Auckland
1825621,1081,Donald Bruce Road,"Putiki Bay,Surfdale",Waiheke Island
1789709,7096,Donald Creek Road,Tapawera,Wakefield
1794211,6012,Donald Crescent,Karori,Wellington
1825212,1041,Donald Crescent,Mount Roskill,Auckland
3004801,7972,Donald Fraser Road,"Pareora West,Southburn","Southburn,Timaru"
3078048,2578,Donald Gavin Way,Paerata,Pukekohe
1815272,3434,Donald Lane,Cambridge,
1990636,7630,Donald Lane,Kaiapoi,
1832520,0410,Donald Lane,Kaitaia,
1800455,6021,Donald McLean Street,Newtown,Wellington
1839409,4120,Donald Place,Frimley,Hastings
1786718,8014,Donald Place,St Albans,Christchurch
1829692,0993,Donald Place,Stillwater,Silverdale
1777405,9893,Donald Road,Edendale,
1830006,0410,Donald Road,Kaitaia,
3043342,9775,Donald Road,"Maitland,Merino Downs,Waikaka Valley,Waikoikoi",Gore
1777402,9874,Donald Road,Otahuti,Invercargill
1777786,9600,Donald Ross Place,Te Anau,
1773275,9085,Donalds Hill Road,Mount Cargill,Waitati
1827608,0793,Donaldson Drive,Coatesville,
1789484,7872,Donaldson Road,Arnold Valley,
1819786,0475,Donaldson Road,Okaihau,
3028066,8016,Donaldsons Road,Chatham Island,Chatham Islands
3000452,5771,Donalds Road,Lake Reserve,Featherston
1795185,5888,Donalds Road,Upper Plain,Masterton
1795412,5791,Donald Street,Clareville,Carterton
1793350,5710,Donald Street,"Featherston,South Featherston",Featherston
1794230,6012,Donald Street,Karori,Wellington
1772639,9011,Donald Street,Kenmure,Dunedin
1786148,8082,Donald Street,Lyttelton,
1782166,7980,Donald Street,Morven,Waimate
1826195,0112,Donald Street,Regent,Whangarei
1829984,0932,Donald Street,Stanmore Bay,Whangaparaoa
1779494,7920,Donald Street,Temuka,
1786679,7614,Donatello Drive,Rolleston,
2005894,3172,Don Boyes Way,Whakamarama,
3064098,0614,Don Buck Road,"Henderson,Massey,Westgate",Auckland
1853330,7608,Doncaster Avenue,Lincoln,
1840188,4412,Doncaster Court,Awapuni,Palmerston North
1809344,3118,Doncaster Drive,Papamoa Beach,Papamoa
1794120,7400,Doncaster Place,Rangiora,
1828533,2022,Doncaster Street,Mangere,Auckland
1786885,8042,Doncaster Street,Sockburn,Christchurch
1786480,7910,Doncaster Street,Washdyke,Timaru
1791801,5024,Doncaster Terrace,Ascot Park,Porirua
1824921,,Don Croot Street,Morningside,Auckland
1805348,4112,Donegal Crescent,Tamatea,Napier
1792800,5018,Donegal Grove,Birchville,Upper Hutt
1830396,2019,Donegal Park Drive,Flat Bush,Auckland
1815487,3129,Donegal Place,Katikati,
1831506,0600,Donegal Street,Avondale,Auckland
1784539,8051,Donegal Street,Belfast,Christchurch
1770994,9310,Donegal Street,Cromwell,
1827695,2112,Donegan Place,Conifer Grove,Takanini
1785923,7986,Donehue Road,Clandeboye,Temuka
1785843,3119,Donelle Place,Te Puke,
1813607,3110,Doneraille Place,Bethlehem,Tauranga
1804635,4977,Donghi Road,Ormondville,
3077904,5018,Don Griffin Grove,"Silverstream,Trentham",Upper Hutt
1781645,7991,Donkin Road,Woodbury,Geraldine
1800035,5026,Donlin Road,Pukerua Bay,Porirua
3081410,2583,Don Mackinnon Way,Hunua,
1830125,0632,Don McKinnon Drive,Albany,Auckland
3083968,0185,Don Meara Lane,Kauri,
3083854,5018,Don Money Street,"Trentham,Wallaceville",Upper Hutt
1802230,4010,Donna Street,Outer Kaiti,Gisborne
1828524,2024,Donnell Avenue,Favona,Auckland
1793452,5014,Donnelley Drive,Wainuiomata,Lower Hutt
1798548,4891,Donnelly Road,Foxton,
1774786,9376,Donnelly Road,Omakau,
1819196,0379,Donnellys Station Road,Donnellys Crossing,
1803473,4130,Donnelly Street,Havelock North,
1817254,4314,Donnelly Street,Oakura,
3025297,1072,Donnelly Street,Stonefields,Auckland
1807004,3610,Donnelly Street,Waihi,
1810154,3010,Donne Street,Glenholme,Rotorua
2010948,8083,Donne Street,Marshland,Christchurch
1813919,3110,Donnington Place,Bethlehem,Tauranga
1784542,8083,Donnington Street,"North New Brighton,Parklands",Christchurch
1777803,9635,Donnington Street,Ohai,
1799448,4410,Donnington Street,Palmerston North,
1782167,7977,Donnithornes Road,Waihaorunga,Waimate
1825817,1060,Donnor Place,Mount Wellington,Auckland
1814357,3210,Donny Avenue,Chartwell,Hamilton
3077960,2019,Donnybrook Road,Flat Bush,Auckland
1790361,7885,Donoghues Road,Ross,
3012497,0874,Donohue Road,"South Head,Woodhill Forest",South Head
3083397,0602,Don Oliver Lane,Glen Eden,Auckland
1823226,0614,Donovan Avenue,Massey,Auckland
3009636,7886,Donovan Drive,Franz Josef/Waiau,
1840624,8025,Donovan Place,Aidanfield,Christchurch
1796130,5032,Donovan Road,Paraparaumu Beach,Paraparaumu
1795184,5882,Donovans Road,Kopuaranga,Masterton
1786055,7582,Donovans Road,Wainui,French Farm
1818785,0600,Donovan Street,Blockhouse Bay,Auckland
1788075,7830,Donovan Street,Reefton,
1808727,3119,Donovan Street,Te Puke,
1770870,9320,Don Place,Alexandra,
1828357,2023,Don Place,Otara,Auckland
1843018,9085,Dons Creek Road,Waitati,
1775314,9591,Don Street,Beaumont,Lawrence
1770780,9494,Don Street,Georgetown,Oamaru
1776453,9810,Don Street,"Invercargill,Richmond",Invercargill
1794236,6023,Don Street,Island Bay,Wellington
1774596,9400,Don Street,Oamaru North,Oamaru
1827884,2110,Don Street,Papakura,
1788076,7830,Don Street,Reefton,
1777398,9831,Don Street,Wyndham,
1827696,2112,Donzella Place,Conifer Grove,Takanini
1777389,9776,Dooley Road,Kingston Crossing,Riversdale
1823222,0614,Doone Place,Massey,Auckland
1816988,4310,Doone Street,Lynmouth,New Plymouth
3065986,9291,Doon Flats Road,"Berwick Forest,Table Hill","Milton,Outram"
3037274,5024,Doon Grove,Papakowhai,Porirua
1829845,0294,Doonside Road,Kerikeri,
1787208,7925,Doon Street,Fairlie,
1776441,9810,Doon Street,"Invercargill,Queens Park",Invercargill
1772837,9024,Doon Street,Mosgiel,
1774597,9400,Doon Street,Oamaru North,Oamaru
1771012,9398,Doon Street,Orangapai,Ranfurly
3004667,9013,Doon Street,"Vauxhall,Waverley",Dunedin
3018924,8042,Doppler Place,Wigram,Christchurch
1816982,4310,Doralto Road,Frankleigh Park,New Plymouth
1789711,7020,Doran Street,Richmond,
1822806,0612,Dora Street,Henderson,Auckland
1832716,1060,Doraval Place,Mount Wellington,Auckland
1815552,3200,Dorchester Place,Nawton,Hamilton
1792665,0931,Dorchester Place,Orewa,
3024118,1072,Dorchester Street,"Meadowbank,Saint Johns",Auckland
1824922,1025,Doreen Avenue,Mount Albert,Auckland
1783095,8061,Doreen Street,Aranui,Christchurch
3078780,1072,Doreen Williams Way,Glen Innes,Auckland
1828538,2103,Dorendia Place,Clendon Park,Auckland
1784543,8042,Dorfold Mews,Avonhead,Christchurch
1986956,8042,Doric Way,Islington,Christchurch
3018452,3200,Doriemus Drive,Te Rapa,Hamilton
1780916,7781,Dorie School Road,Dorie,
1785754,8971,Doris Faigan Lane,Charteris Bay,Governors Bay
1800453,6035,Doris Gordon Crescent,Crofton Downs,Wellington
3084544,0230,Doris Lane,Kerikeri,
1819425,0505,Doris Street,Mangawhai Heads,Mangawhai
1788796,7020,Doris Street,Richmond,
1778240,9600,Dorizac Place,Te Anau,
1794212,6021,Dorking Road,Brooklyn,Wellington
1800452,6037,Dormar Place,Churton Park,Wellington
1821303,0875,Dormer Road,Kaukapakapa,
3055018,8053,Dormer Street,"Papanui,Strowan",Christchurch
3071782,2402,Dornal Place,Pokeno,
1774503,9679,Dorna Street,Fiordland National Park,
1818523,0986,Dornie Place,Omaha,
1839745,3300,Dornoch Lane,Morrinsville,
3013612,5024,Dornoch Place,Papakowhai,Porirua
1772634,9012,Dornoch Street,Kew,Dunedin
1773283,9510,Dornoch Street,Waikouaiti,
1831665,1041,Dornwell Road,"Mount Roskill,Three Kings",Auckland
1805524,7010,Dorothy Annie Way,Nelson,
1812558,3330,Dorothy Drive,Acacia Bay,Taupo
1790356,7881,Dorothy Falls Road,Kokatahi,
1803830,4104,Dorothy Place,Bay View,Napier
1807120,3216,Dorothy Place,Hillcrest,Hamilton
1823225,0604,Dorothy Road,Laingholm,Auckland
1842246,7671,Dorothys Way,West Melton,
3082143,0600,Dorothy Thorpe Way,New Lynn,Auckland
3084495,7676,Dorper Road,West Melton,
3078705,0616,Dorricott Avenue,Hobsonville,Auckland
1828539,2012,Dorrington Place,Eastern Beach,Auckland
1828541,2014,Dorrit Lane,Howick,Auckland
3078019,3510,Dorsal Close,Whitianga,
3063943,4310,Dorset Avenue,"Lynmouth,New Plymouth,Westown",New Plymouth
1799424,4410,Dorset Crescent,Hokowhitu,Palmerston North
3084273,2580,Dorset Down Drive,Karaka,Papakura
3080618,7510,Dorset Drive,Darfield,
1792126,5024,Dorset Grove,Cannons Creek,Porirua
1805345,4112,Dorset Place,Tamatea,Napier
3035072,5887,Dorset Road,"East Taratahi,Parkvale",Carterton
1817252,4372,Dorset Road,Hillsborough,New Plymouth
1796722,4501,Dorset Road,Springvale,Whanganui
3040113,5882,Dorsets Road,"Mauriceville,Rangitumau","Masterton,Mauriceville"
1772647,9011,Dorset Street,Balaclava,Dunedin
1783090,8013,Dorset Street,Christchurch Central,Christchurch
1786099,7334,Dorset Street,Hanmer Springs,
1775847,9793,Dorset Street,Kingston,
1798510,5510,Dorset Street,Levin,
1776031,9712,Dorset Street,Mataura,
1777798,9792,Dorset Street,Mossburn,
1817278,4616,Dorset Street,Opunake,
1778861,9881,Dorset Street,Orepuki,Riverton/Aparima
1817627,4520,Dorset Street,Patea,
1791332,7220,Dorset Street,Picton,
1788786,7020,Dorset Street,Richmond,
3006725,9522,Dorset Street,Tapanui,
1824338,1022,Dorset Street,Westmere,Auckland
1778782,9877,Dorset Street,Woodend,Invercargill
1794228,6012,Dorset Way,Wilton,Wellington
1835090,2578,Dorsyd Way,Runciman,Drury
1828529,2023,Dosina Place,Flat Bush,Auckland
3081992,0171,Dotterel Drive,Ruakaka,
3083228,9310,Dotterel Lane,Cromwell,
1842674,0986,Dotterel Lane,Point Wells,
1798041,3112,Dotterel Place,Pyes Pa,Tauranga
3082705,0614,Dotterel Place,Westgate,Auckland
1838667,3510,Dotterel Place,Whitianga,
1833350,0930,Double Bay Place,Army Bay,Whangaparaoa
1803349,8972,Double Bay Road,"Pigeon Bay,Port Levy","Diamond Harbour,Pigeon Bay"
1840093,3112,Double Bay Road,Pyes Pa,Tauranga
3035152,9371,Double Cone Road,Jacks Point,Queenstown
1779764,7481,Double Corner Road,Amberley,
3046061,7282,Double Cove,Double Cove,Marlborough Sounds
1784929,7691,Doubledays Road,Kaiapoi,
1770772,9495,Double Hill Road,Herbert,
1773280,9085,Double Hill Road,"Upper Waitati,Waitati",Waitati
3054007,,Double Hill Run Road,"Double Hill,Mount Hutt",Methven
3083791,3600,Double Oaks Drive,Paeroa,
1777799,9792,Double Road,Castlerock,Lumsden
3082656,9304,Double Rock Lane,Lake Hayes,Queenstown
1779940,7385,Double Tops Road,MacDonald Downs,Hawarden
1820394,0483,Doubtless Bay Drive,Karikari Peninsula,
1813013,3882,Douch Road,Ohaupo,
1780044,7472,Douds Road,Sefton,
1825208,1041,Doug Goodwin Place,Mount Roskill,Auckland
1788792,7077,Doughboy Road,"Murchison,Shenandoah",Murchison
1836038,7881,Doughboy Road North,Kokatahi,
1836037,7881,Doughboy Road South,Kokatahi,
1799724,4410,Dougherty Place,Hokowhitu,Palmerston North
1774751,9395,Dougherty Road,Gimmerburn,Ranfurly
3055620,4984,Doughertys Road,"Eketahuna,Pahiatua",
1828531,2023,Doughty Place,Otara,Auckland
3083376,5018,Doug Jensen Street,"Trentham,Wallaceville",Upper Hutt
1830106,0632,Douglas Alexander Parade,Rosedale,Auckland
1771434,9302,Douglas Avenue,Arrowtown,
1831609,1025,Douglas Avenue,Mount Albert,Auckland
1812920,3800,Douglas Avenue,Te Awamutu,
1807121,3214,Douglas Crescent,Fairfield,Hamilton
1842832,7700,Douglas Drive,Allenton,Ashburton
3004646,7886,Douglas Drive,Franz Josef/Waiau,
1804236,4110,Douglas McLean Avenue,Marewa,Napier
1811915,4392,Douglas North Road,Huiroa,Stratford
1810891,3700,Douglas Place,Huntly,
1809343,3118,Douglas Place,Papamoa Beach,Papamoa
1786115,,Douglas Road,"Amberley,Broomfield",
1774459,9291,Douglas Road,Circle Hill,Milton
1788078,7895,Douglas Road,Cronadun,Reefton
1817931,4392,Douglas Road,"Douglas,Huiroa",Stratford
1788789,7096,Douglas Road,Golden Downs,Wakefield
1790693,7885,Douglas Road,Kakapotahi,Ross
1813268,2696,Douglas Road,Mercer,
1788790,7196,Douglas Road,Motueka,
1825120,1024,Douglas Road,Mount Eden,Auckland
1811614,3471,Douglas Road,Okauia,Matamata
1827026,2684,Douglas Road,Pollok,
1805577,4178,Douglas Road,Poukawa,
1831976,2120,Douglas Road,Pukekohe,
1805724,4274,Douglas Road,Tikokino,
1805737,4200,Douglas Road,Waipukurau,
1789506,7011,Douglas Road,Wakatu,Nelson
3078063,5026,Douglass Close,Plimmerton,Porirua
1800979,4476,Douglas Square,Rongotea,
1773281,9092,Douglas Street,Allanton,Mosgiel
1775465,9230,Douglas Street,Balclutha,
1774856,9300,Douglas Street,Frankton,Queenstown
3050141,9810,Douglas Street,"Grasmere,Prestonville",Invercargill
1824346,1021,Douglas Street,"Grey Lynn,Ponsonby",Auckland
1817595,4610,Douglas Street,Hawera,
3050147,7910,Douglas Street,"Highfield,Waimataitai",Timaru
1831846,0112,Douglas Street,Kensington,Whangarei
1801158,5510,Douglas Street,Levin,
1780239,7608,Douglas Street,Lincoln,
1794235,6021,Douglas Street,Mount Cook,Wellington
1808253,3188,Douglas Street,Ngawaro,Hamurana
1801932,4010,Douglas Street,Okitu,Gisborne
1777406,9875,Douglas Street,Otara,Tokanui
1796066,5032,Douglas Street,Paraparaumu Beach,Paraparaumu
1785371,7400,Douglas Street,Rangiora,
1775096,9012,Douglas Street,Saint Kilda,Dunedin
1814854,3015,Douglas Street,Springfield,Rotorua
1787237,7420,Douglas Street,Waikari,
1793246,5010,Douglas Street,Waiwhetu,Lower Hutt
1799413,4412,Douglas Street,West End,Palmerston North
1809555,3120,Douglas Street,Whakatane,
3050149,8042,Douglas Street,Wigram,Christchurch
1778048,9720,Douglas Street,Winton,
1770175,9400,Douglas Terrace,Oamaru,
3082658,9304,Douglasvale Rise,Lake Hayes,Queenstown
3079882,9305,Doug Ledgerwood Drive,Wanaka,
1809804,3127,Doug Wilson Crescent,Kawerau,
1794219,6021,Douro Avenue,Newtown,Wellington
1790952,7201,Douslin Place,Witherlea,Blenheim
1791321,7178,Douslins Gully Road,Havelock,
1782168,7977,Douthwaites Road,Waihaorunga,Waimate
1772088,9012,Dovecote Avenue,Corstorphine,Dunedin
1784540,8041,Dovedale Avenue,Ilam,Christchurch
1807123,3204,Dovedale Place,Dinsdale,Hamilton
1832989,1010,Dovedale Place,Parnell,Auckland
3006698,7096,Dovedale Road,"Dovedale,Thorpe,Woodstock","Motueka,Wakefield"
1944141,8025,Dove Grove,Westmorland,Christchurch
3084052,0230,Dove Lane,Kerikeri,
1770173,9401,Dove Place,Holmes Hill,Oamaru
1795308,3112,Dove Place,Pyes Pa,Tauranga
1838729,0632,Dove Place,Schnapper Rock,Auckland
1799080,4720,Dove Place,Taihape,
1799422,4412,Dove Place,Westbrook,Palmerston North
1808835,3116,Dover Place,Mount Maunganui,
1824343,1050,Dover Place,Remuera,Auckland
1800587,5810,Dover Place,Solway,Masterton
1803229,4120,Dover Road,Flaxmere,Hastings
1817255,4374,Dover Road,Okato,
1807124,3200,Dover Road,St Andrews,Hamilton
1793450,5014,Dover Road,Wainuiomata,Lower Hutt
1777396,9825,Dover Street,Edendale,
1816557,4372,Dover Street,Egmont Village,
1772767,9397,Dover Street,Hyde,Kyeburn
1794233,6023,Dover Street,Island Bay,Wellington
1786116,7481,Dover Street,Leithfield,
1798505,5510,Dover Street,Levin,
1772099,9010,Dover Street,Liberton,Dunedin
1776032,9712,Dover Street,Mataura,
1777797,9881,Dover Street,Orepuki,Riverton/Aparima
1783079,8014,Dover Street,St Albans,Christchurch
1776736,9877,Dover Street,Woodend,Invercargill
1777796,9689,Dover Street,Wreys Bush,Otautau
1778070,9881,Dover Street West,Orepuki,Riverton/Aparima
1791382,7300,Dover Terrace,Kaikoura,
1819787,0294,Doves Bay Road,Kerikeri,
1833111,0614,Dovey Place,Massey,Auckland
3052184,9494,Doveys Road,"Island Cliff,Kokoamo","Duntroon,Oamaru"
3077670,5512,Dow Chung Place,Otaki,
3078914,9305,Dow Close,Wanaka,
1989119,0618,Dowdens Lane,Hobsonville,Auckland
1817256,4320,Dowding Place,Waitara,
1780921,7773,Dowdings Road,Coldstream,Ashburton
1807125,3206,Dowding Street,Melville,Hamilton
1830380,2019,Dowd Place,Flat Bush,Auckland
1792799,5019,Dowling Grove,Silverstream,Upper Hutt
1832249,2010,Dowling Place,Pakuranga,Auckland
1777394,9871,Dowling Road,Longbush,Invercargill
3051476,7805,Dowling Road,Paroa,Greymouth
1771015,9395,Dowling Road,Ranfurly,
1772086,9016,Dowling Street,Dunedin Central,Dunedin
1836636,3119,Dowman Place,Te Puke,
1816430,4375,Dowman Street,Urenui,
3067941,3191,Downard Road,White Pine Bush,Whakatane
1821297,0873,Downer Access Road,Kaukapakapa,
1820700,0800,Downer Street,Helensville,
1793245,5010,Downer Street,Hutt Central,Lower Hutt
1796725,4501,Downes Avenue,Springvale,Whanganui
1772846,9023,Downes Road,Roseneath,Dunedin
1812921,3800,Downes Street,Te Awamutu,
3039962,5022,Downes Street,Titahi Bay,Porirua
1818084,4310,Downe Street,New Plymouth,
1802354,3199,Downey Road,Hicks Bay,
1804964,4274,Downey Road,Tikokino,
1788074,7895,Downey Street,Waiuta,Reefton
1784113,7674,Downies Road,Halswell,Christchurch
1805656,4112,Downing Avenue,Pirimai,Napier
1778270,9600,Downing Lane,Te Anau,
1815435,3112,Downing Place,Welcome Bay,Tauranga
1794227,6035,Downing Street,Crofton Downs,Wellington
1822272,0629,Downing Street,Glenfield,Auckland
1783106,8025,Downing Street,Hoon Hay,Christchurch
3034873,9822,Downing Street,Riverton/Aparima,
1799433,4412,Downing Street,Takaro,Palmerston North
3077972,2019,Downpatrick Drive,Flat Bush,Auckland
1787019,7472,Downs Road,Ashley,Rangiora
3002291,7476,Downs Road,"Eyrewell,West Eyreton",West Eyreton
1781640,,Downs Road,"Geraldine,Geraldine Downs",Geraldine
1797454,4891,Downs Road,"Glen Oroua,Himatangi",
1780430,7572,Downs Road,"Glentunnel,Hororata",
1827033,2583,Downs Road,Hunua,
3002293,7381,Downs Road,"Lowry Hills Range,Spotswood",Cheviot
1778737,9774,Downs Road North,Te Tipua,Mataura
3020320,9774,Downs Road South,"Brydone,Edendale,Te Tipua","Edendale,Mataura"
1770923,9310,Down Street,Cromwell,
1777388,9730,Down Street,Lumsden,
1792128,5026,Downs View Place,Pukerua Bay,Porirua
3024446,2010,Downsview Road,"Pakuranga,Pakuranga Heights",Auckland
3023445,9073,Dow Road,"Momona,Woodside","Mosgiel,Outram"
1793103,5010,Dowse Drive,"Maungaraki,Normandale",Lower Hutt
1773543,9220,Dowsing Street,Milton,
1837902,0573,Dowson Place,Kaiwaka,
3004400,8025,Dow Square,Wigram,Christchurch
1950455,3171,Doyle Lane,Pyes Pa,Tauranga
1783089,8061,Doyle Place,Avondale,Christchurch
1787588,7972,Doyle Road,Adair,Timaru
3009404,7472,Doyles Road,Loburn,
1790290,7805,Doyle Street,Blaketown,Greymouth
1776262,9814,Doyle Street,Bluff,
1821246,0932,D'Oyly Drive,Stanmore Bay,Whangaparaoa
3034243,3118,Drabble Crescent,Papamoa Beach,Papamoa
1826576,0179,Draffin Road,Poroti,Whangarei
1781646,7985,Draffin Road,Waitohi,Temuka
1777411,9778,Drage Road,Waikaia,
3078735,0614,Dragonfly Way,Massey,Auckland
1794217,5028,Dragon Street,Grenada North,Wellington
1811250,3782,Drag Way,Whangamarino,Te Kauwhata
3030346,7682,Drain Road,"Doyleston,Leeston",
3030344,9874,Drain Road,"Five Roads,Otahuti",Invercargill
1786364,7773,Drain Road,Lowcliffe,Ashburton
1841974,4110,Drake Crescent,Awatoto,Napier
1813750,3214,Drake Place,Fairview Downs,Hamilton
3017545,9382,Drake Place,Lake Hawea,
1811271,3782,Drake Road,Maramarua Forest,Te Kauwhata
3066126,0176,Drake Road,Purua,Whangarei
3025019,9871,Drakes Hill Road,"Morton Mains,Oteramika","Invercargill,Wyndham"
1824341,1010,Drake Street,Auckland Central,Auckland
1799427,4412,Drake Street,Awapuni,Palmerston North
1832144,2014,Drake Street,"Cockle Bay,Howick",Auckland
1789381,7872,Drake Street,Dunganville,Arnold Valley
1797242,4702,Drake Street,Feilding,
1794226,6021,Drake Street,Hataitai,Wellington
1798508,5510,Drake Street,Levin,
1783087,8061,Drake Street,New Brighton,Christchurch
1816984,4310,Drake Street,Vogeltown,New Plymouth
1798082,5573,Drake Street,Waikawa Beach,Manakau
3080320,0510,Dram Way,Waipu,
1794210,6021,Dransfield Street,Vogeltown,Wellington
1811272,3781,Draper Road,Waerenga,Te Kauwhata
1783108,8013,Draper Street,Richmond,Christchurch
1835962,0632,Draycott Lane,Rosedale,Auckland
3082971,8025,Dray Place,Halswell,Christchurch
1783078,8081,Drayton Drive,Mount Pleasant,Christchurch
1799414,4412,Drayton Place,Highbury,Palmerston North
1812733,3432,Drayton Place,Leamington,Cambridge
1786322,7782,Drayton Road,Methven,
3081742,7020,Drayton Street,"Appleby,Richmond",Richmond
1800825,4691,Dreadnought Road,"Ohakune,Rangataua",Ohakune
1829499,2025,Dreadon Avenue,Papatoetoe,Auckland
1828535,2102,Dreadon Road,Manurewa,Auckland
1818786,0592,Dreadon Road,Ruawai,
3083575,0173,Dreamstay Way,Matapouri,Whangarei
1986470,4320,Dreaver Drive,Waitara,
3078979,0630,Dreaver Way,Sunnynook,Auckland
1789347,7872,Dredge Road,Ngahere,
1812235,3420,Dreghorn Place,Tokoroa,
1828523,2024,Dreifuss Place,Mangere East,Auckland
1789415,7872,Drennans Road,Ngahere,
1799653,4410,Dresdan Court,Hokowhitu,Palmerston North
1838726,0632,Dressage Lane,Greenhithe,Auckland
1791878,6037,Dress Circle,Newlands,Wellington
1841774,4817,Drew Lane,Sanson,
1796728,4500,Drews Avenue,Whanganui,
1831686,1041,Drew Street,Mount Roskill,Auckland
1795266,5882,Dreyers Rock Road,"Mauriceville,Whangaehu Valley","Masterton,Mauriceville"
1774422,9371,Drift Bay Road,Wye Creek,Queenstown
1836107,0932,Driftwood Drive,Red Beach,
1830811,0494,Driftwood Lane,Hihi,Mangonui
1785755,8083,Driftwood Lane,Waimairi Beach,Christchurch
1837103,0505,Driftwood Place,Mangawhai Heads,Mangawhai
1840615,3118,Driftwood Way,Papamoa Beach,Papamoa
1830966,0871,Drinnan Road,Waitoki,
1831905,0172,Drinnon Road,Parakao,Whangarei
1818679,2010,Driscoll Place,Farm Cove,Auckland
3015582,7974,Driscoll Road,"Kerrytown,Levels Valley",Timaru
1795410,5883,Driscoll Road,Te Wharau,Masterton
1785897,7771,Driscolls Road,Greenstreet,Ashburton
1784928,7692,Driscolls Road,Swannanoa,
1792129,5024,Driver Crescent,Cannons Creek,Porirua
1774512,9073,Driver Road,Clarendon,Milton
1828544,2024,Driver Road,Mangere East,Auckland
3071226,3791,Driver Road,"Ngaruawahia,Taupiri",
1819161,0372,Driver Road,Tangowahine,Dargaville
1814064,3281,Driver Road West,Ngaruawahia,
1771268,9330,Drivers Rest,Clyde,
3006313,9010,Drivers Road,"Maori Hill,North Dunedin,Roslyn",Dunedin
3073353,9081,Driver Street,Long Beach,Port Chalmers
1813387,3506,Driving Creek Road,Coromandel,
3082318,5810,Driving Range Road,Solway,Masterton
1815596,3289,Dromara Drive,Rotokauri,Hamilton
1821715,0626,Drome View Place,Beach Haven,Auckland
1827522,2121,Dromgools Road,Tuakau,
1841470,2019,Dromoland Drive,Flat Bush,Auckland
1832577,2016,Dromora Close,Dannemora,Auckland
3070059,7772,Dromore Hatfield Road,"Chertsey,Dromore,Hatfield,Rakaia","Ashburton,Rakaia"
3047820,7772,Dromore Methven Road,"Dromore,Lauriston,Mitcham,Winchmore","Ashburton,Lauriston"
1780919,7772,Dromore Station Road,Dromore,Ashburton
1831505,1050,Dromorne Road,Remuera,Auckland
3077545,2019,Drover Close,Flat Bush,Auckland
3082246,7775,Drovers Lane,Tinwald,Ashburton
3078596,4120,Drovers Way,Frimley,Hastings
3078191,0820,Drovers Way,Riverhead,
1841492,3210,Drower Glen,Flagstaff,Hamilton
1823223,0614,Drower Road,Swanson,Auckland
1799435,4410,Droylsden Place,Palmerston North,
1828534,2102,Dr Pickering Avenue,Manurewa,Auckland
1802902,3197,Dr Reid Road,Otara,Opotiki
1794224,6037,Dr Taylor Terrace,Johnsonville,Wellington
1804838,4997,Druce Road,Kumeroa,
1828537,2104,Druces Road,Wiri,Auckland
1779519,7395,Druids Road,Emu Plain,Waiau
3080853,2019,Drumaness Road,Flat Bush,Auckland
1837795,2019,Drumbeg Close,Flat Bush,Auckland
1981809,2019,Drumbuoy Drive,Flat Bush,Auckland
1773358,9230,Drumclog Street,Balclutha,
2010161,2019,Drumconnell Drive,Flat Bush,Auckland
1981816,2019,Drumfad Road,Flat Bush,Auckland
1814085,3210,Drumfearn Place,Rototuna,Hamilton
1771011,9397,Drumglass Street,Ranfurly,
1841166,2113,Drumkeen Place,Rosehill,Papakura
3029222,7772,Drummond and Etheridge Walk,Newland,Ashburton
1793247,5010,Drummond Crescent,Kelson,Lower Hutt
1830196,0612,Drummond Drive,Ranui,Auckland
3062147,9783,Drummond Heddon Bush Road,"Drummond,Heddon Bush",Winton
3002069,9683,Drummond Oreti Road,"Drummond,Oreti Plains",Winton
1788788,7175,Drummond Road,Lower Moutere,
1834653,3288,Drummond Road,Whatawhata,Hamilton
1788794,7096,Drummonds Road,Tapawera,Wakefield
1800980,4476,Drummond Street,Awahuri,Palmerston North
1804713,4930,Drummond Street,Dannevirke,
1797828,4900,Drummond Street,Eketahuna,
1817990,3995,Drummond Street,Matiere,
1794225,6021,Drummond Street,Mount Cook,Wellington
1772093,9016,Drummond Street,North Dunedin,Dunedin
1831847,0112,Drummond Street,Regent,Whangarei
1783098,8023,Drummond Street,Sydenham,Christchurch
3080479,2019,Drumnaconagher Road,Flat Bush,Auckland
1804607,4276,Drumpeel Road,Otane,
1830328,2016,Drumquin Rise,Dannemora,Auckland
1838702,2019,Drumston Place,Flat Bush,Auckland
1827645,2577,Drury Hills Road,Drury,
1830940,0794,Drury Lane,"Dairy Flat,Riverhead",
1776439,9810,Drury Lane,Grasmere,Invercargill
1800269,5010,Drury Lane,Tirohanga,Lower Hutt
1799426,4412,Drury Street,Cloverlea,Palmerston North
1831241,0600,Drury Street,New Lynn,Auckland
1777787,9881,Drury Street East,Colac Bay/Oraka,Riverton/Aparima
1778068,9881,Drury Street West,Colac Bay/Oraka,Riverton/Aparima
1838765,3330,Drury Way,Rangatira Park,Taupo
1771264,9377,Drybread Road,"Drybread,Lauder",Omakau
1829500,2025,Dryden Avenue,Papatoetoe,Auckland
1839095,7614,Dryden Avenue,Rolleston,
3025520,7282,Dryden Bay,"Cherry Bay,Dryden Bay,Pukekoikoi,Snake Point",Marlborough Sounds
1815704,4414,Dryden Court,Kelvin Grove,Palmerston North
1825820,1051,Dryden Place,Mount Wellington,Auckland
1777788,9881,Dryden Road,Colac Bay/Oraka,Riverton/Aparima
1807127,3214,Dryden Road,Enderley,Hamilton
3028733,9010,Dryden Road,Leith Valley,Dunedin
1798634,4591,Dryden Road,Waverley,
1824345,1021,Dryden Street,Grey Lynn,Auckland
1775229,9220,Dryden Street,Milton,
1772839,9024,Dryden Street,Mosgiel,
1772107,9010,Dryden Street,"Normanby,North East Valley",Dunedin
1781988,7011,Dryden Street,Stoke,Nelson
1783104,8081,Dryden Street,Sumner,Christchurch
1802706,4010,Dryden Street,Whataupoko,Gisborne
3066545,9630,Dryfe Street,Nightcaps,
3081498,9305,Dry Fly Avenue,Wanaka,
1806993,7274,Dry Hills Lane,Riverlands,
1807025,7274,Dry Hills Rise,Riverlands,
3082875,7614,Drylands Drive,Rolleston,
1838938,0181,Dryland Track,Hikurangi,
1777274,9779,Dryridge Road,"Josephville,St Patricks",Balfour
1833545,9598,Dry Ridge Road,Middlemarch,
3007797,5781,Dry River Road,"Dyerville,Ruakokoputuna","Dyerville,Martinborough"
1788504,7073,Dry Road,"Kahurangi National Park,Mangarakau,Pakawau,Rakopi","Collingwood,Kahurangi National Park"
1842826,7020,Drysdale Close,Richmond,
1828526,2014,Drysdale Place,Somerville,Auckland
1777278,9893,Drysdale Road,"Ashers,Seaward Downs","Invercargill,Wyndham"
3081454,9371,Drysdale Road,Jacks Point,Queenstown
1776718,9872,Drysdale Road,"Myross Bush,Roslyn Bush",Invercargill
1784617,8053,Drysdale Street,Bishopdale,Christchurch
1824962,1025,Duart Avenue,Mount Albert,Auckland
1803481,4130,Duart Road,Havelock North,
1788797,7072,Dubbys Road,Atapo,St. Arnaud
1840787,9382,Dublin Bay Access Road,Albert Town,Wanaka
1771764,9382,Dublin Bay Road,Albert Town,Wanaka
3080668,7095,Dublin Road,Wakefield,
3034131,8013,Dublin Street,"Christchurch Central,Merivale",Christchurch
1805423,4930,Dublin Street,Dannevirke,
1771765,9382,Dublin Street,Hawea Flat,Lake Hawea
1779950,8082,Dublin Street,Lyttelton,
1793351,5711,Dublin Street,Martinborough,
1791333,7220,Dublin Street,Picton,
1827419,2120,Dublin Street,Pukekohe,
1771725,9300,Dublin Street,Queenstown,
1776434,9810,Dublin Street,"Richmond,Windsor",Invercargill
1824342,1011,Dublin Street,Saint Marys Bay,Auckland
1793451,5014,Dublin Street,Wainuiomata,Lower Hutt
1796726,4500,Dublin Street,"Whanganui,Whanganui East",Whanganui
3032632,9016,Duchess Avenue,"North Dunedin,Roslyn",Dunedin
1803291,4122,Duchess Crescent,Mayfair,Hastings
1785666,8025,Duchess Lane,Halswell,Christchurch
1794229,6022,Duchess Place,Maupuia,Wellington
1777807,9635,Duchess Street,Ohai,
2009016,0820,Duchess Way,Riverhead,
1821153,0993,Duck Creek Road,Stillwater,Silverdale
1821151,0982,Duck Creek Road,Warkworth,
1780249,7672,Duck Pond Road,Motukarara,Tai Tapu
1811416,3289,Duck Road,"Rotokauri,Te Kowhai",Hamilton
1805347,4112,Duckworth Crescent,Greenmeadows,Napier
1827892,2110,Duckworth Road,Papakura,
1774932,9013,Duckworth Street,Andersons Bay,Dunedin
1822123,0627,Dudding Avenue,Northcote,Auckland
1795529,5771,Duddings Line,Tauwharenikau,Tauherenikau
1772087,9010,Duddingstone Steps,North East Valley,Dunedin
1786163,7591,Duddons Track,Little River,
1820129,0473,Duddy Road,"Omanaia,Rawene",Kaikohe
1821847,0624,Duders Avenue,Devonport,Auckland
1773541,9220,Dudgeon Street,Milton,
1810892,3700,Dudley Avenue,Huntly,
1830812,0420,Dudley Crescent,Cable Bay,
1774933,9010,Dudley Place,Maori Hill,Dunedin
1826194,0110,Dudley Place,Raumanga,Whangarei
1810156,3096,Dudley Road,Hamurana,
1779949,8082,Dudley Road,Lyttelton,
1824337,1071,Dudley Road,Mission Bay,Auckland
3061416,4386,Dudley Road Lower,Inglewood,
1817862,4386,Dudley Road Upper,"Inglewood,Kaimiro",
1783083,8013,Dudley Street,"Edgeware,Richmond",Christchurch
3062287,9810,Dudley Street,"Grasmere,Prestonville",Invercargill
1793250,5010,Dudley Street,Hutt Central,Lower Hutt
1798460,5510,Dudley Street,Levin,
1777789,9881,Dudley Street,Orepuki,Riverton/Aparima
1778875,9874,Dudley Street,Waianiwa,Invercargill
1778069,9881,Dudley Street East,Orepuki,Riverton/Aparima
1807128,3204,Dudley Terrace,Frankton,Hamilton
1808287,3182,Dudley Vercoe Drive,Te Puke,
1791733,5713,Dudson Place,Carterton,
3001863,7999,Du Faur Place,Aoraki/Mount Cook National Park,
1784109,8042,Dufek Crescent,"Hornby,Wigram",Christchurch
1799425,4412,Duff Crescent,Highbury,Palmerston North
1805115,4122,Dufferin Street,Akina,Hastings
3025503,6021,Dufferin Street,"Mount Cook,Mount Victoria",Wellington
1790582,7882,Duffers Creek Road,Awatuna,Hokitika
1806783,3576,Duffin Road,Waitakaruru,Ngatea
1775087,9024,Duff Place,Mosgiel,
1779516,7392,Duff Road,Balmoral,
1773994,9587,Duff Road,Edievale,Tapanui
1803622,4171,Duff Road,"Kereru,Tikokino","Hastings,Tikokino"
3028061,2682,Duff Road,Waiuku,
1777581,7472,Duffs Road,"Balcairn,Sefton","Amberley,Sefton"
1788798,7095,Duffs Road,Golden Downs,Wakefield
1790585,7812,Duff Street,Ross,
1771120,9398,Duffy Lane,Patearoa,
3084543,0230,Duffy Place,Kerikeri,
1789850,7011,Duffy Place,Stoke,Nelson
1821140,0782,Duffy Road,Waitakere,Auckland
3027258,5890,Duffys Road,"Ngahape,Stronvar","Masterton,Wainuioru"
1830710,0202,Du Fresne Place,Russell,
1813985,3210,Dugald Court,Rototuna,Hamilton
1828530,2022,Duggan Avenue,Mangere,Auckland
1839373,7614,Duggan Close,Rolleston,
1815886,3010,Duggan Drive,Owhata,Rotorua
1794238,6037,Duggan Place,Johnsonville,Wellington
3043471,9376,Duggan Road,"Chatto Creek,Omakau","Alexandra,Omakau"
3081193,4122,Dugh Place,Akina,Hastings
1773536,9210,Duguid Street,Kaitangata,
1796723,4501,Duigan Street,Gonville,Whanganui
3077742,2104,Duin Lane,Wiri,Auckland
1827423,2120,Duke Avenue,Pukekohe,
1817776,4310,Duke Place,New Plymouth,
3018063,3481,Dukeson Road,"Lichfield,Putaruru",Putaruru
1789357,7096,Dukes Road,Spooners Range,Wakefield
3006793,9092,Dukes Road North,"Mosgiel,North Taieri",Mosgiel
1775680,9092,Dukes Road South,"Mosgiel,Riverside",Mosgiel
1786522,7984,Duke Street,Albury,
1820396,0483,Duke Street,Awanui,
1812735,3434,Duke Street,Cambridge,
1783073,8011,Duke Street,Christchurch Central,Christchurch
3031329,3204,Duke Street,"Dinsdale,Frankton,Hamilton Lake",Hamilton
1800946,4702,Duke Street,Feilding,
1803292,4120,Duke Street,"Frimley,Mahora",Hastings
1776448,9810,Duke Street,"Gladstone,Windsor",Invercargill
1775911,9710,Duke Street,Gore,
3031323,4010,Duke Street,"Kaiti,Tamarau",Gisborne
1798459,5510,Duke Street,Levin,
1821144,0982,Duke Street,Mahurangi East,Warkworth
1798948,4710,Duke Street,Marton,
1772789,9024,Duke Street,Mosgiel,
1825326,1041,Duke Street,"Mount Roskill,Three Kings",Auckland
1794222,6011,Duke Street,Mount Victoria,Wellington
1774218,9494,Duke Street,Ngapara,Oamaru
1805936,,Duke Street,Ngaruawahia,
1822122,0627,Duke Street,Northcote Point,Auckland
1772094,9016,Duke Street,North Dunedin,Dunedin
1795932,3122,Duke Street,"Opotiki,Otara",Opotiki
1797845,4910,Duke Street,Pahiatua,
1827888,2110,Duke Street,Papakura,
1812089,3411,Duke Street,Putaruru,
1774855,9300,Duke Street,Queenstown,
1785363,7400,Duke Street,Rangiora,
1821148,0820,Duke Street,Riverhead,
1772845,9023,Duke Street,Sawyers Bay,Dunedin
1780429,7500,Duke Street,Sheffield,
1814809,3910,Duke Street,Te Kuiti,
1815808,3420,Duke Street,Tokoroa,
1804606,4284,Duke Street,Wanstead,Waipukurau
1784633,8051,Dulcie Place,Harewood,Christchurch
1827886,2110,Dulcie Place,Red Hill,Papakura
1806951,3600,Dulcie Street,Paeroa,
3082990,0931,Dulcie Way,Orewa,
1805013,4112,Dules Walk,Taradale,Napier
1774473,9586,Duley Road,Owaka Valley,Owaka
3071214,7674,Dulieu Road,Lincoln,
1783085,8053,Dulles Place,Papanui,Christchurch
3077481,3210,Dulverton Rise,Flagstaff,Hamilton
1818708,2013,Dulwich Place,Burswood,Auckland
1827891,2113,Dumas Place,Rosehill,Papakura
1778424,9812,Dumbarton Place,Strathern,Invercargill
1775176,9510,Dumbarton Street,Waikouaiti,
3081657,7334,Dumblane Way,Hanmer Springs,
1778279,8042,Dumfries Drive,Hei Hei,Christchurch
1836568,3112,Dumfries Place,Pyes Pa,Tauranga
1775274,9584,Dumfries Road,Ashley Downs,Clinton
1808719,3420,Dumfries Road,Tokoroa,
1791320,7274,Dumgree Road,Seddon,
1792130,5024,Dumont Place,Cannons Creek,Porirua
1789483,7197,Dumont Place,Kaiteriteri,Motueka
3083941,4977,Dump Road,Ormondville,
1838740,2019,Dunaff Place,Flat Bush,Auckland
1779069,8083,Dunair Drive,Burwood,Christchurch
1789902,7010,Dunair Way,Britannia Heights,Nelson
1792082,4710,Dunallen Avenue,Marton,
1799415,4412,Duna Place,Takaro,Palmerston North
1783074,8061,Dunarnan Street,Avonside,Christchurch
1841292,8042,Dunaverty Place,Broomfield,Christchurch
3057580,9483,Dunback-Morrisons Road,"Dunback,Green Valley,Waihemo,Waynes",Palmerston
3073339,9430,Dunback Road,Palmerston,
1774643,9483,Dunback Street,Waynes,Palmerston
1816486,4312,Dunbar Place,Highlands Park,New Plymouth
1772791,9024,Dunbar Place,Mosgiel,
1812249,3420,Dunbar Place,Tokoroa,
1825092,1024,Dunbar Road,Mount Eden,Auckland
1821158,0986,Dunbar Road,Point Wells,
1784115,8025,Dunbars Road,Halswell,Christchurch
1782169,7980,Dunbars Road,Waimate,
1774931,9016,Dunbar Street,Dunedin Central,Dunedin
1798455,5510,Dunbar Street,Levin,
1830194,0612,Dunbarton Drive,Ranui,Auckland
1784620,8051,Dunbarton Street,Redwood,Christchurch
1776445,9812,Dunbeath Court,Kew,Invercargill
1776446,9812,Dunbeath Crescent,Kew,Invercargill
1776447,9812,Dunbeath Place,Kew,Invercargill
1790800,7201,Dunbeath Street,Blenheim,
1772095,9010,Dunblane Street,Maori Hill,Dunedin
3043805,0610,Duncan Avenue,"Henderson,Te Atatu South",Auckland
1840973,9471,Duncan Avenue,Karitane,Waikouaiti
1824963,1025,Duncan Avenue,Sandringham,Auckland
1840126,7195,Duncan Bay Road,"Duncan Bay,Tennyson Inlet",Marlborough Sounds
3027124,7608,Duncanfields Place,Lincoln,
1814564,3186,Duncan Lane,Pukehina,
3056065,1022,Duncan MacLean Link,"Morningside,Mount Albert",Auckland
1840620,7886,Duncan McFarlane Road,Jackson Bay,Haast
1799419,4412,Duncan Place,Highbury,Palmerston North
1823224,0618,Duncan Rise,Herald Island,Auckland
1827024,2684,Duncan Road,Awhitu,
1774775,9572,Duncan Road,Ettrick,Roxburgh
1770782,9410,Duncan Road,Hampden,
3030037,0482,Duncan Road,"Kaingaroa,Kaitaia,Lake Ohia","Kaitaia,Karikari Peninsula"
1814089,3491,Duncan Road,Kinleith,Tokoroa
1816021,3882,Duncan Road,Ngahinapouri,Ohaupo
1805006,4182,Duncan Road,Puketapu,Napier
3030030,,Duncan Road,"Pureora Forest Park,Waimahora,Wharepuhunga","Otorohanga,Pureora Forest Park,Te Awamutu"
1797489,4473,Duncan Road,Rongotea,
1798952,4894,Duncan Road,Santoft,Bulls
1807131,3200,Duncan Road,St Andrews,Hamilton
1811199,3283,Duncan Road,Tamahere,Hamilton
1777265,9781,Duncan Road,Tussock Creek,Winton
1811615,3474,Duncan Road,Waharoa,
1802751,4073,Duncan Road,Waimata,
1774230,9587,Duncan Road North,Tapanui,
1774231,9775,Duncan Road South,Tapanui,
1830943,0932,Duncansby Road,Stanmore Bay,Whangaparaoa
1775178,9471,Duncansby Street,Karitane,Waikouaiti
1833801,9300,Duncan's Place,Queenstown,
1786232,7572,Duncans Road,Hororata,
1781174,7781,Duncans Road,Rakaia,
1774930,9016,Duncan Street,Dunedin Central,Dunedin
1797175,4572,Duncan Street,Fordell,
1801674,4814,Duncan Street,Foxton,
1814855,3010,Duncan Street,Glenholme,Rotorua
1776435,9810,Duncan Street,Hawthorndale,Invercargill
1802233,4010,Duncan Street,Mangapapa,Gisborne
3038153,7010,Duncan Street,Port Nelson,Nelson
1788505,7073,Duncan Street,Puponga,Collingwood
1801456,4632,Duncan Street,Raetihi,
1790322,7803,Duncan Street,Runanga,
1791318,7210,Duncan Street,Seddon,
1783084,8081,Duncan Street,Sumner,Christchurch
1812580,3330,Duncan Street,Taupo,
1795265,5889,Duncan Street,Tauweru,Masterton
1791911,5028,Duncan Street,Tawa,Wellington
1777805,9600,Duncan Street,Te Anau,
1777279,9884,Duncan Street,Tokanui,
1795978,5573,Duncan Street,Waikawa Beach,Manakau
1791319,7285,Duncan Street,Ward,
1796727,4500,Duncan Street,Whanganui East,Whanganui
1835851,5512,Duncans Way,Otaki Beach,Otaki
1794216,6022,Duncan Terrace,"Kilbirnie,Melrose",Wellington
3084546,0230,Duncan Way,Kerikeri,
1778749,9679,Duncraigen Road,Whare Creek,Manapouri
1776442,9810,Duncraig Street,Hawthorndale,Invercargill
1800138,5019,Duncraig Street,Silverstream,Upper Hutt
1825325,1041,Duncumb Street,Mount Roskill,Auckland
1824340,0600,Dundale Avenue,Blockhouse Bay,Auckland
1801307,4412,Dundas Place,Awapuni,Palmerston North
1823612,0612,Dundas Place,Henderson,Auckland
1826192,0112,Dundas Road,Riverside,Whangarei
3006539,4817,Dundas Road,Sanson,
1771266,9387,Dundass Lane,Moa Creek,
1797490,4476,Dundas Street,Awahuri,Palmerston North
1783091,8011,Dundas Street,Christchurch Central,Christchurch
1775910,9710,Dundas Street,East Gore,Gore
1772098,9016,Dundas Street,North Dunedin,Dunedin
1805401,4293,Dundas Street,Porangahau,
1794223,6022,Dundas Street,Seatoun,Wellington
1782018,7010,Dundas Street,The Wood,Nelson
1806101,3510,Dundas Street,Whitianga,
1837025,7510,Dundee Close,Darfield,
1805597,4120,Dundee Drive,Flaxmere,Hastings
1841352,0582,Dundee Lane,Waipu,
3083951,7608,Dundeel Lane,Lincoln,
1824334,0600,Dundee Place,Blockhouse Bay,Auckland
1794215,6035,Dundee Place,Crofton Downs,Wellington
1783105,8024,Dundee Place,Spreydon,Christchurch
1776451,9812,Dundee Place,Strathern,Invercargill
3077537,9024,Dundee Road,Mosgiel,
1777547,9818,Dundee Street,Halfmoon Bay / Oban,Stewart Island
1776450,9812,Dundee Street,"Heidelberg,Strathern",Invercargill
1824348,1021,Dundonald Street,Eden Terrace,Auckland
1826188,0112,Dundonald Street,Riverside,Whangarei
1772105,9013,Dundonald Street,Tainui,Dunedin
1777701,9783,Dunearn Road,Dunearn,Winton
1813725,3118,Dune Avenue,Papamoa Beach,Papamoa
1778466,9879,Dune Crescent,Oreti Beach,Invercargill
3071273,9010,Dunedin Northern Motorway,"Dalmore,Leith Valley,Mount Cargill,Pine Hill,Upper Waitati,Waitati,Woodhaugh","Dunedin,Waitati"
3003409,9022,Dunedin-Port Chalmers Road,"Saint Leonards,Sawyers Bay",Dunedin
3069573,9018,Dunedin Southern Motorway,"Burnside,Chain Hills,Concord,Fairfield,Green Island,Kenmure,Kinmont Park","Dunedin,Mosgiel"
1773539,9291,Dunedin Street,Milburn,Milton
1784627,8051,Dunedin Street,Redwood,Christchurch
1824335,1011,Dunedin Street,Saint Marys Bay,Auckland
1794232,6023,Dunedin Terrace,Melrose,Wellington
3033049,9010,Dunedin-Waitati Road,"Dalmore,Leith Valley,Mount Cargill,Pine Hill,Upper Waitati,Waitati,Woodhaugh","Dunedin,Waitati"
1838230,0116,Dune Lake Place,Ruakaka,
3081459,0473,Dune Rise,Opononi,
1839358,0505,Dune View Drive,Mangawhai,
1826572,0176,Dunford Road,Ruatangata West,Whangarei
1786366,7710,Dunford Street,Rakaia,
1771121,9332,Dungannon Street,Ranfurly,
1778361,9773,Dungannon Street,Waikaka,Gore
3031526,7872,Dungan Street,Dunganville,Arnold Valley
1790619,7872,Dunganville Road,Dunganville,Arnold Valley
1801875,6037,Dungarvan Road,Newlands,Wellington
1818416,2103,Dungarvon Place,Clendon Park,Auckland
1821141,0986,Dungarvon Place,Omaha,
1771724,9305,Dungarvon Street,Wanaka,
3080850,2019,Dungloe Avenue,Flat Bush,Auckland
1824351,1050,Dunholme Road,Remuera,Auckland
3057140,3187,Dunkeld Drive,Papamoa,
1783086,8081,Dunkeld Lane,Redcliffs,Christchurch
1815190,3420,Dunkeld Place,Tokoroa,
1831725,1051,Dunkerron Avenue,Epsom,Auckland
1842609,2019,Dunkineely Road,Flat Bush,Auckland
1810158,3078,Dunkirk Road,Atiamuri,
1825818,1072,Dunkirk Road,Panmure,Auckland
1814698,3112,Dunkirk Street,Gate Pa,Tauranga
1781740,7910,Dunkirk Street,Marchwiel,Timaru
1824960,1025,Dunkirk Terrace,Mount Albert,Auckland
1799423,4414,Dunk Place,Milson,Palmerston North
1792660,5019,Dunleith Grove,Silverstream,Upper Hutt
1956720,7614,Dunlop Crescent,Rolleston,
1811920,3320,Dunlop Crescent,Te Aroha,
1814204,3579,Dunlop Drive,Pauanui,
1825816,1072,Dunlop Lane,Panmure,Auckland
1774374,9274,Dunlop Road,Clydevale,
1803942,4110,Dunlop Road,Onekawa,Napier
3036310,9891,Dunlop Road,"Pine Bush,Waimahaka","Tokanui,Wyndham"
1805937,3119,Dunlop Road,Te Puke,
1815099,3401,Dunlop Road,Waharoa,
3036313,3198,Dunlop Road,Waiotahe,Opotiki
1823610,0814,Dunlop Road,Westgate,Auckland
3003146,8083,Dunlops Road,Bottle Lake,Christchurch
1782534,7472,Dunlops Road,Loburn,
1785370,7400,Dunlops Road,Rangiora,
1777264,9816,Dunlop Street,Wallacetown,
1794237,6011,Dunlop Terrace,Te Aro,Wellington
1833252,2016,Dunloy Place,East Tamaki Heights,Auckland
1784111,8042,Dunluce Place,Hornby,Christchurch
1794808,6037,Dunmail Way,Newlands,Wellington
1778049,9720,Dunmore Place,Winton,
1771723,9305,Dunmore Street,Wanaka,
1787672,8051,Dunmurry Place,Casebrook,Christchurch
3031842,9776,Dunn and Cody Road,"Longridge,Riversdale,Sandstone,Waimea",Riversdale
1773284,9471,Dunnet Street,Karitane,Waikouaiti
3080333,0910,Dunningham Street,Warkworth,
1812848,3496,Dunning Road,Karapiro,Cambridge
3069165,0974,Dunning Road,"Tomarata,Whangaripo",Wellsford
3080489,8025,Dunning Way,Halswell,Christchurch
3083914,9371,Dunnock Street,Jacks Point,Queenstown
1829502,2025,Dunnotar Road,Papatoetoe,Auckland
1818680,2010,Dunn Place,Farm Cove,Auckland
1803938,4112,Dunn Place,Pirimai,Napier
1827025,2579,Dunn Road,Ararimu,Drury
3082001,9384,Dunn Road,Cromwell,
1831781,1072,Dunn Road,Panmure,Auckland
1819360,0592,Dunn Road,Ruawai,
1785366,7630,Dunns Avenue,The Pines Beach,
1780244,,Dunns Crossing Road,Rolleston,
1776086,9774,Dunns Road,Mataura,
1778781,9879,Dunns Road,"Oreti Beach,Otatara",Invercargill
1791912,5019,Dunns Street,Silverstream,Upper Hutt
1816543,4372,Dunn Street,Egmont Village,
1830791,0410,Dunn Street,Kaitaia,
3082503,9382,Dunn Street,Lake Hawea,
1788073,7830,Dunn Street,Reefton,
1783099,8024,Dunn Street,"Somerfield,Sydenham",Christchurch
1801531,5014,Dunn Street,Wainuiomata,Lower Hutt
1827422,2120,Dunolly Place,Pukekohe,
3021825,4779,Dunolly Road,"Beaconsfield,Waituna West",Feilding
1838594,2016,Dunoon Close,Flat Bush,Auckland
1783075,8062,Dunoon Place,Woolston,Christchurch
3057184,9320,Dunorling Street,Alexandra,
1810105,3983,Dunphy Road,Aria,
1831078,0630,Dunraven Place,Torbay,Auckland
1779521,7395,Dun Road,Hanmer Forest,Hanmer Springs
1810157,3073,Dun Road,Kaingaroa Forest,Murupara
1815385,3112,Dunrobbin Place,Gate Pa,Tauranga
1792662,5019,Dunrobin Grove,Silverstream,Upper Hutt
1833373,2579,Dunrobin Lane,Ararimu,Drury
3080773,0179,Dunrobin Lane,Maungatapere,Whangarei
1784629,8042,Dunrobin Place,Avonhead,Christchurch
1830038,2010,Dunrobin Place,Half Moon Bay,Auckland
3046881,9587,Dunrobin Road,"Dunrobin,Heriot,Park Hill",Tapanui
1770775,9491,Dunrobin Road,"Five Forks,Fuchsia Creek",Oamaru
1777710,9792,Dunrobin Road,Mossburn,
1774244,9483,Dunrobin Road,Waynes,Palmerston
1772101,9013,Dunrobin Street,"Andersons Bay,Waverley",Dunedin
3013783,9792,Dunrobin Valley Road,"Dunrobin,Mossburn","Mossburn,Otautau"
3046417,7682,Dunsandel and Brookside Road,"Dunsandel,Leeston",
1792659,5019,Dunsandel Grove,Silverstream,Upper Hutt
1780242,7682,Dunsandel Road,Hororata,
1778570,9872,Dunsdale Valley Road,"Dunsdale,Hedgehope",Invercargill
1773282,9073,Dunse Street,Berwick,Outram
1834568,8025,Dunsford Close,Halswell,Christchurch
1813409,3204,Dunsford Mews,Hamilton Central,Hamilton
1792084,4710,Dunsinane Place,Marton,
1827023,2681,Dunsmuir Road,Glenbrook,
1779518,7392,Duns Road,Balmoral,
1828543,2022,Dunstall Place,Mangere Bridge,Auckland
3053860,0112,Dunstan Avenue,Tikipunga,Whangarei
1771123,9377,Dunstan Creek Road,Saint Bathans,
1784112,8042,Dunstan Crescent,Hornby,Christchurch
1789922,7020,Dunstan Grove,Richmond,
1828536,2023,Dunstan Place,Otara,Auckland
1774730,,Dunstan Road,"Alexandra,Springvale",Alexandra
1802911,4071,Dunstan Road,Matawhero,Gisborne
1774787,9330,Dunstan Street,Clyde,
1796293,5512,Dunstan Street,Otaki,
1777266,9778,Dunstan Street,Waikaia,
1818690,3110,Dunstan Way,Bethlehem,Tauranga
1784624,8053,Dunster Street,Burnside,Christchurch
1809249,3112,Dunton Drive,Welcome Bay,Tauranga
3007757,9494,Duntroon-Georgetown Road,"Black Point,Duntroon,Georgetown,Kokoamo","Duntroon,Oamaru"
1837422,2016,Duntrune Road,Flat Bush,Auckland
1838381,7910,Dunvegan Close,Marchwiel,Timaru
1807134,3204,Dunvegan Place,Dinsdale,Hamilton
1787653,8051,Dunvegan Place,Harewood,Christchurch
1833191,2016,Dunvegan Rise,East Tamaki Heights,Auckland
1804965,4175,Dunvegan Road,Fernhill,Napier
1771657,9372,Dunvegan Street,Kinloch,Glenorchy
3079955,9383,Duohys Lane,Mount Pisa,Cromwell
3007001,5018,Du Pont Lane,Trentham,Upper Hutt
3082903,7614,Duporth Road,Rolleston,
1794807,6023,Duppa Street,Berhampore,Wellington
1790265,7802,Dupre Place,Cobden,Greymouth
1838335,0632,Durbin Court,Greenhithe,Auckland
1856640,8025,Durell Lane,Halswell,Christchurch
1842441,7692,Durells Crescent,Kaiapoi,
1818182,8053,Durey Road,Christchurch Airport,Christchurch
1821147,0792,Durey Road,Dairy Flat,
3029570,7674,Durey Road,Lincoln,
1805263,4112,Durham Avenue,Tamatea,Napier
1816895,4312,Durham Avenue,Welbourn,New Plymouth
1794789,6021,Durham Crescent,Aro Valley,Wellington
1793252,5011,Durham Crescent,Fairfield,Lower Hutt
1801305,4414,Durham Crescent,Palmerston North,
1802953,4130,Durham Drive,Havelock North,
1816873,3210,Durham Heights,Flagstaff,Hamilton
1824349,1010,Durham Lane,Auckland Central,Auckland
1796721,4501,Durham Road,Springvale,Whanganui
1819361,0582,Durham Road,Waipu,
1817863,4388,Durham Road Lower,Norfolk,
1817864,4388,Durham Road Upper,Norfolk,
3037783,6021,Durham Street,"Aro Valley,Brooklyn",Wellington
1775529,9302,Durham Street,Arrowtown,
1796342,4810,Durham Street,Ashhurst,
1792131,5024,Durham Street,Cannons Creek,Porirua
1778841,9791,Durham Street,Dipton West,
1777708,9683,Durham Street,Flints Bush,Otautau
1770774,9410,Durham Street,Hampden,
3037773,9011,Durham Street,"Kenmure,Mornington",Dunedin
1798457,5510,Durham Street,Levin,
1775880,9712,Durham Street,Mataura,
1778878,9792,Durham Street,Mossburn,
1814358,3200,Durham Street,Nawton,Hamilton
1810947,3720,Durham Street,Ngaruawahia,
1778857,9610,Durham Street,Otautau,
1817708,4520,Durham Street,Patea,
1791334,7220,Durham Street,Picton,
1785364,7400,Durham Street,Rangiora,
1778572,9776,Durham Street,Riversdale,
1795025,5810,Durham Street,Solway,Masterton
1788132,7011,Durham Street,Stoke,Nelson
1773969,9522,Durham Street,Tapanui,
1809253,3110,Durham Street,Tauranga,
1823609,0610,Durham Street,Te Atatu Peninsula,Auckland
1814308,3610,Durham Street,Waihi,
1776440,9810,Durham Street,Waikiwi,Invercargill
1782123,7924,Durham Street,Waimate,
1778868,9720,Durham Street,Winton,
1778652,9689,Durham Street,Wreys Bush,Otautau
1824336,1010,Durham Street East,Auckland Central,Auckland
3065116,,Durham Street North,"Christchurch Central,St Albans",Christchurch
3056795,,Durham Street South,"Christchurch Central,Sydenham",Christchurch
1824339,1010,Durham Street West,Auckland Central,Auckland
1797649,4775,Durie Road,Aorangi,Feilding
3041210,4592,Durie Road,"Waitotara,Waverley","Waverley,Whanganui"
1796724,4500,Durie Street,Durie Hill,Whanganui
1791915,4500,Durie Vale Road,Durie Hill,Whanganui
1814141,3434,Durmast Court,Cambridge,
3063908,9371,Durness Court,Jacks Point,Queenstown
1821163,0932,Durness Place,Red Beach,
1806102,3620,Durrant Drive,Whangamata,
1822899,0600,Durrant Place,New Lynn,Auckland
1785769,7614,Durrell Way,Rolleston,
3083113,9305,Durry Lane,Wanaka,
1834504,5032,D'Urville Court,Raumati Beach,Paraparaumu
1829829,1050,D'Urville Heights,Remuera,Auckland
1821248,0930,D'Urville Place,Gulf Harbour,Whangaparaoa
1841078,4414,D'Urville Place,Kelvin Grove,Palmerston North
1789582,7020,D'Urville Rise,Richmond,
1800032,5024,D'Urville Street,Cannons Creek,Porirua
1840405,7197,Durville Way,Kaiteriteri,Motueka
1840271,3112,D'Urville Way,Welcome Bay,Tauranga
1798267,5024,Dusky Crescent,Aotea,Porirua
1781960,7901,Dusky Place,Twizel,
1778655,9600,Dusky Street,Te Anau,
1801171,4815,Dustin Street,Foxton Beach,Foxton
1800857,4501,Dustin Street,Gonville,Whanganui
1770771,9491,Duthie Road,Danseys Pass,Oamaru
1777280,9891,Duthie Road,Mataura Island,Wyndham
3030747,9774,Duthie Road,"Upper Charlton,Waimumu",Gore
1794798,6012,Duthie Street,Karori,Wellington
1773537,9220,Duthie Street,Milton,
1772787,9024,Dutton Place,Mosgiel,
1820392,0482,Dutton Road,Peria,Kaitaia
1773683,9585,Duttons Road,"Katea,Owaka",Owaka
1797648,4481,Dutton Street,Bunnythorpe,Palmerston North
1793536,5028,Duval Grove,Tawa,Wellington
1815558,3289,Duval Way,Whatawhata,Hamilton
1785851,7581,Duvauchelle School Lane,Duvauchelle,
3027943,7583,Duvauchelle Stock Route,"Duvauchelle,Pigeon Bay",
1837107,0612,Duxfield Drive,Ranui,Auckland
1808350,9018,Duxford Crescent,Fairfield,Dunedin
3078715,4130,Dwyer Close,Havelock North,
1803448,7999,Dwyer Place,Lake Tekapo,
1821162,0871,Dye Access Road,Kaukapakapa,
1988700,3434,Dyer Lane,Cambridge,
1777699,9792,Dyer Road,Mossburn,
1821161,0984,Dyer Road,Wellsford,
3027842,,Dyers Pass Road,"Cashmere,Governors Bay,Te Rapaki-o-Te Rakiwhakaputa","Christchurch,Governors Bay,Lyttelton"
3056815,8062,Dyers Road,"Bexley,Bromley,Woolston",Christchurch
1782170,9498,Dyers Road,Hakataramea Valley,
1813328,3171,Dyer Straight,Omanawa,
1800268,5011,Dyer Street,Epuni,Lower Hutt
1831853,0110,Dyer Street,Raumanga,Whangarei
1807135,3200,Dyer Street,Whitiora,Hamilton
1831966,2580,Dyke Road,Karaka,Papakura
1820393,0482,Dykin Road,Kaingaroa,Kaitaia
1785776,7614,Dylan Close,Rolleston,
1784616,8053,Dymock Place,Bishopdale,Christchurch
1802466,4094,Dymock Road,Te Karaka,
1776085,9771,Dynes Road,Pukerau,Gore
1780245,7615,Dynes Road,Rolleston,
1781170,7777,Dynes Road,Wakanui,Ashburton
1821145,0891,Dysart Lane,Kumeu,
1820401,0481,Dysart Road,Herekino,Kaitaia
1809248,3110,Dysart Road,Otumoetai,Tauranga
1776452,9812,Dyson Street,Strathern,Invercargill
1781685,7920,Dyson Street,Temuka,
