road_id,postcode,name,locality,city
1831771,1060,Faber Avenue,Mount Wellington,Auckland
1816388,4330,Faber Place,Inglewood,
3077920,3210,Faber Place,Rototuna North,Hamilton
3083519,3910,Fabia Factory Lane,Te Kuiti,
1801406,5882,Fabians Road,Mauriceville,
3065976,5794,Fabians Road,"Morison Bush,Papawai",Greytown
1811980,4332,Fabian Street,Stratford,
1791155,7275,Fabians Valley Road,Onamalutu,Wairau Valley
3085636,3432,Fable Way,Leamington,Cambridge
1798583,4815,Fabrin Street,Foxton Beach,Foxton
1774804,9330,Fache Street,Clyde,
1787195,3330,Facilita Avenue,Wharewaka,Taupo
1837951,3900,Factory Drive,Otorohanga,
3081157,7614,Factory Drive,Rolleston,
1833784,0114,Factory Lane,Hikurangi,
1806791,3503,Factory Lane,Ngatea,
1811258,3721,Factory Lane,Taupiri,
1777326,9875,Factory Road,"Ashers,Gorge Road",Invercargill
1842652,4983,Factory Road,Ballance,Pahiatua
1784490,8051,Factory Road,Belfast,Christchurch
1788833,7022,Factory Road,Brightwater,
1779729,7381,Factory Road,Cheviot,
1791385,7371,Factory Road,Hapuku,Kaikoura
1777327,9872,Factory Road,Hedgehope,Invercargill
1791156,7273,Factory Road,Koromiko,Picton
1785908,7583,Factory Road,Little Akaloa,
1805682,4977,Factory Road,Matamau,Dannevirke
1819660,0211,Factory Road,Moerewa,
1770151,,Factory Road,Mosgiel,
1796054,3197,Factory Road,Otara,Opotiki
1827085,2682,Factory Road,Otaua,
1770354,9430,Factory Road,Palmerston,
1773811,9271,Factory Road,Paretai,Balclutha
1832050,2120,Factory Road,Pukekohe,
1788843,7198,Factory Road,Riwaka,Motueka
1784962,7472,Factory Road,Sefton,
1788494,7110,Factory Road,Takaka,
1815306,3800,Factory Road,Te Awamutu,
3049635,,Factory Road,"Temuka,Winchester",
1775788,9883,Factory Road,Thornbury,Riverton/Aparima
1811576,3401,Factory Road,Waharoa,
1811726,3393,Factory Road,Waihou,Te Aroha
1809789,3196,Factory Road,Waimana,
1830877,0812,Factory Road,Waimauku,
1771036,9397,Factory Road,Waipiata,Ranfurly
1813392,3674,Factory Road North,Hikutaia,Paeroa
1813393,3674,Factory Road South,Hikutaia,Paeroa
1785822,8053,Fadges Lane,Bryndwr,Christchurch
1839698,4995,Fafeita Road,Eketahuna,
1841619,3591,Fagan Lane,Kaimarama,Whitianga
1819318,0505,Fagan Place,Mangawhai Heads,Mangawhai
3070283,4479,Fagan Road,"Ohakea,Sanson","Bulls,Sanson"
1779726,7382,Fagans Road,Lowry Hills Range,Cheviot
1801242,4818,Fagan Street,Bulls,
1797524,4817,Fagan Street,Sanson,
1813755,3116,Fahey Avenue,Mount Maunganui,
1827634,2675,Fahey Road,Bombay,
1813055,3282,Faiping Road,"Peacocke,Rukuhia",Hamilton
3080297,8025,Fairbairn Close,Halswell,Christchurch
1836513,2016,Fairbairn Place,East Tamaki Heights,Auckland
3079340,7674,Fairbairn Road,Rolleston,
3025663,7483,Fairbairns Road,Scargill,Waikari
1812012,4332,Fairbank Avenue,Stratford,
1810180,3074,Fairbank Road,Owhata,Rotorua
1831375,0602,Fairbanks Place,Glendene,Auckland
1802073,7272,Fairbourne Drive,Fairhall,
3072671,4972,Fairbrother Road,"Dannevirke,Ruahine Forest Park",
1795345,5713,Fairbrother Street,Carterton,
1794885,6037,Fairburn Grove,Johnsonville,Wellington
3080667,7197,Fairburn Place,Kaiteriteri,Motueka
1812763,3432,Fairburn Place,Leamington,Cambridge
1825766,1062,Fairburn Road,"Hauraki Gulf / Tikapa Moana,Otahuhu",Auckland
1820590,0482,Fairburn Road,"Kaitaia,Peria",Kaitaia
1825966,0110,Fairburn Street,Raumanga,Whangarei
1837105,7892,Fairburn Way,Charleston,Cape Foulwind
1830289,2105,Fairchild Avenue,Goodwood Heights,Auckland
1807883,3889,Fairchild Street,Kawhia,
1821766,0626,Fairclough Road,Beach Haven,Auckland
1797311,4702,Fair Crescent,Feilding,
1827917,2110,Fairdale Avenue,"Papakura,Red Hill",Papakura
1821765,0626,Fairdale Place,Birkdale,Auckland
1823644,0610,Fairdene Avenue,Henderson,Auckland
3038896,7891,Fairdown Road,"Fairdown,Waimangaroa,Westport",Westport
1829146,2022,Fairey Place,Mangere,Auckland
1822161,0627,Fairfax Avenue,Northcote,Auckland
1825582,1061,Fairfax Avenue,Penrose,Auckland
1838055,3112,Fairfax Crescent,Pyes Pa,Tauranga
3009831,9683,Fairfax Isla Bank Road,"Fairfax,Isla Bank",Otautau
1770482,9495,Fairfax Street,Kakanui,Oamaru
1772262,9010,Fairfax Street,Maori Hill,Dunedin
1789722,7007,Fairfax Street,Murchison,
1816796,4310,Fairfax Terrace,Frankleigh Park,New Plymouth
1782722,8024,Fairfield Avenue,Addington,Christchurch
1801555,5011,Fairfield Avenue,Fairfield,Lower Hutt
1786339,7772,Fairfield Avenue,Fairton,Ashburton
1810875,3700,Fairfield Avenue,Huntly,
3001096,3210,Fairfield Bridge,"Beerescourt,Fairfield",Hamilton
1832688,2016,Fairfield Lane,East Tamaki Heights,Auckland
1809791,3194,Fairfield Lane,Matata,
1804311,4283,Fairfield Road,"Ashley Clinton,Ongaonga","Ongaonga,Takapau"
3004613,7777,Fairfield Road,"Dromore,Fairton,Newland,Pendarves",Ashburton
1807164,3214,Fairfield Road,Fairfield,Hamilton
3004612,7991,Fairfield Road,"Geraldine Downs,Woodbury",Geraldine
1817487,,Fairfield Road,Hawera,
1792104,5510,Fairfield Road,Levin,
1797526,4476,Fairfield Road,Rongotea,
1833804,7772,Fairfield Road West,Fairton,Ashburton
1789718,7022,Fairfield Street,Brightwater,
1775928,9710,Fairfield Street,Gore,
1832051,2120,Fairfield Street,Pukekohe,
1804459,7614,Fairfield Way,Rolleston,
1837409,0612,Fairford Avenue,Henderson,Auckland
1784494,8053,Fairford Street,Bishopdale,Christchurch
3078139,7615,Fairford Street,Rolleston,
3078763,0932,Fairgray Lane,Red Beach,
1835029,4310,Fairgray Row,Lower Vogeltown,New Plymouth
1817728,7805,Fairhall Road,Kaiata,Greymouth
1789473,7096,Fairhall Road,Tapawera,Wakefield
3080416,7615,Fairhall Street,Rolleston,
1835859,7206,Fairhall Street,Woodbourne,Blenheim
1820803,0932,Fairhaven Walk,"Karepiro Bay,Wade Heads",Whangaparaoa
1838155,2016,Fairhill Place,Flat Bush,Auckland
1825186,1023,Fairholme Avenue,Epsom,Auckland
1798414,5510,Fairholme Place,Levin,
1785834,7614,Fairhurst Place,Rolleston,
1824012,1026,Fairlands Avenue,Waterview,Auckland
1823646,0610,Fairlea Road,Te Atatu South,Auckland
1824896,1025,Fairleigh Avenue,Mount Albert,Auckland
1810181,3010,Fairley Road,Lynmore,Rotorua
1772263,9016,Fairley Street,Dunedin Central,Dunedin
1820107,0473,Fairlie Crescent,Opononi,
1808339,3174,Fairlie Grove,Te Puna,Tauranga
3064845,,Fairlie-Tekapo Road,"Burkes Pass,Fairlie,Kimbell,Lake Tekapo,Tekapo","Fairlie,Lake Tekapo"
1799996,6021,Fairlie Terrace,Kelburn,Wellington
1829116,2102,Fairlight Place,Manurewa,Auckland
1777344,9793,Fairlight Road,Fairlight,Athol
3081971,7674,Fairmaid Street,Lincoln,
1829147,2023,Fair Mall,Otara,Auckland
1837776,9024,Fairmile Drive,Kinmont Park,Mosgiel
1784498,8042,Fairmile Place,Russley,Christchurch
3079370,7020,Fairmile Road,Richmond,
1830410,0632,Fairmont Place,Albany,Auckland
1786868,8042,Fairmont Place,Hornby,Christchurch
2005398,7618,Fairmont Rise,West Melton,
1810930,3720,Fairmont Street,Ngaruawahia,
1809181,3110,Fairmont Terrace,Otumoetai,Tauranga
1818795,0604,Fairmount Road,Titirangi,Auckland
1827437,2120,Fair Oaks,Pukekohe,
1840921,7020,Fairose Drive,Richmond,
1782753,8025,Fair Place,Hoon Hay,Christchurch
1773004,9018,Fairplay Street,Fairfield,Dunedin
1825188,1042,Fairsea Place,Lynfield,Auckland
1799349,4414,Fairs Road,Milson,Palmerston North
1831202,0632,Fairview Avenue,"Fairview Heights,Redvale",Auckland
1797310,4702,Fairview Avenue,Feilding,
1776366,9810,Fairview Avenue,Hawthorndale,Invercargill
1827920,2113,Fairview Avenue,Opaheke,Papakura
1785458,7400,Fairview Briars,Rangiora,
1794892,6012,Fairview Crescent,Kelburn,Wellington
1825696,1081,Fairview Crescent,Omiha,Waiheke Island
3005493,5372,Fairview Drive,"Akatarawa,Birchville",Upper Hutt
3084945,9384,Fairview Lane,Cromwell,Cromwell
1797313,4702,Fairview Place,Feilding,
1836027,4130,Fairview Place,Havelock North,
3081051,5510,Fairview Place,Levin,
1808718,3119,Fairview Place,Te Puke,
1816793,4310,Fairview Place,Westown,New Plymouth
3052101,7972,Fairview Road,"Claremont,Fairview,Taiko,Watlington","Cave,Timaru"
1819658,0405,Fairview Road,Kaikohe,
1808336,3129,Fairview Road,Katikati,
1773809,9584,Fairview Road,Kuriwao,Clinton
1825137,1024,Fairview Road,Mount Eden,Auckland
1809790,3196,Fairview Road,Nukuhou,
1829523,2025,Fairview Road,Papatoetoe,Auckland
1827093,2473,Fairview Road,Pukorokoro / Miranda,Kaiaua
1812914,3800,Fairview Road,Te Awamutu,
1810182,3015,Fairview Road,Western Heights,Rotorua
3046040,,Fairview Street,"Chartwell,Fairview Downs",Hamilton
3046038,8024,Fairview Street,Somerfield,Christchurch
1811971,3410,Fairview Street,Tirau,
1806926,3600,Fairview Terrace,Paeroa,
1772884,9023,Fairview Terrace,Sawyers Bay,Dunedin
1813360,3330,Fairview Terrace,Waipahihi,Taupo
1990993,0910,Fairwater Road,Warkworth,
3084490,5024,Fairwater Way,Whitby,Porirua
1808804,3116,Fairway Avenue,Mount Maunganui,
1820790,0932,Fairway Avenue,Red Beach,
3060487,5011,Fairway Drive,Avalon,Lower Hutt
1795430,9320,Fairway Drive,Bridge Hill,Alexandra
3060484,9371,Fairway Drive,Jacks Point,Queenstown
1819659,0230,Fairway Drive,Kerikeri,
1840052,5711,Fairway Drive,Martinborough,
3084681,7872,Fairway Drive,Moana,Moana
1835792,3300,Fairway Drive,Morrinsville,
1825185,1041,Fairway Drive,Mount Roskill,Auckland
1785710,8061,Fairway Drive,Shirley,Christchurch
1825971,0112,Fairway Drive,"Te Kamo,Whau Valley",Whangarei
1838761,4410,Fairway Grove,Hokowhitu,Palmerston North
1806510,5036,Fairway Oaks Drive,Waikanae Beach,Waikanae
3079381,3114,Fairwayview Drive,Omokoroa,
1779055,7630,Fairweather Crescent,Kaiapoi,
3083570,3283,Fairweather Lane,Tamahere,Hamilton
1778469,9872,Fairweather Road,Mill Road,Invercargill
1820526,0494,Fairwinds Place,Hihi,Mangonui
1827089,2121,Fairwin Road,Tuakau,
1820788,0975,Fairy Hill Road,Te Arai,Wellsford
3078813,0230,Fairy Pools Lane,Kerikeri,
3010744,3015,Fairy Springs Road,"Fairy Springs,Mangakakahi",Rotorua
1822880,0600,Faith Bullock Place,New Lynn,Auckland
3080567,2578,Faithful Drive,Karaka,Papakura
1822672,0632,Faith Grove,Greenhithe,Auckland
1779152,7675,Faith Place,West Melton,
3080719,2113,Falabella Lane,Karaka,Papakura
1830399,2019,Falcarragh Crescent,Flat Bush,Auckland
1948464,3210,Falcon Court,Flagstaff,Hamilton
2013404,0618,Falcon Crescent,Hobsonville,Auckland
1779154,7700,Falcon Drive,Allenton,Ashburton
1838166,3112,Falcon Drive,Welcome Bay,Tauranga
3059933,9371,Falconer Rise,Jacks Point,Queenstown
1773807,9775,Falconer Road,"Crossans Corner,Kelso","Gore,Tapanui"
1777322,9872,Falconer Road,"Dacre,Mabel Bush",Invercargill
1841949,9772,Falconer Road,Gore,
1838832,7183,Falconer Road,Pohara,Takaka
3044021,9495,Falconers Road,"Herbert,Kakanui","Herbert,Oamaru"
1835625,9371,Falcon Heights,Mount Creighton,Queenstown
3083431,3600,Falcon Lane,Paeroa,
1836704,8061,Falconridge Place,Shirley,Christchurch
3080669,7011,Falcon Ridge Way,Stoke,Nelson
1840701,2104,Falcon Road,Manukau,Auckland
3079037,7615,Falcon Road,Rolleston,
1800039,5024,Falcon Street,Cannons Creek,Porirua
3045259,9010,Falcon Street,"Glenross,Kaikorai,Roslyn",Dunedin
1782729,8061,Falcon Street,New Brighton,Christchurch
1776361,9812,Falcon Street,Newfield,Invercargill
1770363,9430,Falcon Street,Palmerston,
1824005,1052,Falcon Street,Parnell,Auckland
3084082,7615,Falcons View Drive,Rolleston,
1837891,8061,Falconwood Grove,Aranui,Christchurch
1829947,2013,Faldo Drive,Golflands,Auckland
1777324,9884,Falkiner Road,Progress Valley,Tokanui
1794880,6022,Falkirk Avenue,Seatoun,Wellington
1824022,0600,Falkirk Street,Blockhouse Bay,Auckland
1772279,9010,Falkirk Street,Dalmore,Dunedin
1777328,9816,Falkirk Street,Wallacetown,
1772272,9010,Falkland Street,Maori Hill,Dunedin
1796809,4500,Falkland Street,Whanganui East,Whanganui
1813199,3920,Falkner Park,Taumarunui,
1801352,4994,Falkner Road,Eketahuna,
3007272,4072,Falkner Road,"Ngatapa,Rere",Gisborne
1774463,9292,Falla Burn Road,Hillend,Balclutha
1796132,5032,Falla Street,Paraparaumu Beach,Paraparaumu
3083104,3583,Falling Waters Lane,Tuateawa,Coromandel
1795197,5888,Falloon Settlement Road,Kaituna,Masterton
1840513,4775,Fallow Avenue,Feilding,
3083082,0932,Fallowdown Street,Wainui,
1794876,6011,Fallowfield Avenue,Mount Victoria,Wellington
2014761,7020,Fallow Place,Richmond,
1822009,0630,Fallow Street,Browns Bay,Auckland
3079538,9371,Fallow Street,Jacks Point,Queenstown
1829788,2022,Fallsbrook Lane,Mangere Bridge,Auckland
1803574,9881,Falls Creek Road,Orepuki,Riverton/Aparima
1803544,9884,Falls Creek Road,Progress Valley,Tokanui
1790453,7883,Falls Creek Road,Totara River,Ross
1831989,2583,Falls Road,Hunua,
3066453,3782,Falls Road,"Maramarua Forest,Waerenga",Te Kauwhata
3066452,4979,Falls Road,"Waione,Weber",Weber
1823641,0781,Falls Road,Waitakere,Auckland
1820798,0984,Falls Road,Warkworth,
1820799,0910,Falls Street,Warkworth,
1778166,9884,Falls Terrace,Progress Valley,Tokanui
1819655,0204,Falls View Road,Haruru,
1822006,0630,Falmouth Street,Murrays Bay,Auckland
1782743,8011,Falsgrave Street,Waltham,Christchurch
1829028,2012,Falstaff Place,Half Moon Bay,Auckland
1812013,4332,Falstaff Street,Stratford,
1781962,7901,Falstone Crescent,Twizel,
1832542,0630,Falstone Lane,Browns Bay,Auckland
1774058,9591,Falstone Street,Beaumont,Lawrence
1774239,7999,Falston Road,"Glenbrook,Lake Benmore,Totara Peak",Twizel
1787206,7975,Falvey Road,Levels,Timaru
1791254,7272,Falveys Road,Hawkesbury,Renwick
1840602,8042,Famille Close,Yaldhurst,Christchurch
1794894,6012,Fancourt Street,Karori,Wellington
1824000,1072,Fancourt Street,Meadowbank,Auckland
1803852,4104,Fannin Street,Bay View,Napier
1804997,4278,Fannin Street,Ongaonga,
1824007,1010,Fanshawe Street,Auckland Central,Auckland
1982651,7481,Fantail Avenue,Amberley,
3080347,5713,Fantail Avenue,Carterton,
3053499,5036,Fantail Close,Waikanae,
1820797,0931,Fantail Court,Orewa,
1839382,2018,Fantail Crescent,Maraetai,Auckland
1805666,3112,Fantail Drive,Maungatapu,Tauranga
1793074,5010,Fantail Grove,Belmont,Lower Hutt
1806476,7220,Fantail Heights,Picton,
1835624,9371,Fantail Lane,Mount Creighton,Queenstown
1770034,3282,Fantail Lane,Rukuhia,Hamilton
1838833,7077,Fantail Lane,Six Mile,Murchison
1785732,7581,Fantail Lane,Takamatua,
3081503,0175,Fantail Lane,Whareora,
1787557,8023,Fantail Lane,Woolston,Christchurch
3082379,0600,Fantail Place,Avondale,Auckland
1799069,4720,Fantail Place,Taihape,
1954747,0294,Fantail Rise,Kerikeri,
3085157,7893,Fantail Rise,Little Wanganui,Karamea
1834064,3283,Fantails Flit,Tamahere,Hamilton
1815497,3508,Fantail Terrace,Tairua,
3079152,0505,Fantail Way,Mangawhai,
1840387,3691,Fantail Way,Whiritoa,Waihi
1792142,5024,Fantame Street,Cannons Creek,Porirua
1810303,8051,Fantasia Gardens,Northwood,Christchurch
1817488,4610,Fantham Street,Hawera,
1817794,4310,Fantome Place,Whalers Gate,New Plymouth
1782114,7020,Faraday Rise,Richmond,
1795348,5713,Faraday Street,Carterton,
3034406,4110,Faraday Street,"Hospital Hill,Napier South",Napier
1797135,4574,Faraday Street,Pakaraka,Whanganui
1824003,1052,Faraday Street,Parnell,Auckland
1782726,8023,Faraday Street,Sydenham,Christchurch
1818553,0614,Faram Place,Massey,Auckland
1791503,7271,Fareham Lane,Renwick,
1797766,4995,Farelly Street,Eketahuna,
1832661,2022,Fareti Place,Mangere,Auckland
1814503,3900,Fare Vue Lane,Otorohanga,
1836671,9305,Far Horizon Drive,Wanaka,
1842448,7615,Faringdon Boulevard,Rolleston,
1775639,9024,Faringdon Drive,Mosgiel,
1800327,5014,Faris Crescent,Wainuiomata,Lower Hutt
1837389,3210,Farleigh Close,Huntington,Hamilton
1798431,7010,Farleigh Street,Atawhai,Nelson
3081336,5712,Farley Avenue,Greytown,
1829635,2679,Farley Road,Clarks Beach,
1777339,9884,Farley Road,Quarry Hills,Tokanui
1774969,9010,Farley Street,Kaikorai,Dunedin
1829043,2023,Farley Street,Otara,Auckland
3084470,7615,Farmall Lane,Rolleston,
1790887,7201,Farmar Street,Mayfield,Blenheim
1830094,2019,Farmdale Court,Flat Bush,Auckland
1793067,5011,Farmer Crescent,Taita,Lower Hutt
3013139,4071,Farmer Road,"Makaraka,Waerengaahika",Gisborne
1811727,3310,Farmer Road,Waitoa,
1817811,4310,Farmers Lane,New Plymouth,
1794888,6011,Farmers Lane,Wellington Central,Wellington
1820801,0974,Farmers Lime Road,Wellsford,
1811534,3400,Farmers Road,Matamata,
1779727,7383,Farmer Street,Gore Bay,Cheviot
1832347,2024,Farmer Street,Mangere East,Auckland
1797527,4817,Farmer Street,Sanson,
1815141,3320,Farmer Street,Te Aroha,
1825969,0112,Farmer Street,Te Kamo,Whangarei
3040332,1072,Farmhouse Lane,Saint Johns,Auckland
3081349,2110,Farmland Road,Papakura,
1779160,8083,Farm Lane,Parklands,Christchurch
1803688,4172,Farmlet Road,Karamu,Hastings
1832512,2681,Farm Park Road,"Mauku,Waiuku","Pukekohe,Waiuku"
1780716,7700,Farm Road,Allenton,Ashburton
1781432,7986,Farm Road,"Clandeboye,Orton",Temuka
1786560,9498,Farm Road,Hakataramea,Kurow
3064390,7674,Farm Road,Lincoln,
1773005,9597,Farm Road,Middlemarch,
1809795,3079,Farm Road,Minginui,
1824009,1025,Farm Road,Mount Albert,Auckland
1794895,6012,Farm Road,Northland,Wellington
3064394,,Farm Road,"Oueroa,Waipukurau",Waipukurau
1813777,3875,Farm Road,Tokanui,Te Awamutu
1808114,3611,Farm Road,Waihi Beach,
1798675,4592,Farm Road,Waitotara,Whanganui
1775669,9073,Farm Road East,Henley,Mosgiel
1804993,4284,Farm Road Extension,Oueroa,Waipukurau
1775670,9073,Farm Road West,Henley,Mosgiel
1851019,7774,Farmstead Lane,Huntingdon,Ashburton
3084872,0583,Farms Terrace,Maungaturoto,Maungaturoto
1778584,9730,Farm Street,Lumsden,
1808803,3116,Farm Street,Mount Maunganui,
3083038,7674,Farmview Lane,Lincoln,
1813495,3210,Farnah Green,Flagstaff,Hamilton
1829025,2022,Farnborough Crescent,Mangere,Auckland
3028850,3200,Farnborough Drive,"Grandview Heights,Nawton",Hamilton
1782720,8061,Farnborough Street,"Aranui,Bexley",Christchurch
1842821,7615,Farnborough Way,Rolleston,
1784503,8042,Farndale Place,Avonhead,Christchurch
1803690,,Farndon Road,"Clive,Tomoana","Clive,Hastings"
1808337,3114,Farnell Court,Omokoroa,
1820794,0930,Farnell Place,Gulf Harbour,Whangaparaoa
1799346,4412,Farnham Avenue,Highbury,Palmerston North
3082375,5510,Farnham Close,Levin,
1815694,3210,Farnham Close,Rototuna North,Hamilton
1788836,7020,Farnham Drive,Richmond,
1791708,7201,Farnham Drive,Springlands,Blenheim
1816794,4312,Farnham Place,Bell Block,New Plymouth
1784484,8041,Farnham Place,Ilam,Christchurch
1800566,6021,Farnham Street,"Berhampore,Mornington",Wellington
1770212,9400,Farnham Street,Oamaru North,Oamaru
1824021,1052,Farnham Street,Parnell,Auckland
1836852,3112,Farnham Way,Pyes Pa,Tauranga
1784497,8083,Farnley Place,Parklands,Christchurch
1825287,1042,Farnol Street,Hillsborough,Auckland
3060893,,Far North Road,"Awanui,Cape Reinga,Houhora,Ngataki,Pukenui,Te Hapua,Te Kao,Waiharara,Waipapakauri","Awanui,Pukenui,Te Kao"
1787525,8051,Farnswood Place,Redwood,Christchurch
3017306,3010,Farnworth Avenue,Holdens Bay,Rotorua
1809797,3120,Farnworth Crescent,Whakatane,
2010112,6037,Farnworth Terrace,"Churton Park,Glenside",Wellington
3082273,0931,Faroe Street,Orewa,
1781038,7730,Farquhar Place,Methven,
1823649,0602,Farquhar Road,Glendene,Auckland
1773810,9586,Farquhar Road,Purekireki,Owaka
1832825,2583,Farquharson Road,Hunua,
1772278,9010,Farquharson Street,Opoho,Dunedin
3063925,7784,Farquhars Road,"Barrhill,Mitcham","Ashburton,Lauriston"
1784489,8051,Farquhars Road,Redwood,Christchurch
1818796,0891,Farrand Road,Kumeu,
1784924,9305,Farrant Drive,Wanaka,
1777332,9875,Farrar Street,Fortrose,Tokanui
1824014,1021,Farrar Street,Grey Lynn,Auckland
1776364,9812,Farrar Street,Heidelberg,Invercargill
3082912,2120,Farrell Road,Pukekohe,
3063796,8083,Farrells Road,Ouruhia,Christchurch
1825290,1041,Farrelly Avenue,Wesley,Auckland
1793075,5011,Farrelly Grove,Fairfield,Lower Hutt
2001281,8051,Farrelly Place,Casebrook,Christchurch
1806868,3682,Farrelly Road,Waikino,Waihi
1770954,9310,Farrier Court,Cromwell,
1795471,5710,Farrier Grove,Featherston,
3027193,3187,Farrier Street,Papamoa,
1820242,0410,Farrimond Place,Kaitaia,
3026753,3210,Farringdon Avenue,"Flagstaff,Rototuna North",Hamilton
1831440,1072,Farringdon Street,Glen Innes,Auckland
1784496,8053,Farrington Avenue,"Bishopdale,Burnside",Christchurch
3081506,2584,Farronfore Road,Opaheke,Papakura
3079030,2022,Farro Place,Favona,Auckland
2012907,3112,Farrow Way,Welcome Bay,Tauranga
1827097,2675,Farr Road,Bombay,
1819489,0573,Farr Road,Kaiwaka,
1823656,0618,Farr Road,West Harbour,Auckland
1780544,7673,Farr Street,Whitecliffs,Glentunnel
1775716,9371,Farrycroft Row,Closeburn,Queenstown
1939549,7604,Farthing Drive,Prebbleton,
1789335,7096,Fartua Road,Stanley Brook,Wakefield
1823655,0612,Farwood Drive,Henderson,Auckland
3033337,3110,Fasching Lane,Tauriko,Tauranga
1840535,3210,Fasham Lane,Huntington,Hamilton
1793073,5010,Fashion Centre Arcade,Hutt Central,Lower Hutt
1819942,9305,Fastness Crescent,Wanaka,
1770916,9320,Fastnet Street,Alexandra,
1852419,2024,Fatafehi Place,Favona,Auckland
1792144,5024,Fathom Lane,Whitby,Porirua
1823639,0610,Fathom Place,Te Atatu Peninsula,Auckland
1784486,8051,Fatima Street,Redwood,Christchurch
1788847,7020,Fauchelle Avenue,Richmond,
1801368,4702,Fauchelle Court,Feilding,
1816282,3995,Fauchelle Road,Otangiwai,Matiere
1831441,1022,Faulder Avenue,Westmere,Auckland
1793489,5014,Faulke Avenue,Wainuiomata,Lower Hutt
1791566,7201,Faulkland Drive,Witherlea,Blenheim
1803220,9875,Faulkner Road,Ashers,Invercargill
1822154,0627,Faulkner Road,Northcote Point,Auckland
1800702,4775,Faulkners Road,Bunnythorpe,Palmerston North
1782182,7979,Faulkners Road,Waimate,
1809178,3112,Faulkner Street,Gate Pa,Tauranga
1804118,4110,Faulknor Lane,Napier South,Napier
1805313,4110,Faulknor Street,Napier South,Napier
1853112,7608,Faulks Drive,Lincoln,
1774820,9382,Faulks Road,Wanaka,
1771482,9305,Faulks Terrace,Wanaka,
1816455,4383,Faull Road,Tikorangi,Waitara
3082619,8025,Fauna Street,Halswell,Christchurch
1827445,2120,Fausett Avenue,Pukekohe,
1827635,2579,Fausett Road,Ararimu,Drury
1797768,4993,Fauvels Road,Eketahuna,
2001283,8051,Faversham Lane,Casebrook,Christchurch
1812080,4395,Favier Road,Te Wera,Stratford
3000428,2024,Favona Road,Favona,Auckland
1834245,5010,Fawcet Place,Belmont,Lower Hutt
1823643,0604,Fawcett Road,Laingholm,Auckland
1787503,7472,Fawcetts Road,"Ashley,Loburn","Loburn,Rangiora"
1772276,9012,Fawcett Street,South Dunedin,Dunedin
1774059,9593,Fawcett Street,Waitahuna,Lawrence
1789210,7020,Fawdan Way,Richmond,
3077589,3800,Fawley Place,Te Awamutu,
1800040,5024,Fawn Street,Cannons Creek,Porirua
3077743,2104,Fay Close,Wiri,Auckland
1815997,5570,Faydon Close,Ohau,
1837961,7011,Fayette Lane,Stoke,Nelson
1823647,0610,Fayette Place,Te Atatu South,Auckland
3058737,9383,Fay Lane,Queensberry,Cromwell
3077580,7610,Fearne Drive,Woodend,
1832655,0632,Fearnley Grove,Albany,Auckland
3077926,3112,Fearnley Grove,Pyes Pa,Tauranga
1825968,0112,Fearn Street,Te Kamo,Whangarei
1825288,1041,Fearon Avenue,Mount Roskill,Auckland
1789720,7120,Fearon Street,Motueka,
1791246,7210,Fearon Street,Seddon,
1788495,7110,Feary Crescent,Takaka,
1829039,2102,Feasegate Street,Manurewa,Auckland
1782739,8024,Feast Place,Addington,Christchurch
1772265,9010,Fea Street,Dalmore,Dunedin
3079045,7615,Feather Place,Rolleston,
1784963,7472,Feathers Road,Loburn,
1829035,2023,Featherston Crescent,Otara,Auckland
3021355,7630,Featherstone Avenue,"Kairaki,The Pines Beach",
1816841,3210,Featherstone Drive,Flagstaff,Hamilton
1797769,4996,Featherston Street,Alfredton,Eketahuna
1798416,5510,Featherston Street,Levin,
3030513,9014,Featherston Street,Macandrew Bay,Dunedin
1791918,,Featherston Street,"Palmerston North,Roslyn,Takaro",Palmerston North
3030514,6011,Featherston Street,"Pipitea,Wellington Central",Wellington
1831987,2684,Featon Avenue,Awhitu,
1807005,3610,Featon Road,Waihi,
1817328,4681,Feaver Road,Opunake,
1781030,7771,Fechneys Road,Westerfield,Ashburton
1824023,1010,Federal Street,Auckland Central,Auckland
3071019,8053,Federer Lane,Bishopdale,Christchurch
1833279,2013,Feeny Crescent,East Tamaki,Auckland
1842160,9292,Fegan Road,Milton,
1842213,7020,Feijoa Way,Richmond,
1782742,8024,Feilding Street,Addington,Christchurch
3033961,2471,Feist Road,Kopuku,Maramarua
1795346,5713,Feist Street,Carterton,
1793072,5011,Feist Street,Naenae,Lower Hutt
1787041,7630,Feldwick Drive,Kaiapoi,
3065863,9682,Feldwick Road,"Birchwood,Eastern Bush,Feldwick",Otautau
1823645,0602,Felgrove Street,Glendene,Auckland
1829045,2104,Felicia Place,Wiri,Auckland
1839050,8025,Felicitas Grove,Aidanfield,Christchurch
1831203,0632,Felicity Place,Unsworth Heights,Auckland
1790171,7805,Felix Campbell Street,Greymouth,
1775562,9010,Felix Street,North East Valley,Dunedin
1831711,1061,Felix Street,Onehunga,Auckland
1841869,7025,Fellbridge Rise,Wakefield,
1832342,2102,Fellbrook Street,Manurewa,Auckland
3085674,3420,Fellingham Terrace,Tokoroa,Tokoroa
1774714,9495,Felling Street,Maheno,Oamaru
1978663,0932,Felling Street,"Silverdale,Wainui",
1789307,7011,Fell Place,Stoke,Nelson
1791249,7202,Fell Street,Grovetown,Blenheim
3085659,5018,Fell Street,Maymorn,Upper Hutt
1791250,7210,Fell Street,Seddon,
1773002,9510,Fell Street,Waikouaiti,
1772266,9011,Fels Street,Kenmure,Dunedin
1784505,8042,Felstead Place,Avonhead,Christchurch
1821763,0626,Felstead Street,Birkenhead,Auckland
1794872,6011,Feltex Lane,Te Aro,Wellington
1841530,7520,Felthams Road,Akaroa,
1799023,4730,Feltham Street,Hunterville,
3079372,7020,Feltham Street,Richmond,
3019499,1072,Felton Mathew Avenue,Saint Johns,Auckland
1771346,9384,Felton Road,Bannockburn,Cromwell
1777682,9792,Felton Road,"Barnhill,Mossburn","Lumsden,Mossburn"
1778650,9883,Felton Street,Thornbury,Riverton/Aparima
1829032,2022,Feltwell Place,Mangere Bridge,Auckland
3055479,7282,Fence Bay,"Fence Bay,Onahau Bay",Marlborough Sounds
1793066,5019,Fenchurch Grove,Stokes Valley,Lower Hutt
1824010,1072,Fenchurch Street,"Glen Innes,Wai o Taiki Bay",Auckland
1782728,,Fenchurch Street,"Northcote,Redwood",Christchurch
1828005,2014,Fencible Drive,Howick,Auckland
1825767,1062,Fencible Place,Otahuhu,Auckland
1829945,2013,Fencotie Place,Northpark,Auckland
1814559,3129,Fencourt Crescent,Katikati,
1814050,3210,Fencourt Place,Rototuna North,Hamilton
3038325,3493,Fencourt Road,"Cambridge,Pukemoremore","Cambridge,Hamilton"
3078216,7602,Fendall Close,Southbridge,
1983071,8014,Fendall Lane,Fendalton,Christchurch
1800123,5019,Fendalton Crescent,Pinehaven,Upper Hutt
1813865,3210,Fendalton Drive,Rototuna,Hamilton
1839986,0931,Fendalton Place,Hatfields Beach,Orewa
1786944,,Fendalton Road,"Christchurch Central,Fendalton,Ilam",Christchurch
1840088,3112,Fender Close,Pyes Pa,Tauranga
3079257,0630,Fender Place,Long Bay,Auckland
1807165,3210,Fend Street,Chartwell,Hamilton
3082230,5883,Fenemor Lane,Flat Point,Masterton
1795198,5882,Fenemor Road,Kopuaranga,Masterton
3083653,4999,Feng Lane,Woodville,
1784487,8042,Fenhall Street,Russley,Christchurch
1777690,9682,Fenham Road,Merrivale,Otautau
3082381,7805,Fenian Lead Road,"Marsden,Rutherglen",Greymouth
3073507,7893,Fenian Road,"Kahurangi National Park,Karamea",
1784488,8083,Fenmere Place,Burwood,Christchurch
1841048,0932,Fennell Crescent,Silverdale,
1782752,8083,Fenners Lane,New Brighton,Christchurch
1774753,9396,Fennessy Road,Naseby,
1838644,7025,Fenn Place,Wakefield,
1814859,3015,Fenruss Street,Fairy Springs,Rotorua
1798295,5036,Fenside Street,Waikanae Beach,Waikanae
1822681,0622,Fentham Road,Hauraki,Auckland
3081496,9305,Fenton Avenue,Wanaka,
1824006,1071,Fenton Circus,Orakei,Auckland
1772288,9012,Fenton Crescent,Saint Clair,Dunedin
3067218,3127,Fenton Mill Road,Kawerau,
3067219,3192,Fenton Mill Road,"Kawerau,Tarawera Forest",Kawerau
3036871,3010,Fenton Street,"Glenholme,Rotorua,Victoria,Whakarewarewa",Rotorua
1809806,3127,Fenton Street,Kawerau,
3083676,4071,Fenton Street,Lytton West,Gisborne
1824018,1024,Fenton Street,Mount Eden,Auckland
1832419,2025,Fenton Street,Papatoetoe,Auckland
1812113,4332,Fenton Street,Stratford,
1814205,3500,Fenton Street,Thames,
1828006,2014,Fenton Terrace,Cockle Bay,Auckland
1808726,3119,Fenton Terrace,Te Puke,
1836620,9024,Fenty Place,Mosgiel,
1822669,0620,Fenwick Avenue,Milford,Auckland
1774437,9310,Fenwick Crescent,Cromwell,
1807166,3216,Fenwick Crescent,Hillcrest,Hamilton
3080518,5018,Fenwick Crescent,Wallaceville,Upper Hutt
1789788,7182,Fenwick Road,Rangihaeata,Takaka
1795569,5794,Fenwicks Line,Morison Bush,Greytown
1819517,0571,Fenwicks Point Road,Pahi,Paparoa
1779833,7491,Fenwicks Road,"Hawarden,Waikari",
1772261,9010,Fenwick Street,Halfway Bush,Dunedin
1770766,9495,Fenwick Street,Kakanui,Oamaru
1805126,4122,Fenwick Street,Mayfair,Hastings
1812145,4394,Fenwick Street,Tariki,Stratford
1804107,4110,Fenwick Street,Westshore,Napier
3082815,8025,Ferbane Way,Halswell,Christchurch
1812146,4332,Ferdinand Street,Stratford,
1839961,8042,Ferdinand Terrace,Yaldhurst,Christchurch
3014173,7683,Feredays Road,"Leeston,Southbridge",
1825565,1061,Ferguson Avenue,Greenlane,Auckland
1786121,7483,Ferguson Avenue,Waipara,
1804114,4110,Ferguson Avenue,Westshore,Napier
3079885,9305,Ferguson Drive,Wanaka,
1810186,3015,Ferguson Place,Fairy Springs,Rotorua
3077487,7886,Ferguson Place,Franz Josef/Waiau,
1809788,3191,Ferguson Road,Coastlands,Whakatane
1829023,2023,Ferguson Road,Otara,Auckland
1816454,4383,Ferguson Road,Tikorangi,Waitara
1810997,3285,Ferguson Road,Whatawhata,Hamilton
3045764,7483,Fergusons Road,"Broomfield,Weka Pass","Broomfield,Waipara"
1780538,7580,Fergusons Road,Springfield,
1803355,4122,Ferguson Street,Akina,Hastings
1791919,,Ferguson Street,"Awapuni,Palmerston North,Terrace End,West End",Palmerston North
3064221,9877,Ferguson Street,"Clifton,Woodend",Invercargill
1774712,9435,Ferguson Street,Kurow,
1798411,5510,Ferguson Street,Levin,
1829030,2024,Ferguson Street,Mangere East,Auckland
1829033,2102,Ferguson Street,Manurewa East,Auckland
1800565,6021,Ferguson Street,Newtown,Wellington
1805659,4203,Ferguson Street,Takapau,
1809796,3123,Ferguson Street,Taneatua,
1773007,9471,Ferguson Street,Warrington,Waikouaiti
1803853,4104,Ferguson Street North,Bay View,Napier
1803855,4104,Ferguson Street South,Bay View,Napier
1835970,7472,Fergus Road,Loburn,
1806869,3681,Fergus Road,Waihi Beach,
1782734,8013,Fergusson Avenue,Mairehau,Christchurch
1831615,1025,Fergusson Avenue,Sandringham,Auckland
1804546,4200,Fergusson Avenue,Waipukurau,
1826964,5018,Fergusson Drive,"Brown Owl,Clouston Park,Ebdentown,Elderslea,Heretaunga,Silverstream,Trentham,Upper Hutt Central",Upper Hutt
1802089,4010,Fergusson Drive,Te Hapara,Gisborne
1841876,7920,Fergusson Drive,Temuka,
1806117,3500,Fergusson Drive,Thames,
1770450,3300,Fergusson Grove,Morrinsville,
1812840,3494,Fergusson Gully Road,Karapiro,Cambridge
1797624,4779,Fergusson Road,Halcombe,
1797312,4702,Fergusson Street,Feilding,
1781227,7930,Fergusson Street,Geraldine,
1807167,3216,Fergusson Street,Hamilton East,Hamilton
1810870,3700,Fergusson Street,Huntly,
1809809,3127,Fergusson Street,Kawerau,
1797352,4777,Fergusson Street,Kiwitea,Feilding
1795758,4472,Fergusson Street,Linton,Palmerston North
1792072,4710,Fergusson Street,Marton,
1817489,4614,Fergusson Street,Normanby,Hawera
1781039,7710,Fergusson Street,Rakaia,
1795104,5810,Fergusson Street,Solway,Masterton
1780147,7602,Fergusson Street,Southbridge,
1800879,4501,Fergusson Street,Springvale,Whanganui
1788139,7011,Fergusson Street,Stoke,Nelson
1812285,3420,Fergusson Street,Tokoroa,
1793065,5011,Fergusson Street,Waterloo,Lower Hutt
1804881,4920,Fergusson Street,Woodville,
1837920,3110,Fergusson Way,Judea,Tauranga
1777693,9600,Fergus Square,Te Anau,
1779728,7310,Fergus Street,Cheviot,
1837179,7630,Fergus Street,Kaiapoi,
1837726,2103,Fergy Crescent,Wattle Downs,Auckland
3079721,3210,Fergy Place,Rototuna North,Hamilton
1809794,3192,Fermah Road,Poroporo,Whakatane
2003065,2121,Fermanagh Grove,Tuakau,
3077583,2016,Fermanagh Place,East Tamaki Heights,Auckland
3012094,0932,Fermier Greens,Silverdale,
3079091,2110,Fermi Lane,Papakura,
1827766,2110,Fernaig Street,Papakura,
3080064,3283,Fernando Drive,Tamahere,Hamilton
1930679,2402,Fernan Street,Pokeno,
1825566,1023,Fern Avenue,Epsom,Auckland
1838730,0632,Fernbank Lane,Greenhithe,Auckland
3078565,3781,Fernbird Avenue,Te Kauwhata,
1954746,0294,Fernbird Grove,Kerikeri,
1823654,0614,Fernbird Place,Massey,Auckland
3003593,0505,Fern Bird Place,Mangawhai Heads,Mangawhai
3085323,7615,Fernbird Road,Rolleston,Rolleston
1829977,2013,Fernbrook Close,Burswood,Auckland
1797288,7805,Fernbrook Close,Greymouth,
3005260,4310,Fernbrook Drive,"Hurworth,Upper Vogeltown",New Plymouth
1782744,8013,Fernbrook Place,Mairehau,Christchurch
1770210,9400,Fernbrook Road,Oamaru North,Oamaru
3083280,9382,Fern Burn Close,Wanaka,
1839989,0931,Fern Court,Orewa,
1770764,9435,Fern Crescent,Aviemore,Kurow
1831442,1010,Ferncroft Street,Grafton,Auckland
1830991,0985,Ferndale Avenue,Leigh,
3077477,4471,Ferndale Drive,Aokautere,
1829053,2585,Ferndale Drive,Kawakawa Bay,
1821436,0920,Ferndale Drive,Snells Beach,
1840953,5036,Ferndale Drive,Waikanae,
1797314,4702,Ferndale Place,Feilding,
3015233,9772,Ferndale Road,Ferndale,Mataura
1811259,2471,Ferndale Road,"Maramarua,Maramarua Forest","Maramarua,Te Kauwhata"
1825765,1060,Ferndale Road,Mount Wellington,Auckland
1813735,3384,Ferndale Way,Rangatira Park,Taupo
1827611,2025,Ferndown Avenue,Papatoetoe,Auckland
1809282,3110,Ferndown Close,Brookfield,Tauranga
1785812,8062,Ferndown Lane,Bromley,Christchurch
1783977,8025,Fern Drive,Halswell,Christchurch
3085318,2113,Fern Drive,Rosehill,Papakura
1799846,4077,Ferneaux Street,Tolaga Bay,
1824948,1025,Ferner Avenue,Mount Albert,Auckland
1782727,8061,Ferner Street,Dallington,Christchurch
1812620,3330,Ferney Place,Richmond Heights,Taupo
1820390,0482,Fern Flat Road,"Mangamuka,Peria","Kaitaia,Okaihau"
1789865,7077,Fern Flat Road,Murchison,
1801243,4788,Fern Flats Road,Marton,
3007936,5872,Fernglen Road,"Homewood,Ngahape,Stronvar","Masterton,Wainuioru"
1824025,1071,Fern Glen Road North,Saint Heliers,Auckland
1824013,1071,Fern Glen Road South,Saint Heliers,Auckland
1805647,4112,Fern Grove,Taradale,Napier
1833086,0612,Ferngrove Avenue,Ranui,Auckland
1785648,8083,Ferngrove Place,Parklands,Christchurch
1842907,9879,Ferngrove Way,Otatara,Invercargill
1836817,0871,Ferngully Road,Helensville,
1842451,7615,Fernham Way,Rolleston,
1794878,6037,Fernhaven Grove,Newlands,Wellington
1823653,0614,Fernhaven Place,Massey,Auckland
1848447,5381,Fernhill Drive,Judgeford,Porirua
1823657,0614,Fernhill Drive,Westgate,Auckland
1803718,4175,Fernhill Place,Fernhill,Napier
1790135,7805,Fernhill Place,Karoro,Greymouth
1806118,3592,Fernhill Rise,Matarangi,Whitianga
3004816,9300,Fernhill Road,"Fernhill,Queenstown,Sunshine Bay",Queenstown
1772260,9016,Fernhill Street,Dunedin Central,Dunedin
1794879,6012,Fernhill Terrace,Wadestown,Wellington
1830127,0632,Fernhill Way,Oteha,Auckland
1779489,7384,Ferniehurst Road,Ferniehurst,Cheviot
3013374,8024,Ferniehurst Street,Somerfield,Christchurch
3079440,0793,Fernielea Park Drive,Riverhead,
1779599,7332,Fernihurst Street,Waiau,
1842347,4625,Fern Lane,Ohakune,
3077992,4310,Fern Lane,Whalers Gate,New Plymouth
1794887,6012,Fernlea Avenue,Karori,Wellington
1799890,4414,Fernlea Avenue,Kelvin Grove,Palmerston North
1785806,8972,Fernlea Point Road,Port Levy,Diamond Harbour
1818711,0629,Fernlea Rise,Bayview,Auckland
1789225,7020,Fernlea Rise,Richmond,
3004519,1023,Fernleigh Avenue,"Epsom,Royal Oak",Auckland
1827546,2123,Fernleigh Avenue,Waiuku,
1806119,3620,Fernleigh Glade,Whangamata,
1814365,3210,Fernleigh Street,Chartwell,Hamilton
3053753,4310,Fernleigh Street,"Ferndale,Frankleigh Park",New Plymouth
1806790,3671,Fernleigh Street,Kerepehi,Paeroa
1838593,2016,Fernloche Place,Flat Bush,Auckland
1981819,2019,Fernly Rise,Flat Bush,Auckland
1814525,2018,Fern Place,Beachlands,Auckland
1801627,5010,Fernridge Way,Tirohanga,Lower Hutt
1835061,3600,Fern Rise,Paeroa,
1774971,9022,Fern Road,Maia,Dunedin
1827095,2473,Fern Road,Mangatangi,Mangatawhiri
1785307,7471,Fernside Road,"Fernside,Flaxton,Rangiora",Rangiora
1802866,4077,Fernside Road,"Tauwhareparae,Tokomaru Bay","Tokomaru Bay,Tolaga Bay"
1778402,9810,Fern Street,Hargest,Invercargill
3031855,9010,Ferntree Drive,"Kaikorai,Wakari",Dunedin
1823651,0618,Ferntree Terrace,West Harbour,Auckland
3062689,7805,Fern Valley Road,Paroa,Greymouth
1813338,3210,Fernwater Place,Flagstaff,Hamilton
1809279,3110,Fern Way,Brookfield,Tauranga
1791775,6037,Fernwood Court,Woodridge,Wellington
1822391,0629,Fernwood Grove,Bayview,Auckland
1799343,4410,Fernwood Place,Fitzherbert,Palmerston North
3033271,1072,Fernwood Place,Wai o Taiki Bay,Auckland
1790450,7881,F E Road,Kokatahi,
1774802,9330,Ferraud Street,Clyde,
1793070,5011,Ferretti Grove,Avalon,Lower Hutt
1780757,7700,Ferrier Place,Tinwald,Ashburton
1779035,7985,Ferrier Road,Temuka,
1781034,7778,Ferrimans Road,Maronan,Ashburton
1780759,7700,Ferriman Street,Netherby,Ashburton
1841072,4010,Ferris Crescent,Wainui,Gisborne
1771344,9393,Ferris Road,Springvale,Alexandra
1777334,9778,Ferris Road,Waikaia,
1777333,9891,Ferry Factory Road,Menzies Ferry,Wyndham
1775699,9371,Ferry Hill Drive,"Frankton,Lower Shotover",Queenstown
1824027,1023,Ferryhill Road,Epsom,Auckland
1782183,9498,Ferry Lane,Hakataramea,Kurow
1774267,9383,Ferry Lane,Mount Pisa,Cromwell
1787623,8022,Ferrymead Park Drive,"Ferrymead,Heathcote Valley",Christchurch
1782741,8081,Ferrymead Terrace,"Ferrymead,Mount Pleasant",Christchurch
1823640,0618,Ferry Parade,Herald Island,Auckland
1792146,5022,Ferry Place,Porirua City Centre,Porirua
3030213,0932,Ferry Road,"Arkles Bay,Wade Heads",Whangaparaoa
3030198,7992,Ferry Road,"Arundel,Peel Forest","Geraldine,Mount Peel"
1799022,4894,Ferry Road,Bulls,
3030199,,Ferry Road,"Christchurch Central,Ferrymead,Waltham,Woolston",Christchurch
1803693,4102,Ferry Road,Clive,
1800171,5013,Ferry Road,Days Bay,Lower Hutt
1777337,9825,Ferry Road,Edendale,
1782184,9494,Ferry Road,"Glenavy,Papakaio,Pukeuri,Richmond","Oamaru,Waimate,Waitaki Bridge"
1814206,3674,Ferry Road,"Hikutaia,Komata",Paeroa
3030206,7630,Ferry Road,"Kaiapoi,Woodend Beach","Kaiapoi,Woodend"
1806793,3671,Ferry Road,Kerepehi,Paeroa
1793375,5711,Ferry Road,Martinborough,
1771203,9500,Ferry Road,Roxburgh,
1790457,7883,Ferry Road,Ruatapu,
1791252,7202,Ferry Road,Spring Creek,
3030193,9879,Ferry Road,"Taramoa,West Plains",Invercargill
1816079,3330,Ferry Road,Taupo,
1774324,9274,Ferry Road,Tuapeka Mouth,Clydevale
1778651,9620,Ferry Road,Tuatapere,
1799910,4071,Ferry Road,Waerengaahika,Gisborne
1826834,0510,Ferry Road,Waipu,
1809792,3120,Ferry Road,Whakatane,
1798584,4815,Ferry Street,Foxton Beach,Foxton
1794875,6022,Ferry Street,Seatoun,Wellington
1778586,9831,Ferry Street,Wyndham,
1833334,0110,Fertilizer Road,Port Whangarei,Whangarei
1946534,3720,Festival Way,Ngaruawahia,
3077785,3187,Fetlock Way,Papamoa,
3077848,2676,Fetter Lane,Paerata,Pukekohe
1794877,6022,Fettes Crescent,Seatoun,Wellington
3079590,0612,Fetu Oso Lane,Henderson,Auckland
1827765,2110,Fetu Pupula Place,Papakura,
3004932,7881,F F Road,Kokatahi,
1839376,7632,Fibonacci Way,Leeston,
1825285,1041,Fickling Avenue,Mount Roskill,Auckland
1789586,7010,Fiddle Lane,Nelson,
3040501,9386,Fiddlers Flat Road,"Hills Creek,Saint Bathans",Saint Bathans
1821451,0994,Fiddlers Hill Road,Puhoi,Warkworth
1787333,7672,Fiddlers Road,Motukarara,Tai Tapu
1835506,7371,Fidele Lane,Kaikoura Flat,Kaikoura
1821455,0920,Fidelis Avenue,Snells Beach,
1822007,0630,Fidelis Street,Torbay,Auckland
1842176,7274,Fielder Close,Riverlands,
1813785,3400,Fieldhouse Lane,Matamata,
1829034,2012,Fielding Crescent,Farm Cove,Auckland
1838171,2684,Fielding Road,Awhitu,
1827092,2577,Fielding Road,Drury,
1777323,9778,Fielding Road,Potters,Waikaia
1829694,0871,Field Lane,Kaukapakapa,
1785549,8083,Fieldmoor Place,Parklands,Christchurch
1788842,7020,Field Place,Richmond,
1779095,7472,Field Road,Ashley Forest,Loburn
1823999,1010,Fields Lane,Auckland Central,Auckland
1832594,0632,Fields Parade,Oteha,Auckland
1779601,7392,Fields Road,Balmoral,
1781032,7775,Fields Road,Hinds,Ashburton
1829054,2102,Fields Road,Manurewa,Auckland
1780035,8972,Fields Road,Port Levy,Diamond Harbour
1829026,2013,Fieldstone Court,Northpark,Auckland
3079844,0110,Fieldstone Lane,Maunu,Whangarei
1808291,8024,Fieldstone Lane,Spreydon,Christchurch
1797121,4585,Fields Track,Kakatahi,Whanganui
1796843,4500,Field Street,Aramoho,Whanganui
1797970,4814,Field Street,Foxton,
1787880,7822,Field Street,Hector,
1791920,5019,Field Street,"Heretaunga,Silverstream",Upper Hutt
1777319,9730,Field Street,Lumsden,
1789918,7010,Field Street,The Wood,Nelson
1783564,7193,Field Terrace,Okiwi Bay,
1784491,8041,Field Terrace,Upper Riccarton,Christchurch
3082054,9011,Field View,Bradford,Dunedin
1838047,0230,Field View,Kerikeri,
1798292,5036,Field Way,Waikanae Beach,Waikanae
1832343,2012,Fiesta Drive,Half Moon Bay,Auckland
1796150,5032,Fiesta Grove,Raumati Beach,Paraparaumu
3033575,9371,Fife Court,Jacks Point,Queenstown
1804113,4112,Fife Crescent,Tamatea,Napier
1794886,6022,Fife Lane,Miramar,Wellington
1813289,3116,Fife Lane,Mount Maunganui,
1812219,3420,Fife Place,Tokoroa,
3048750,6011,Fifeshire Avenue,"Mount Victoria,Te Aro",Wellington
3008115,7010,Fifeshire Crescent,"Britannia Heights,Stepneyville",Nelson
3015497,0622,Fifeshire Street,"Belmont,Hauraki",Auckland
1796846,4500,Fife Street,Durie Hill,Whanganui
1772277,9010,Fife Street,Kaikorai,Dunedin
1824016,1022,Fife Street,Westmere,Auckland
1801521,7608,Fifetuscan Way,Lincoln,
1772280,9010,Fifield Street,Roslyn,Dunedin
3005602,8023,Fifield Terrace,"Opawa,Sydenham,Waltham",Christchurch
3054215,3112,Fifteenth Avenue,"Judea,Tauranga South",Tauranga
1825967,0110,Fifth Avenue,Avenues,Whangarei
3072141,3214,Fifth Avenue,"Claudelands,Enderley",Hamilton
3080436,9304,Fifth Avenue,Lake Hayes,Queenstown
1824001,1025,Fifth Avenue,Mount Albert,Auckland
1809276,3110,Fifth Avenue,Tauranga,
1816476,4377,Fifth Avenue,Urenui,
1837431,3110,Fifth Avenue East,Tauranga,
1791487,7201,Fifth Lane,Springlands,Blenheim
1777336,9871,Fifth Street,Kennington,Invercargill
1790707,7832,Fifth Street,Kumara,Greymouth
1800616,5810,Fifth Street,Lansdowne,Masterton
1839068,2112,Figaro Crescent,Takanini,Auckland
1945463,3283,Figgmartin Lane,Tamahere,Hamilton
3082227,2019,Figo Place,Totara Park,Auckland
3085032,0293,Fig Tree Lane,Kerikeri,Kerikeri
1841046,0932,Fig Tree Lane,Silverdale,
1830254,2105,Figtree Terrace,Goodwood Heights,Auckland
3079402,1072,Filemu Lane,"Glen Innes,Wai o Taiki Bay",Auckland
1816003,7700,Filey Place,Allenton,Ashburton
1831679,1042,Filgate Street,Hillsborough,Auckland
1794874,6012,Fillbridge Way,Karori,Wellington
3049262,3285,Fillery Road,"Karamu,Waitetuna","Karamu,Raglan"
1772270,9016,Filleul Street,Dunedin Central,Dunedin
1776288,9810,Filleul Street,Gladstone,Invercargill
1816797,4310,Fillis Street,New Plymouth,
3081447,8042,Filly Place,Yaldhurst,Christchurch
3079431,5018,Filmer Crescent,Wallaceville,Upper Hutt
1807169,3206,Filmer Place,Melville,Hamilton
1809281,3110,Filton Avenue,Brookfield,Tauranga
1839001,2019,Finbar Close,Flat Bush,Auckland
1787406,9498,Fincairn Road,Cattle Creek,Hakataramea Valley
1800762,5032,Fincham Road,Raumati Beach,Paraparaumu
1834597,7400,Finchley Mews,Rangiora,
1816095,3216,Finchley Place,Hamilton East,Hamilton
1822004,,Finchley Road,"Browns Bay,Torbay",Auckland
1774465,9291,Finch Road,"Circle Hill,Milton",Milton
1770763,9410,Finchs Road,Hampden,
1840546,9305,Finch Street,Albert Town,Wanaka
1824947,1022,Finch Street,Morningside,Auckland
3064016,0118,Finch Street,One Tree Point,Whangarei
1772275,9022,Finch Street,Saint Leonards,Dunedin
1812913,3800,Finch Street,Te Awamutu,
3061372,5024,Findhorn Place,Papakowhai,Porirua
1811532,3400,Findlater Street,Matamata,
1842124,8025,Findlay Avenue,Halswell,Christchurch
1972703,7011,Findlay Place,Stoke,Nelson
1775774,9810,Findlay Road,"Ascot,Mill Road,Waverley",Invercargill
3008702,9779,Findlay Road,"Balfour,Kingston Crossing","Balfour,Riversdale"
1808156,2473,Findlay Road,"Maramarua,Pukorokoro / Miranda","Kaiaua,Maramarua"
1831988,2678,Findlay Road,Mauku,Pukekohe
1777696,9682,Findlay Road,Orawia,Otautau
1777335,9874,Findlayson Road,Otahuti,Invercargill
1770765,9495,Findlays Road,Waianakarua,Hampden
1824865,1051,Findlay Street,Ellerslie,Auckland
1807170,3216,Findlay Street,Hamilton East,Hamilton
1819487,0505,Findlay Street,Mangawhai Heads,Mangawhai
1816799,4310,Findlay Street,Moturoa,New Plymouth
1796465,3989,Findlay Street,National Park,
1793579,5028,Findlay Street,Tawa,Wellington
1802589,4010,Findlay Street,Te Hapara,Gisborne
1784504,8041,Fine Arts Lane,Ilam,Christchurch
1773674,9271,Finegand Township Road,"Finegand,Kakapuaka",Balclutha
1785673,8022,Fineran Lane,Cashmere,Christchurch
1817486,4610,Finer Place,Hawera,
3079856,2012,Finesse Lane,Bucklands Beach,Auckland
1774907,9012,Fingall Street,South Dunedin,Dunedin
1832771,0930,Fingal Way,Gulf Harbour,Whangaparaoa
3004530,9776,Fingerpost Pyramid Road,"Mandeville,Riversdale","Gore,Riversdale"
1805388,4292,Fingerpost Road,Porangahau,
3021215,9776,Fingerpost Road,Riversdale,
3083224,9310,Finla Terrace,Cromwell,
1790483,7220,Finlay Grove,Waikawa,Picton
1829051,2023,Finlay Place,Otara,Auckland
1786654,8023,Finlay Place,Woolston,Christchurch
1812842,3494,Finlay Road,Maungatautari,Cambridge
1829037,2103,Finlayson Avenue,Clendon Park,Auckland
1819485,0582,Finlayson Brook Road,"Mareretu,Taipuha,Waipu","Maungaturoto,Paparoa,Waipu"
1819083,0310,Finlayson Park Avenue,Dargaville,
1814070,3112,Finlayson Place,Welcome Bay,Tauranga
1770762,9495,Finlayson Road,Herbert,
3011154,2471,Finlayson Road,Kopuku,Maramarua
1831946,0176,Finlayson Road,Matarau,Whangarei
1813056,3290,Finlayson Road,Ngahinapouri,Ohaupo
3011151,9091,Finlayson Road,"Taieri Beach,Taieri Mouth,Waihola","Milton,Taieri Mouth"
1825970,0110,Finlayson Street,Whangarei,
3061841,9491,Finlays Road,"Corriedale,Windsor",Oamaru
1780629,7675,Finlays Road,West Melton,
1770843,9320,Finlay Street,Alexandra,
1794105,6021,Finlay Terrace,Mount Cook,Wellington
1823176,0610,Finlow Drive,Te Atatu South,Auckland
1804555,3110,Finlowe Way,Otumoetai,Tauranga
3080404,7615,Finn Avenue,Rolleston,
1828004,2014,Finnerty Avenue,"Bucklands Beach,Howick",Auckland
1809252,4391,Finnerty Road,"Cardiff,Mahoe,Ngaere",Stratford
3018672,9010,Finnerty Road,Leith Valley,Dunedin
1773001,9076,Finnie Road,Scroggs Hill,Dunedin
1794125,6021,Finnimore Terrace,Vogeltown,Wellington
1805314,4110,Finnis Lane,Hospital Hill,Napier
1797692,4775,Finnis Road,Pohangina,Ashhurst
1837749,1060,Finn Place,Mount Wellington,Auckland
3050534,5022,Finn Place,Titahi Bay,Porirua
1822389,0629,Finn Place,Totara Vale,Auckland
1782736,8081,Finnsarby Place,Sumner,Christchurch
1838930,0612,Finsbury Place,Henderson,Auckland
1784027,8042,Finsbury Street,Islington,Christchurch
3082882,7614,Finstock Way,Rolleston,
1842019,8025,Fintan Mews,Aidanfield,Christchurch
1830149,2016,Fintona Place,Dannemora,Auckland
3079930,3129,Fintona Street,Katikati,
1838711,2016,Fintry Place,Flat Bush,Auckland
1797214,4702,Fiona Crescent,Feilding,
1794115,6012,Fiona Grove,Karori,Wellington
1814366,3204,Fiona Place,Dinsdale,Hamilton
1786874,8042,Fiona Place,Hei Hei,Christchurch
1839659,2113,Fiorano Place,Karaka,Papakura
1839035,5024,Fiordland Place,Aotea,Porirua
1775383,9320,Fir Close,Alexandra,
3084940,0618,Firebrick Way,Hobsonville,Auckland
3081184,4891,Fire Lane,Himatangi Beach,
3084035,2019,Firenze Road,Flat Bush,Auckland
1838371,5018,Fire Station Lane,Trentham,Upper Hutt
1802384,4032,Fire Station Road,Ruatoria,
1788838,7096,Firewood Gully Road,"Atapo,Golden Downs","St. Arnaud,Wakefield"
1823170,0604,Firle Place,Green Bay,Auckland
3055043,7618,Firsby Drive,West Melton,
1826173,0110,First Avenue,Avenues,Whangarei
1819082,0310,First Avenue,Dargaville,
1827098,2681,First Avenue,Glenbrook,
1831614,1021,First Avenue,Kingsland,Auckland
3080432,9304,First Avenue,Lake Hayes,Queenstown
1825639,1081,First Avenue,"Onetangi,Waiheke Island",Waiheke Island
1829027,2585,First Avenue,Orere Point,
3083690,3015,First Avenue,Pukehangi,Rotorua
1831054,0624,First Avenue,Stanley Point,Auckland
1809278,3110,First Avenue,Tauranga,
1818008,4377,First Avenue,Urenui,
1811813,3393,First Avenue North,Waihou,Te Aroha
1815850,3393,First Avenue South,Waihou,Te Aroha
1791484,7201,First Lane,Blenheim,
1824028,1026,Fir Street,Waterview,Auckland
1776723,9871,First Street,Kennington,Invercargill
1790456,7832,First Street,Kumara,Greymouth
1795101,5810,First Street,Lansdowne,Masterton
1832344,2018,First View Avenue,Beachlands,Auckland
1815422,3400,Firth Close,Matamata,
1829031,2025,Firth Crescent,Otara,Auckland
1799339,4412,Firth Place,Awapuni,Palmerston North
1810187,3015,Firth Place,Hillcrest,Rotorua
1831439,1021,Firth Road,Grey Lynn,Auckland
1829052,2583,Firth Road,Hunua,
1792148,5026,Firth Road,Plimmerton,Porirua
1822010,0630,Firth Road,Torbay,Auckland
1790661,7802,Firth Street,Cobden,Greymouth
1827086,2113,Firth Street,Drury,
1777342,9875,Firth Street,Fortrose,Tokanui
1807171,3216,Firth Street,Hamilton East,Hamilton
3052870,3400,Firth Street,Matamata,
1794126,6012,Firth Terrace,Karori,Wellington
1806120,3575,Firth View Road,Te Puru,Thames
1782732,8061,Fir Tree Lane,Aranui,Christchurch
1786656,8023,Fisher Avenue,Beckenham,Christchurch
1825813,1060,Fisher Crescent,Mount Wellington,Auckland
1829046,2023,Fisher Crescent,Otara,Auckland
1782185,7980,Fisheries Road,Glenavy,Waimate
1771343,9393,Fisher Lane,Galloway,Alexandra
1831990,2682,Fisherman Road,Otaua,
1787304,7583,Fishermans Bay Road,Long Bay,Akaroa
1836426,9498,Fishermans Bend,Kirkliston,Hakataramea Valley
1814310,3691,Fishermans Bend,Whiritoa,Waihi
1821439,0930,Fishermans Cove,Army Bay,Whangaparaoa
1809599,3120,Fishermans Drive,Coastlands,Whakatane
1785471,7387,Fishermans Lane,Motunau,Greta Valley
1774511,9371,Fishermans Lane,Mount Creighton,Queenstown
1785581,8083,Fishermans Rest,Waimairi Beach,Christchurch
3072500,,Fisher Parade,"Farm Cove,Sunnyhills",Auckland
1795347,5713,Fisher Place,Carterton,
3053461,7910,Fisher Place,"Gleniti,Glenwood",Timaru
1840913,4010,Fisher Place,Lytton West,Gisborne
1796086,3122,Fisher Place,Opotiki,
1836085,,Fisher-Point Drive,Auckland Central,Auckland
1839150,0482,Fisher-Riley Road,"Kaingaroa,Kaitaia",Kaitaia
3085204,3434,Fisher Road,Cambridge,Cambridge
3080684,3771,Fisher Road,Huntly,
1773671,9273,Fisher Road,Kakapuaka,Balclutha
1827094,2683,Fisher Road,Karioitahi,Waiuku
1799997,3989,Fisher Road,National Park,
1806792,3671,Fisher Road,Netherton,Paeroa
1832745,1971,Fisher Road,"Onetangi,Waiheke Island",Waiheke Island
1806866,3681,Fisher Road,Waihi,
1787023,7473,Fishers Road,Loburn,
1794118,6037,Fisher Street,Johnsonville,Wellington
1819488,0571,Fisher Street,Pahi,Paparoa
1825641,1081,Fisher Street,Surfdale,Waiheke Island
1826176,0112,Fisher Terrace,Te Kamo,Whangarei
1824011,1021,Fisherton Street,Grey Lynn,Auckland
3036677,8016,Fish Factory Road,Chatham Island,Chatham Islands
1777685,9881,Fishing Camp Road,Te Waewae,Tuatapere
1821450,0974,Fishlock Road,Te Arai,Wellsford
1773665,9583,Fishpond Road,Clinton,
1771038,9386,Fish Pond Road,Saint Bathans,
1774905,9016,Fish Street,Dunedin Central,Dunedin
1791248,7271,Fishtail Vue,Wairau Valley,
3079080,0632,Fishwicke Lane,Albany,Auckland
3077426,2120,Fisk Road,Pukekohe,
1793069,5011,Fisk Street,Naenae,Lower Hutt
1837780,2022,Fitchburg Place,Mangere,Auckland
1801296,4410,Fitchett Street,Palmerston North,
3081119,5018,Fitch Lane,Wallaceville,Upper Hutt
1773672,9534,Fitfiel Street,Clinton,
3004920,7020,Fittal Street,Richmond,
3004214,,Fitzgerald Avenue,"Christchurch Central,Richmond,Waltham",Christchurch
1817341,4679,Fitzgerald Avenue,Kaponga,Hawera
1815089,3400,Fitzgerald Avenue,Matamata,
1817614,4673,Fitzgerald Lane,Hawera,
3085280,7608,Fitzgerald Lane,Lincoln,Lincoln
1794108,6012,Fitzgerald Place,Karori,Wellington
1804119,4110,Fitzgerald Place,Maraenui,Napier
1787260,7992,Fitzgerald Road,"Belfield,Orton","Geraldine,Temuka"
1832084,,Fitzgerald Road,Drury,
1825812,1060,Fitzgerald Road,Mount Wellington,Auckland
1802433,4092,Fitzgerald Road,Otoko,Te Karaka
1830831,0484,Fitzgerald Road,Pukenui,
1821446,0977,Fitzgerald Road,Tapora,
1781033,7777,Fitzgerald Road,Wakanui,Ashburton
1790660,7802,Fitzgerald Street,Cobden,Greymouth
1790455,7886,Fitzgerald Street,Jackson Bay,Haast
1809810,3127,Fitzgerald Street,Kawerau,
1780537,7673,Fitzgerald Street,Whitecliffs,Glentunnel
3000386,4501,Fitzherbert Avenue,"Castlecliff,Springvale,Tawhero",Whanganui
1791921,4410,Fitzherbert Avenue,"Hokowhitu,Palmerston North,West End",Palmerston North
1823177,0618,Fitzherbert Avenue,West Harbour,Auckland
3030716,4410,Fitzherbert Bridge,"Fitzherbert,Hokowhitu",Palmerston North
3061118,4820,Fitzherbert Close,Linton,Palmerston North
3023294,4471,Fitzherbert East Road,Aokautere,
1800653,5884,Fitzherbert Road,Gladstone,
1793456,5014,Fitzherbert Road,Wainuiomata,Lower Hutt
1797763,4996,Fitzherbert Street,Alfredton,Eketahuna
1801645,5010,Fitzherbert Street,Alicetown,Lower Hutt
1779725,7310,Fitzherbert Street,Cheviot,
3009387,5710,Fitzherbert Street,"Featherston,Tauwharenikau","Featherston,Tauherenikau"
3009384,7810,Fitzherbert Street,Hokitika,
1795730,4472,Fitzherbert Street,Linton,Palmerston North
1793325,5012,Fitzherbert Street,Petone,Lower Hutt
1812121,3411,Fitzherbert Street,Putaruru,
1802087,4010,Fitzherbert Street,Whataupoko,Gisborne
1794119,6011,Fitzherbert Terrace,Thorndon,Wellington
1782186,7978,Fitzmaurice Road,Waimate,
3082677,9018,Fitzpatrick Crescent,Concord,Dunedin
3084671,7201,Fitzpatrick Place,Blenheim,Blenheim
1821764,0626,Fitzpatrick Place,Chatswood,Auckland
1829041,2576,Fitzpatrick Road,Brookby,Auckland
1774380,9371,Fitzpatrick Road,Dalefield,Queenstown
1841409,8062,Fitzpatricks Lane,Linwood,Christchurch
1794100,6037,Fitzpatrick Street,Newlands,Wellington
1786178,7608,Fitz Place,Lincoln,
1807172,3206,Fitzroy Avenue,Fitzroy,Hamilton
1803210,4120,Fitzroy Avenue,"Frimley,Hastings,Mahora",Hastings
1784493,8053,Fitzroy Place,Bishopdale,Christchurch
1813944,3074,Fitzroy Place,Tikitere,Rotorua
1804117,4110,Fitzroy Road,Bluff Hill,Napier
1816800,4312,Fitzroy Road,Fitzroy,New Plymouth
1804112,4110,Fitzroy Steps,Bluff Hill,Napier
3006505,9012,Fitzroy Street,"Caversham,Forbury",Dunedin
1797216,4702,Fitzroy Street,Feilding,
1824019,1021,Fitzroy Street,"Grey Lynn,Ponsonby",Auckland
1814793,3127,Fitzroy Street,Kawerau,
1797353,4777,Fitzroy Street,Kiwitea,Feilding
1770761,9435,Fitzroy Street,Kurow,
1795729,4472,Fitzroy Street,Linton,Palmerston North
1817610,4614,Fitzroy Street,Normanby,Hawera
1829428,2104,Fitzroy Street,Papatoetoe,Auckland
1791922,4410,Fitzroy Street,"Roslyn,Terrace End",Palmerston North
1794109,6012,Fitzroy Street,Wadestown,Wellington
1803034,4108,Fitzroy Street,Wairoa,
1777691,9689,Fitzroy Street,Wreys Bush,Otautau
1780089,7025,Fitzsimmons Way,Wakefield,
1830993,0994,Fitzthum Road,Puhoi,Warkworth
1823175,0612,Fitzwater Place,Henderson,Auckland
1822008,0630,Fitzwilliam Drive,"Long Bay,Torbay",Auckland
1793578,5028,Fitzwilliam Terrace,Tawa,Wellington
1771039,9395,Five Mile Road,Gimmerburn,Ranfurly
3048952,9793,Five Rivers Lumsden Highway,"Lowther,Lumsden",
3079220,2113,Fjord Way,Karaka,Papakura
3078150,3173,Flack Street,Pyes Pa,Tauranga
3078200,3800,Fladgate Drive,Te Awamutu,
3085566,7281,Flagg Bay Close,Port Underwood,Picton
1780540,7673,Flagpole Road,Whitecliffs,Glentunnel
1803538,4179,Flag Range Road,Sherenden,Hastings
3085500,9010,Flagstaff Drive,Helensburgh,Dunedin
1821445,0900,Flagstaffe Road,Wellsford,
1794121,6011,Flagstaff Hill,Te Aro,Wellington
1794117,6011,Flagstaff Lane,Te Aro,Wellington
1842299,8025,Flagstaff Place,Halswell,Christchurch
1823178,0614,Flagstaff Place,Massey,Auckland
1776240,9814,Flagstaff Road,Bluff,
3015767,7886,Flagstaff Road,"Bruce Bay,Paringa",Haast
1787883,7893,Flagstaff Road,Karamea,
1819908,0202,Flagstaff Road,Russell,
1776754,9793,Flagstaff Station Road,Athol,
1798582,4815,Flagstaff Street,Foxton Beach,Foxton
1821818,0624,Flagstaff Terrace,Devonport,Auckland
1838632,0582,Flagstaff Terrace,Waipu,
1773006,9092,Flagstaff-Whare Flat Road,"Halfway Bush,North Taieri","Dunedin,Mosgiel"
1770116,9472,Flag Swamp Road,"Flag Swamp,Waikouaiti",Waikouaiti
1843025,0420,Flame Tree Lane,Taipa,
1832349,2105,Flamingo Court,Goodwood Heights,Auckland
2018796,7999,Flanagan Lane,Ben Ohau,Twizel
1827087,2113,Flanagan Road,Drury,
1789434,7095,Flanagans Road,Golden Downs,Wakefield
1805312,4110,Flanders Avenue,Onekawa,Napier
1805167,4172,Flanders Road,Havelock North,
1824624,1072,Flanders Street,Point England,Auckland
3078059,2402,Flannery Road,Pokeno,
1771342,9387,Flannery Road,Poolburn,Oturehua
1780149,7632,Flannery Street,Leeston,
1831290,0610,Flanshaw Road,Te Atatu South,Auckland
1801040,5882,Flat Bush Road,Alfredton,Eketahuna
1818797,2023,Flat Bush Road,"Clover Park,Otara",Auckland
1829048,2019,Flat Bush School Road,Flat Bush,Auckland
1789202,7895,Flat Creek Road,Shenandoah,Murchison
1803537,4188,Flat Hill Road,Putorino,Kotemaori
3081976,3187,Flatiron Way,Papamoa,
3020337,0991,Flat Island,"Broken Islands / Pig Islands,Hauraki Gulf / Tikapa Moana,Rangiahua Island (Flat Island)",
1781229,7930,Flatman Crescent,Geraldine,
3035905,7991,Flatman Road,"Orari Bridge,Rangitata,Woodbury",Geraldine
3007041,5883,Flat Point Road,"Flat Point,Glenburn",Masterton
1812992,3875,Flat Road,"Kihikihi,Te Awamutu",Te Awamutu
1772999,9074,Flat Stream Road,Pukerangi,Middlemarch
1773603,9282,Flat Street,Kaitangata,
1823172,0618,Flaunty Place,West Harbour,Auckland
1838805,0931,Flavell Drive,Orewa,
1811984,3078,Flavell Road,Kinleith,Tokoroa
1783894,8022,Flavell Street,Heathcote Valley,Christchurch
1822005,0630,Flavia Close,Torbay,Auckland
1792739,5018,Flavia Grove,Clouston Park,Upper Hutt
1825286,1042,Flavia Place,Lynfield,Auckland
3081420,3210,Flaxbourne Lane,Flagstaff,Hamilton
1786444,7986,Flaxburn Road,Winchester,
3082307,3179,Flax Creek Way,Minden,Tauranga
3084819,7334,Flax Crescent,Hanmer Springs,Hanmer Springs
3078788,5794,Flax Cutter Lane,Woodside,Greytown
1821670,0626,Flaxdale Street,Birkdale,Auckland
1838934,3377,Flaxen Way,Kinloch,Taupo
3077956,2571,Flaxfield Lane,Beachlands,Auckland
3085598,4814,Flax Grove,Foxton,Foxton
3082312,0293,Flax Grove,Kerikeri,
1785592,8083,Flaxgrove Place,Parklands,Christchurch
3085232,7614,Flax Lane,Rolleston,Rolleston
1803204,4120,Flaxmere Avenue,"Flaxmere,Longlands",Hastings
1819906,0210,Flaxmere Place,Kawakawa,
1798016,5036,Flaxmere Street,Waikanae Beach,Waikanae
3081991,0171,Flaxmill Avenue,Ruakaka,
3019370,7273,Flaxmill Drive,"Rarangi,Spring Creek","Blenheim,Spring Creek"
3082917,8051,Flaxmill Road,Casebrook,Christchurch
1813926,3597,Flaxmill Road,Kaihere,Ngatea
1787879,7893,Flaxmill Road,Karamea,
1811267,3792,Flaxmill Road,Orini,
1773668,9271,Flaxmill Road,Otanomomo,Balclutha
1803036,4108,Flaxmill Road,Wairoa,
3083639,9879,Flaxmill Way,Otatara,Invercargill
3030057,3187,Flaxmill Way,Papamoa,
1789587,7011,Flaxmore Place,Bishopdale,Nelson
3035017,4473,Flaxmore Road,"Himatangi,Tangimoana",
1789719,7175,Flaxmore Road,Upper Moutere,
1838119,8083,Flaxon Place,Burwood,Christchurch
1840746,1072,Flax Place,Stonefields,Auckland
1809603,3193,Flax Road,Matata,
3083912,9371,Flax Street,Jacks Point,Queenstown
1840038,0116,Flax Street,Ruakaka,
3083809,0814,Flax Street,Westgate,Auckland
3041813,,Flaxton Road,"Flaxton,Rangiora",Rangiora
1840610,3118,Flax Way,Papamoa Beach,Papamoa
1786653,8023,Flaxwood Lane,Waltham,Christchurch
1784502,8053,Flay Crescent,Burnside,Christchurch
3041036,2579,Flay Road,"Bombay,Ramarama","Bombay,Drury"
1806121,3506,Flays Road,"Amodeo Bay,Coromandel",Coromandel
1779302,7581,Flea Bay Road,Akaroa,
3011297,8061,Fleete Street,"Burwood,Dallington",Christchurch
1793326,5012,Fleet Grove,Korokoro,Lower Hutt
1821819,0624,Fleet Street,Devonport,Auckland
1824628,1021,Fleet Street,Eden Terrace,Auckland
1827090,2681,Fleet Street,Glenbrook,
1819912,0210,Fleet Street,Kawakawa,
1780084,7591,Fleet Street,Little River,
1801514,5011,Fleet Street,Naenae,Lower Hutt
1775480,9400,Fleet Street,Oamaru North,Oamaru
1795102,5810,Fleet Street,Solway,Masterton
1787098,3330,Fleet Street,Tauhara,Taupo
1838009,3610,Fleet Street,Waihi,
1803205,4120,Fleetwood Crescent,Flaxmere,Hastings
1832817,0612,Fleetwood Drive,Henderson,Auckland
1798020,5036,Fleetwood Grove,Waikanae,
1837171,4472,Fleetwood Lane,Turitea,Palmerston North
1804111,4110,Fleming Crescent,Maraenui,Napier
1837992,7632,Fleming Drive,Leeston,
1807173,3210,Fleming Place,Chedworth,Hamilton
1779096,7472,Fleming Road,Ashley Forest,Loburn
3032282,9482,Fleming Road,"Bushey,Palmerston",Palmerston
3032277,9586,Fleming Road,"Catlins Conservation Park,Chaslands,Papatowai","Catlins Conservation Park,Owaka"
3032281,9587,Fleming Road,"Crookston,Heriot",Tapanui
3032278,9891,Fleming Road,"Fortrose,Waimahaka",Tokanui
1782187,7979,Fleming Road,Glenavy,Waimate
1815439,3072,Fleming Road,Hamurana,
1773670,9273,Fleming Road,Kaihiku,Balclutha
1805736,4271,Fleming Road,Omakere,
1807884,3975,Fleming Road,Otorohanga,
1808189,2696,Fleming Road,Pukekawa,
1804547,4200,Fleming Road,Waipukurau,
1777331,9871,Fleming Road,Woodlands,Invercargill
1779834,7472,Flemings Road,Balcairn,Amberley
1781031,7776,Flemings Road,Methven,
1791251,7285,Flemings Road,Seddon,
1829050,2024,Fleming Street,Mangere East,Auckland
1829049,2102,Fleming Street,Manurewa East,Auckland
3070942,8083,Fleming Street,North New Brighton,Christchurch
1825466,1061,Fleming Street,Onehunga,Auckland
1802086,4010,Fleming Street,Outer Kaiti,Gisborne
3078597,3720,Flemings Way,Ngaruawahia,
3016843,8083,Flemington Avenue,North New Brighton,Christchurch
1799696,4412,Flemington Lane,Awapuni,Palmerston North
1814367,3200,Flemington Place,Nawton,Hamilton
1805795,4112,Flemington Place,Taradale,Napier
1815677,3074,Flemington Place,Tikitere,Rotorua
1797123,4584,Flemington Road,Aramoho,Whanganui
1777338,9871,Flemington Road,Woodlands,Invercargill
1779496,7910,Flemington Street,Washdyke,Timaru
1841355,4112,Flers Place,Taradale,Napier
1794104,6012,Flers Street,Karori,Wellington
1782745,8013,Flesher Avenue,Richmond,Christchurch
1809811,3192,Fletcher Avenue,Kawerau,
1806122,3584,Fletcher Bay Road,"Fletcher Bay,Port Jackson",Coromandel
1833375,0984,Fletcher Lane,Kaipara Flats,Warkworth
1841204,2679,Fletcher Lane,Patumahoe,Pukekohe
1812764,3432,Fletcher Place,Leamington,Cambridge
1784485,8041,Fletcher Place,Upper Riccarton,Christchurch
1777692,9683,Fletcher Road,Gropers Bush,Riverton/Aparima
3039933,7991,Fletcher Road,"Kakahu,Waitohi","Geraldine,Temuka"
1779829,7385,Fletcher Road,Medbury,Hawarden
1811444,3290,Fletcher Road,Ngahinapouri,Ohaupo
1773605,9291,Fletcher Road,Table Hill,Milton
1821438,0881,Fletcher Road,Waimauku,
1784960,7472,Fletchers Road,Loburn,
1782188,7980,Fletchers Road,Waimate,
1813961,3079,Fletchers Settlement Road,Ruatahuna,Minginui
1810866,3700,Fletcher Street,Huntly,
1812399,3330,Fletcher Street,Taupo,
1825284,1041,Fletcher Street,Wesley,Auckland
1838274,9302,Fletcher Way,Arrowtown,
1788835,7175,Flett Road,Lower Moutere,
3011148,9682,Flett Road,Waikoura,Otautau
3059174,9291,Fletts Road,"Circle Hill,Table Hill",Milton
1832348,2010,Fleur Avenue,Pakuranga Heights,Auckland
1779301,7520,Fleur Lane,Akaroa,
1835678,8083,Fleur Lane,Burwood,Christchurch
3078493,0932,Fleur Lane,Silverdale,
3084408,7614,Fleur Place,Rolleston,
1808702,3119,Fleur Place,Te Puke,
1826912,2580,Fleur Road,Karaka,Papakura
1801736,4774,Fleury Street,Kimbolton,
1830989,0932,Flexman Place,Silverdale,
3079047,7615,Flight Close,Rolleston,
1816795,4310,Flight Place,Lower Vogeltown,New Plymouth
3079363,2112,Flight Place,Takanini,Auckland
1804620,3175,Flight Valley Way,Welcome Bay,Tauranga
1800042,5381,Flightys Road,Judgeford,Porirua
1786153,8082,Flimwell Lane,Lyttelton,
1800436,6037,Flinders Place,Johnsonville,Wellington
1829044,2023,Flinders Place,Otara,Auckland
1809283,3112,Flinders Place,Welcome Bay,Tauranga
1783895,8022,Flinders Road,Heathcote Valley,Christchurch
3054980,7910,Flinders Street,"Kensington,Redruth",Timaru
3048765,0293,Flintoff Road,"Haruru,Kerikeri",
3024667,7391,Flintoft Mouse Point Road,"Amuri Plain,Rotherham","Culverden,Rotherham"
1839455,2019,Flintridge Drive,Flat Bush,Auckland
1842998,7614,Flint Road,Rolleston,
1817871,4394,Flint Road East,Stratford,
1818338,4332,Flint Road West,Stratford,
1771423,9302,Flint Street,Arrowtown,
1775118,9597,Flint Street,Middlemarch,
1801323,4414,Flint Street,Milson,Palmerston North
1794123,6012,Flint Way,Northland,Wellington
3017810,1072,Flint Way,Stonefields,Auckland
1793068,5011,Flock Grove,Fairfield,Lower Hutt
3079067,7615,Flock Street,Rolleston,
1782737,8013,Flockton Street,Mairehau,Christchurch
3042535,9382,Flora Dora Parade,Lake Hawea,
1951114,3283,Flora Lane,Tamahere,Hamilton
1792734,5018,Flora McCurdy Walk,Ebdentown,Upper Hutt
1819909,,Florance Avenue,Russell,
1782747,8083,Florance Place,Parklands,Christchurch
1830091,2103,Flora Place,Wattle Downs,Auckland
3054925,9730,Flora Road,Lumsden,
1776219,9876,Flora Road East,Makarewa,Invercargill
1778728,9876,Flora Road West,Makarewa,Invercargill
1792150,5024,Flora Street,Cannons Creek,Porirua
1770922,9310,Flora Street,Cromwell,
1806925,3600,Flora Street,Paeroa,
1815741,3210,Flora Way,Rototuna,Hamilton
1821440,0931,Florence Avenue,Orewa,
1799548,4414,Florence Avenue,Palmerston North,
3077747,2019,Florence Carter Avenue,East Tamaki,Auckland
3077573,9300,Florence Close,Queenstown Hill,Queenstown
1825291,1041,Florence Daly Place,Mount Roskill,Auckland
3079634,7608,Florence Drive,Lincoln,
3035178,4820,Florence Drive,Linton,Palmerston North
1811635,3300,Florence Drive,Morrinsville,
1808251,3176,Florence Lane,Minden,Tauranga
1795719,4702,Florence Place,Feilding,
1814207,3591,Florence Place,Hahei,Whitianga
1806123,3579,Florence Place,Pauanui,
1803207,4120,Florence Place,Raureka,Hastings
3083789,7201,Florence Place,Springlands,Blenheim
1786001,7472,Florence Road,Ashley Forest,Loburn
1776220,9782,Florence Road,Winton,
1800435,6021,Florence Street,Newtown,Wellington
1821435,0973,Florence Street,Port Albert,Wellsford
1803212,4120,Florence Street,Raureka,Hastings
1788832,7020,Florence Street,Richmond,
1776817,9831,Florence Street,Wyndham,
1799684,5032,Florence Way,Paraparaumu Beach,Paraparaumu
3009226,7020,Florentia Court,Richmond,
1816112,3015,Florey Heights,Springfield,Rotorua
3082897,7614,Florey Lane,Rolleston,
1815278,3434,Florida Court,Cambridge,
1815570,3118,Florida Key,Papamoa Beach,Papamoa
1812765,3434,Florida Place,Cambridge,
1824635,1071,Florida Place,Saint Heliers,Auckland
1798018,5570,Florida Road,Muhunoa East,Levin
1784023,8042,Florida Street,Hornby,Christchurch
3081707,4473,Florin Lane,Rongotea,
1939551,7604,Florin Place,Prebbleton,
1793577,5028,Florio Terrace,Tawa,Wellington
3080072,0630,Flotilla Place,Long Bay,Auckland
1841302,5024,Flotilla Place,Whitby,Porirua
3079509,3114,Flounder Drive,Omokoroa,
1821444,0993,Flounder Point Road,Stillwater,Silverdale
1982694,0616,Flounder Road,Hobsonville,Auckland
3084037,0593,Flounder Road,Tinopai,
1778367,9776,Flourmill Road,Mandeville,Gore
1818533,0202,Flowerday Street,Russell,
3041339,8016,Flower Pot-Glory Road,Pitt Island (Rangiauria),Chatham Islands
3041340,8016,Flower Pot-Glory Road,Pitt Island (Rangiauria),Chatham Islands
3083584,8022,Flowers Lane,Cracroft,Christchurch
1834774,7071,Flowers Road,Hira,
3038591,8081,Flowers Track,Scarborough,Christchurch
1790170,7805,Flower Street,Blaketown,Greymouth
1782738,8053,Flower Street,"Bryndwr,Papanui",Christchurch
1799024,4818,Flower Street,Bulls,
1824618,1021,Flower Street,Eden Terrace,Auckland
1773003,9018,Flower Street,Fairfield,Dunedin
1827088,2473,F Lowry Road,Whakatiwai,Kaiaua
1854792,0892,Floyd Road,Riverhead,
1830246,0632,Floyd's Lane,Albany,Auckland
3050580,3496,Flume Road,"Cambridge,Te Miro",Cambridge
3082076,9393,Flume Road,Chatto Creek,Alexandra
1773979,9522,Fluming Street,Tapanui,
3083995,7610,Flutey Close,Woodend,
3079650,2019,Fluvial Lane,Flat Bush,Auckland
3018151,4820,Flux Road,Linton,Palmerston North
3018150,5371,Flux Road,Mangaroa,Upper Hutt
1787881,7891,Fly Creek Mine Road,Stockton,Westport
3081776,9793,Flyer View Lane,Kingston,
1816792,4310,Flyger Lane,New Plymouth,
1831908,0171,Flyger Road,"Mata,Ruakaka","Ruakaka,Whangarei"
3019131,,Flygers Line,"Cloverlea,Kairanga,Milson","Kairanga,Palmerston North"
1797420,4774,Flyger Street,Kimbolton,
3077428,9302,Flynn Lane,Arrowtown,
3080300,8025,Flynn Lane,Halswell,Christchurch
1777687,9683,Flynn Road,Gladfield,Otautau
1807174,3216,Flynn Road,Hillcrest,Hamilton
1841209,2120,Flynn Road,Pukekohe,
1775407,9274,Flynn Road,Rongahere,Clydevale
3047747,9689,Flynn Road,"Wairio,Woodlaw",Otautau
1787811,7771,Flynns Road,Staveley,Mount Somers
1832706,0626,Flynn Street,Birkdale,Auckland
1825289,1041,Foch Avenue,Mount Roskill,Auckland
3078924,8025,Foden Lane,Halswell,Christchurch
1784878,7395,Foggy Lookout,Lyford,Waiau
1813534,3015,Foley Drive,Springfield,Rotorua
3077929,3112,Foley Grove,Pyes Pa,Tauranga
1821893,0632,Foley Place,Torbay,Auckland
1821447,0792,Foley Quarry Road,Dairy Flat,
1820638,0479,Foley Road,Kaeo,
3005349,7975,Foley Road,"Kerrytown,Levels",Timaru
1804880,4998,Foley Road,Papatawa,Woodville
1788840,7173,Foley Road,Ruby Bay,Mapua
1780036,8971,Foleys Road,Teddington,Governors Bay
1782189,7980,Foleys Road,Waimate,
1820243,0410,Foley Street,Kaitaia,
1796394,4826,Foley Street,Waiouru,
1778486,9730,Folia Street,Lumsden,
3078739,0600,Folkes Lane,New Lynn,Auckland
1805592,4120,Folkestone Drive,Flaxmere,Hastings
3024529,0630,Folkestone Street,"Mairangi Bay,Murrays Bay",Auckland
1792070,4710,Follett Street,Marton,
3077810,0792,Follies Way,Dairy Flat,
1811881,3320,Follis Street,Te Aroha,
1788108,7825,Fonblanque Street,Westport,
1956208,2019,Fong Road,Flat Bush,Auckland
1840106,2022,Fono Crescent,Mangere,Auckland
3077788,3187,Fontana Street,Papamoa,
1831556,1025,Fontenoy Street,Mount Albert,Auckland
1824633,1026,Fonteyn Street,Avondale,Auckland
1771975,9010,Font Street,Kaikorai,Dunedin
1812178,4394,Fookes Street,Midhirst,Stratford
1812211,4394,Fookes Street,Tariki,Stratford
1798674,4510,Fookes Street,Waverley,
1829882,1010,Football Road,Parnell,Auckland
1842025,7630,Footbridge Terrace,Kaiapoi,
3081143,9382,Foote Lane,Lake Hawea,
1825293,1042,Foote Street,Hillsborough,Auckland
1833359,0602,Foothills Lane,Glen Eden,Auckland
1784970,7473,Foothills Road,Okuku,
1794124,6011,Footscray Avenue,Te Aro,Wellington
1829941,2103,Footwide Place,Weymouth,Auckland
3083911,9371,Forage Road,Jacks Point,Queenstown
1801617,6037,Forbes Lane,Newlands,Wellington
1985245,0614,Forbes McCammon Drive,Swanson,Auckland
1771481,9372,Forbes Place,Glenorchy,
1809812,3127,Forbes Place,Kawerau,
1799553,4414,Forbes Place,Kelvin Grove,Palmerston North
1829024,2024,Forbes Road,Favona,Auckland
1795554,4815,Forbes Road,Foxton Beach,Foxton
1779546,7395,Forbes Road,Hanmer Forest,Hanmer Springs
1776823,9781,Forbes Road,Lochiel,Winton
3001614,9871,Forbes Road,"Mabel Bush,Woodlands",Invercargill
1817611,4671,Forbes Road,Okaiawa,Hawera
2008894,3384,Forbes Road,Tahorakuri Forest,Reporoa
1786270,7672,Forbes Road,Tai Tapu,
1771964,9011,Forbes Street,Balaclava,Dunedin
1825465,1061,Forbes Street,Onehunga,Auckland
1839893,7612,Forbes Street,Pegasus,
1782730,8023,Forbes Street,Sydenham,Christchurch
1788107,7825,Forbes Street,Westport,
1799549,4412,Forbury Avenue,Takaro,Palmerston North
1829029,2022,Forbury Place,Mangere,Auckland
3039565,9012,Forbury Road,"Caversham,Forbury,Saint Clair",Dunedin
1817225,4112,Forbury Way,Taradale,Napier
1826171,0112,Ford Avenue,Te Kamo,Whangarei
1777683,9783,Forde Road,Drummond,Winton
1804322,4274,Forde Road,Tikokino,
1776643,9879,Forde Road,West Plains,Invercargill
1821668,0626,Fordham Street,"Beach Haven,Birkdale",Auckland
1786658,8061,Fordingbridge Lane,Bexley,Christchurch
1834093,3283,Ford Lane,Tamahere,Hamilton
1804365,7616,Ford Mews,Springston,
1814860,3015,Ford Road,"Fordlands,Mangakakahi,Pomare",Rotorua
3032943,9593,Ford Road,Johnston,Lawrence
1781567,7991,Ford Road,Kakahu,Geraldine
3032953,3189,Ford Road,"Maketu,Paengaroa",
3032947,5019,Ford Road,Manor Park,Lower Hutt
1804195,4110,Ford Road,Onekawa,Napier
1782733,8023,Ford Road,Opawa,Christchurch
1799751,4071,Ford Road,Ormond,Gisborne
3032955,0583,Ford Road,"Paparoa,Whakapirau",
1771017,9398,Ford Road,Puketoi,Patearoa
1819907,0182,Ford Road,Towai,Hikurangi
1814309,3682,Ford Road,Waihi,
1805555,4285,Ford Road,Waipukurau,
1812397,3492,Ford Road,Whakamaru,Mangakino
1790413,7881,Ford Road North,Kokatahi,
1790412,7881,Ford Road South,Kokatahi,
3047720,7774,Fords Road,"Ashton,Tinwald,Willowby",Ashburton
1784537,8051,Fords Road,Belfast,Christchurch
1784961,7472,Fords Road,Loburn,
1771424,9302,Ford Street,Arrowtown,
1790136,7804,Ford Street,Blackball,Greymouth
1807175,3216,Ford Street,Hamilton East,Hamilton
1818186,4598,Ford Street,Kakaramea,Patea
1796087,3122,Ford Street,Opotiki,
1797847,4910,Ford Street,Pahiatua,
1826920,2402,Ford Street,Pokeno,
1817949,4332,Ford Street,Stratford,
1829040,2010,Fordyce Avenue,Sunnyhills,Auckland
3084750,4410,Fordyce Court,West End,Palmerston North
1821434,,Fordyce Road,"Helensville,Parakai,South Head","Helensville,South Head"
1821441,0973,Fordyce Road,Tauhoa,Wellsford
1795395,5792,Foreman-Jury Road,Ponatahi,Carterton
1807176,3200,Foreman Road,Avalon,Hamilton
3070801,4598,Foreman Road,"Hurleyville,Manutahi",Patea
1816475,4383,Foreman Road,Tikorangi,Waitara
1784028,8042,Foremans Road,"Hornby,Islington",Christchurch
3082467,5024,Foremast Place,Whitby,Porirua
3079622,2578,Foreshore Lane,Karaka,Papakura
1820524,0481,Foreshore Road,Ahipara,Kaitaia
1776242,9814,Foreshore Road,Bluff,
1820525,0420,Foreshore Road,Taipa,
1788839,7096,Forest Creek Road,Stanley Brook,Wakefield
1781005,7730,Forest Drive,Methven,
1785589,8083,Forest Drive,Parklands,Christchurch
3082352,2113,Forest Drive,Rosehill,Papakura
1770036,8083,Foresters Crescent,Parklands,Christchurch
1821453,0931,Forest Glen,Orewa,
1795398,5883,Forest Glen,Te Wharau,Masterton
1838138,9305,Forest Heights,Wanaka,
3042930,9781,Forest Hill Cemetery Road,"Lochiel,Thomsons Crossing",Winton
1775803,9781,Forest Hill Crossing Road,"Lochiel,Tussock Creek",Winton
1806606,8062,Foresthill Place,Bromley,Christchurch
1795732,4471,Forest Hill Road,Aokautere,
3017907,0612,Forest Hill Road,"Henderson,Waiatarua",Auckland
3040842,3200,Forest Lake Road,"Beerescourt,Forest Lake,Frankton,Nawton",Hamilton
1795952,5583,Forest Lakes Road,Otaki,
1796151,5032,Forest Lane,Raumati South,Paraparaumu
1840786,9371,Forestlines Rise,Ben Lomond,Queenstown
1837465,7201,Forest Park Drive,Witherlea,Blenheim
1802088,4010,Forest Park Lane,Whataupoko,Gisborne
1784531,8083,Forest Park Place,Parklands,Christchurch
1813947,3010,Forest Place,Lynmore,Rotorua
1794102,6035,Fore Street,Kaiwharawhara,Wellington
3051331,,Forest Road,"Awatuna,Egmont National Park,Kaimiro,Korito,Midhirst,Newall,Norfolk,Opunake,Rahotu,Riverlea,Tariki,Te Kiri","Egmont National Park,Hawera,Kaimiro,New Plymouth,Norfolk,Opunake,Stratford,Warea"
1781228,7930,Forest Road,Geraldine,
1797419,4777,Forest Road,Kimbolton,
3051327,3384,Forest Road,"Kinleith Forest,Mokai,Oruanui","Atiamuri,Taupo"
1819227,0372,Forest Road,Mamaranui,Dargaville
1819905,0475,Forest Road,Okaihau,
1798806,4894,Forest Road,Parewanui,Tangimoana
1792738,5019,Forest Road,Pinehaven,Upper Hutt
1796149,5032,Forest Road,Raumati South,Paraparaumu
1810189,3083,Forest Road,Reporoa,
1801084,5510,Forest Road,"Waitarere,Waitarere Beach",Levin
1780062,7472,Forestry Road,"Ashley,Loburn","Loburn,Rangiora"
1784526,8041,Forestry Road,Ilam,Christchurch
3058346,9872,Forestry Road,"Mabel Bush,Pebbly Hill",Invercargill
3058351,3579,Forestry Road,"Opoutere,Pauanui","Pauanui,Whangamata"
1826917,2682,Forestry Road,Otaua,
1821443,0892,Forestry Road,Riverhead,
1777688,9620,Forestry Road,Tuatapere,
1821442,0871,Forestry Road,Waitoki,
1788143,7011,Forests Road,Stoke,Nelson
1776804,9730,Forest Street,Lumsden,
1773978,9522,Forest Street,Tapanui,
1777200,9875,Forestvale Road,Waimahaka,Tokanui
1820125,7334,Forest View Close,Hanmer Springs,
1834392,0793,Forest View Lane,Coatesville,
1787331,7591,Forest View Road,"Birdlings Flat,Little River",Little River
1826582,0185,Forest View Road,Te Kamo,Whangarei
1812396,3492,Forest View Road,Whakamaru,Mangakino
1798017,5036,Forest Walk,Waikanae,
1776283,9812,Forfar Crescent,Rockdale,Invercargill
1824634,1071,Forfar Road,Glendowie,Auckland
3001325,9011,Forfar Street,"Clyde Hill,Maryhill",Dunedin
1772834,9024,Forfar Street,Mosgiel,
1786655,8014,Forfar Street,St Albans,Christchurch
1775119,9510,Forfar Street,Waikouaiti,
1787721,8025,Forgan Lane,Halswell,Christchurch
3081071,8025,Forge Close,Halswell,Christchurch
1821452,0932,Forge Road,Silverdale,
3078132,3210,Forge Street,Huntington,Hamilton
1841435,7020,Forget-Me-Not Lane,Richmond,
1830449,1072,Forge Way,Mount Wellington,Auckland
1834397,5028,Forglen Place,Tawa,Wellington
1805904,,Forkert Road,Ohaupo,
1788846,7095,Fork Road,Golden Downs,Wakefield
1821448,0891,Fork Road,Kumeu,
1820575,0484,Fork Road,Waipapakauri,Awanui
1790416,7886,Forks-Okarito Road,"Okarito,Westland National Park/Tai Poutini National Park","Westland National Park/Tai Poutini National Park,Whataroa"
3016438,7771,Forks Road,"Alford Forest,Ashburton Forks","Ashburton,Mount Somers"
3077880,0800,Forlong Rise,Helensville,
3031637,4775,Forlong Road,Colyton,Feilding
1797639,4775,Forlongs Road Extension,Colyton,Feilding
1815979,3200,Formation Drive,Northgate,Hamilton
1824622,1022,Formby Avenue,Point Chevalier,Auckland
3032273,9019,Formby Street,Outram,
1829685,1051,Formosa Court,Ellerslie,Auckland
1839295,3112,Formosa Place,Pyes Pa,Tauranga
1771969,9010,Forresbank Avenue,Wakari,Dunedin
1796844,4500,Forres Street,Durie Hill,Whanganui
1794116,6022,Forres Street,Seatoun,Wellington
1787298,7495,Forrestdale Road,Okuku,
1774903,9010,Forrester Avenue,Liberton,Dunedin
1842099,9586,Forrester Drive,Owaka,
1814702,3112,Forrester Drive,Welcome Bay,Tauranga
1778489,9782,Forrester Road,"Otapiri,Winton",Winton
1794114,6011,Forresters Lane,Te Aro,Wellington
1779832,7385,Forresters Road,Hurunui,Hawarden
1838915,0230,Forrest Heights Road,Kerikeri,
1818798,0620,Forrest Hill Road,"Forrest Hill,Milford",Auckland
1837174,7630,Forrest Lane,Kaiapoi,
3019173,3493,Forrest Road,Cambridge,
1770767,9492,Forrest Road,Windsor Park,Oamaru
1819048,7971,Forrests Road,Otaio,Saint Andrews
1809813,3127,Forsaith Street,Kawerau,
1814368,3216,Forster Avenue,Hillcrest,Hamilton
2016956,3118,Forstera Way,Papamoa Beach,Papamoa
1823174,0618,Forster Place,West Harbour,Auckland
1799816,4077,Forster Street,Tolaga Bay,
3002088,7284,Forsyth Bay,Forsyth Bay,Marlborough Sounds
1823180,0614,Forsythe Place,Massey,Auckland
1826585,0182,Forsythe Road,Hukerenui,Hikurangi
3020324,4820,Forsythe Road,Linton,Palmerston North
1801606,6021,Forsyth Grove,Brooklyn,Wellington
3003508,7096,Forsyth Gully Road,"Spooners Range,Stanley Brook",Wakefield
3013025,,Forsyth Island,"Annie Bay,Forsyth Bay,Forsyth Island / Te Paruparu,Kate Bay,Lord Ashley Bay,Orchard Bay,Pig Bay,Pigeon Bay,Sunday Bay",Marlborough Sounds
1774062,9593,Forsyth Road,Forsyth,Lawrence
1773604,9291,Forsyth Road,Milton,
1773673,9586,Forsyth Road,Owaka Valley,Owaka
1802710,3122,Forsyth Street,Opotiki,
1819910,0200,Forsyth Street,Opua,
1782735,8024,Forsyth Street,Spreydon,Christchurch
1807177,3200,Forsyth Street,St Andrews,Hamilton
1804199,4112,Forsyth Street,Taradale,Napier
1794098,6022,Fort Ballance Road,Maupuia,Wellington
1803037,4198,Fortescue Street,Mahia,
1807178,3206,Forth Crescent,"Deanwell,Glenview",Hamilton
1774282,9291,Fort Hill Road,Circle Hill,Milton
3004198,5024,Forth Place,Papakowhai,Porirua
1776287,9810,Forth Street,"Invercargill,Turnbull Thomson Park",Invercargill
1798503,5510,Forth Street,Levin,
1781794,7910,Forth Street,Marchwiel,Timaru
1776042,9712,Forth Street,Mataura,
1775582,9024,Forth Street,Mosgiel,
1771966,9016,Forth Street,North Dunedin,Dunedin
1770297,9400,Forth Street,Oamaru North,Oamaru
1782751,8013,Forth Street,Richmond,Christchurch
1799550,4414,Forth Terrace,Roslyn,Palmerston North
3046547,9074,Fortification Quarry Road,Hindon,Outram
3027114,9492,Fortification Road,"Alma,Cormacks,Kakanui,Totara",Oamaru
1775241,9292,Fortification Road,Glenledi,Milton
1794110,6022,Fortification Road,Karaka Bays,Wellington
3041344,9884,Fortification Waikawa Valley Road,"Quarry Hills,Waikawa Valley",Tokanui
1839581,9884,Fortification Waikawa Valley Road East,Waikawa Valley,Tokanui
3020142,4010,Fortis Place,"Lytton West,Riverdale",Gisborne
1824629,1010,Fort Lane,Auckland Central,Auckland
3079186,2113,Fort Lincoln Loop,Karaka,Papakura
3084107,7615,Forton Lane,Rolleston,
1837274,9382,Fort Place,Hawea Flat,Lake Hawea
1825815,1062,Fort Richard Road,Otahuhu,Auckland
3001778,9875,Fortrose Otara Road,"Fortrose,Otara,Tokanui",Tokanui
1824625,1010,Fort Street,Auckland Central,Auckland
1812762,3434,Fort Street,Cambridge,
1771801,9382,Fort Street,John Creek,Lake Hawea
1794103,6035,Fort Street,Ngauranga,Wellington
3036798,2016,Fortuna Place,East Tamaki Heights,Auckland
1800437,6021,Fortunatus Street,Brooklyn,Wellington
3015918,9371,Fortune Lane,Jacks Point,Queenstown
1792735,5018,Fortune Lane,Trentham,Upper Hutt
3085513,9384,Fortune Place,Cromwell,Cromwell
1809602,3191,Fortune Road,"Awakeri,Coastlands",Whakatane
1776814,9777,Fortune Road,Mandeville,Gore
1829042,2012,Fortunes Road,Half Moon Bay,Auckland
1771977,9010,Fortune Street,Dalmore,Dunedin
1782748,8052,Fortune Street,Mairehau,Christchurch
1779547,7395,Forty Acre Road,Hanmer Forest,Hanmer Springs
1829036,2010,Fortyfoot Lane,Sunnyhills,Auckland
1804201,4112,Forward Street,Greenmeadows,Napier
1804802,4977,Forward Street,Ormondville,
3015642,9879,Fosbender Road,"New River Ferry,West Plains",Invercargill
3080390,3173,Fossey Lane,Pyes Pa,Tauranga
1823171,0604,Foster Avenue,Huia,Auckland
1792980,5010,Foster Crescent,Belmont,Lower Hutt
1811634,3300,Foster Crescent,Morrinsville,
1821454,0920,Foster Crescent,Snells Beach,
3077542,4172,Foster Lane,Havelock North,
3072745,0110,Foster Lane,Woodhill,Whangarei
3083631,7410,Foster Place,Amberley,
1832345,2024,Foster Place,Mangere East,Auckland
1840144,9383,Foster Place,Mount Pisa,Cromwell
1785308,7400,Foster Place,Rangiora,
1819267,0376,Foster Road,Donnellys Crossing,
1818799,0891,Foster Road,"Kumeu,Waimauku",
1776810,9892,Foster Road,Mokoreta,Wyndham
1814861,3074,Foster Road,Okere Falls,Rotorua
1814758,3191,Foster Road,Taneatua,
1811443,,Foster Road,Temple View,Hamilton
1778709,9883,Foster Road,Thornbury,Riverton/Aparima
1811207,3782,Foster Road,Whangamarino,Te Kauwhata
3027438,7383,Fosters Road,Cheviot,
3027439,4820,Fosters Road,Linton,Palmerston North
1820571,0494,Fosters Road,Mangonui,
1784219,8011,Foster Street,Addington,Christchurch
1792988,5011,Foster Street,"Avalon,Taita",Lower Hutt
1791247,7210,Foster Street,Seddon,
1802093,4010,Foster Street,Te Hapara,Gisborne
1779984,8082,Foster Terrace,Lyttelton,
1804190,4110,Foster Terrace,Onekawa,Napier
1804804,4977,Fothergill Road,Ormondville,
3083578,3129,Fothers Lane,Katikati,
1801714,4988,Fouhys Road,Pahiatua,
3079859,8023,Foula Place,Woolston,Christchurch
1833572,9598,Foulden Hills Road,Middlemarch,
1840059,0602,Foundation Place,Glen Eden,Auckland
3078229,8042,Founders Lane,Yaldhurst,Christchurch
1944708,0932,Founding Lane,Silverdale,
3078033,1011,Foundries Lane,Freemans Bay,Auckland
1785676,8022,Foundry Drive,Hillsborough,Christchurch
1978581,4330,Foundry Lane,Inglewood,
1830992,0932,Foundry Road,Silverdale,
1839476,2113,Fountain Avenue,Karaka,Papakura
1799786,4410,Fountain Court,Palmerston North,
1781139,7775,Fountaines Road,Hinds,Ashburton
1805466,4920,Fountaine Street,Woodville,
1778954,8025,Fountainhead Lane,Hillmorton,Christchurch
1832486,0210,Fountain Lane,Kawakawa,
1840859,2013,Fountain Lane North,East Tamaki,Auckland
1840855,2013,Fountain Lane South,East Tamaki,Auckland
1788144,7010,Fountain Place,Beachville,Nelson
1856042,7614,Fountain Place,Rolleston,
1789588,7010,Fountain Square,Beachville,Nelson
1784024,8025,Fountains Road,Halswell,Christchurch
1791386,7300,Fountain Street,Kaikoura,
1784535,8083,Four Elms Place,Parklands,Christchurch
3068060,7071,Four Fathom Bay,"Four Fathom Bay,Tamuri",Marlborough Sounds
3072514,9273,Four Mile Creek Road,"Te Houka,Warepa",Balclutha
1774061,9591,Four Mile Creek Road,Tuapeka West,Lawrence
1773336,9397,Four Mile Road,Hyde,Kyeburn
1833343,2120,Four Oaks Place,Pukekohe,
1934215,8025,Four Peaks Drive,Wigram,Christchurch
3079610,9382,Four Peaks Road,Lake Hawea,
3052513,7991,Four Peaks Road,Woodbury,Geraldine
3038666,7077,Four Rivers Highway,Murchison,
3068094,7672,Four Seasons Lane,Tai Tapu,
1809277,3112,Fourteenth Avenue,Tauranga South,Tauranga
1791661,7201,Fourteenth Lane,Blenheim,
1818800,1021,Fourth Avenue,"Kingsland,Morningside",Auckland
3080435,9304,Fourth Avenue,Lake Hayes,Queenstown
1831744,1081,Fourth Avenue,Onetangi,Waiheke Island
3083692,3015,Fourth Avenue,Pukehangi,Rotorua
1814703,3110,Fourth Avenue,Tauranga,
1816477,4377,Fourth Avenue,Urenui,
1826174,0110,Fourth Avenue,Woodhill,Whangarei
1790831,7201,Fourth Lane,Blenheim,
1776648,9871,Fourth Street,Kennington,Invercargill
1790411,7832,Fourth Street,Kumara,Greymouth
1800607,5810,Fourth Street,Lansdowne,Masterton
1811814,3393,Fourth Street,Waihou,Te Aroha
1832346,2018,Fourth View Avenue,Beachlands,Auckland
1828009,2014,Four Trees,Cockle Bay,Auckland
1771700,9300,Four Views Avenue,Kelvin Heights,Queenstown
1784525,8042,Fovant Street,Russley,Christchurch
1776647,9879,Foveaux Street,Oreti Beach,Invercargill
1823168,0610,Fowey Avenue,Te Atatu South,Auckland
1831607,1025,Fowlds Avenue,Sandringham,Auckland
1821437,0994,Fowler Access Road,Puhoi,Warkworth
1824900,1025,Fowler Avenue,Mount Albert,Auckland
3083109,9382,Fowler Lane,Albert Town,Wanaka
1779063,7400,Fowler Lane,Rangiora,
1773296,9092,Fowler Road,Mosgiel,
1776646,9874,Fowler Road,West Plains,Invercargill
1807180,3204,Fowlers Avenue,Frankton,Hamilton
1786078,7395,Fowlers Lane,Hanmer Springs,
1822114,0627,Fowler Street,Northcote,Auckland
1807179,3204,Fow Street,Hamilton Central,Hamilton
1827709,2112,Foxbridge Lane,Conifer Grove,Takanini
2015086,7608,Foxbridge Lane,Lincoln,
3082899,7614,Foxburrow Lane,Rolleston,
1841377,3210,Foxbury Court,Rototuna North,Hamilton
3084943,7604,Foxcroft Drive,Prebbleton,Prebbleton
3063711,7483,Foxdown Road,Scargill,Waikari
1784026,8025,Foxfield Lane,Westmorland,Christchurch
1801969,7608,Foxford Close,Lincoln,
3032676,7886,Fox Glacier Highway,"Fox Glacier,Franz Josef/Waiau,Westland National Park/Tai Poutini National Park",
1791882,3120,Foxglove Drive,Maraetotara,Whakatane
1836848,4414,Foxglove Grove,Milson,Palmerston North
1836673,9305,Foxglove Heights,Wanaka,
1819901,0474,Foxglove Road,Awarua,Kaikohe
3080230,0814,Foxglove Road,Westgate,Auckland
1842630,6037,Foxham Terrace,Churton Park,Wellington
3037708,7095,Foxhill Cemetery Road,"Belgrove,Foxhill",Wakefield
1838012,7095,Foxhill Road,Foxhill,Wakefield
1786854,8022,Fox Lane,Cashmere,Christchurch
1807181,3216,Fox Lane,Hamilton East,Hamilton
3079070,7614,Fox Lane,Rolleston,
1828847,2105,Foxlaw Street,Randwick Park,Auckland
1839332,3381,Foxley Avenue,Kuratau,Turangi
1830089,2013,Foxley Place,Burswood,Auckland
1799845,4072,Foxley Road,Muriwai,Manutuke
3077688,7886,Fox Moth Drive,Haast,
1799547,4412,Fox Place,Cloverlea,Palmerston North
1790419,7882,Fox Road,Awatuna,Hokitika
1776649,9872,Fox Road,Myross Bush,Invercargill
1811202,3791,Fox Road,Ngaruawahia,
3002305,9891,Fox Road,Pine Bush,Wyndham
1799998,4501,Fox Road,"Springvale,Westmere",Whanganui
1779097,7472,Foxs Creek Road,Ashley Forest,Loburn
1791481,7271,Foxs Island Road,Renwick,
1787367,7771,Foxs Road,Mount Somers,
1799430,9371,Fox's Rush,Arrowtown,
1771425,9302,Fox's Terrace,Arrowtown,
1770842,9320,Fox Street,Alexandra,
1797762,4996,Fox Street,Alfredton,Eketahuna
1776285,9810,Fox Street,Avenal,Invercargill
1779700,7310,Fox Street,Cheviot,
1803535,4102,Fox Street,Clive,
1790228,7802,Fox Street,Cobden,Greymouth
1795456,5710,Fox Street,Featherston,
1801408,5884,Fox Street,Gladstone,
1807183,3216,Fox Street,Hamilton East,Hamilton
1814794,3127,Fox Street,Kawerau,
1797418,4777,Fox Street,Kiwitea,Feilding
1790752,7881,Fox Street,Kokatahi,
1798501,5510,Fox Street,Levin,
1794096,6035,Fox Street,Ngaio,Wellington
1818109,4335,Fox Street,Okato,
1817330,4616,Fox Street,Opunake,
1824627,1052,Fox Street,Parnell,Auckland
1772854,9023,Fox Street,Port Chalmers,Dunedin
1775551,9012,Fox Street,South Dunedin,Dunedin
1781676,7920,Fox Street,Temuka,
1795616,4010,Fox Street,Whataupoko,Gisborne
1805740,4920,Fox Street,Woodville,
1799946,4414,Foxtail Fern,Kelvin Grove,Palmerston North
3082226,2019,Foxtail Lane,Totara Park,Auckland
3083915,9371,Foxtail Road,Jacks Point,Queenstown
3014103,4891,Foxton Beach Road,"Foxton,Foxton Beach",Foxton
1841961,7630,Foxton Drive,Kaiapoi,
3021527,4893,Foxton Shannon Road,"Foxton,Moutoa,Shannon","Foxton,Shannon"
1781963,7987,Fox View Road,Fairlie,
3085611,7630,Fox Way,Kaiapoi,Kaiapoi
1983871,9304,Foxwell Way,Lower Shotover,Queenstown
1823169,0602,Foyle Place,Glendene,Auckland
1776239,9814,Foyle Street,Bluff,
1794122,6023,Foyle Street,Island Bay,Wellington
1771166,9396,Foyle Street,Naseby,
1770298,9400,Foyle Street,Oamaru North,Oamaru
1796641,4625,Foyle Street,Ohakune,
1776118,9773,Foyle Street,Waikaka,Gore
1773302,9085,Foyle Street,Waitati,
1826919,2120,Foy Road,Pukekohe,
3079293,9310,Fraer Street,Cromwell,
1841308,7730,Fraggle Rock Place,Methven,
1827707,2112,Framalda Place,Conifer Grove,Takanini
1795677,7614,Frame Crescent,Rolleston,
1815887,3010,Frame Place,Owhata,Rotorua
1770768,9495,Frame Road,Waianakarua,Hampden
1774571,9572,Frames Lane,Ettrick,Roxburgh
1841088,7886,Frames Road,Fox Glacier,
1805919,3432,Frame Street,Leamington,Cambridge
1771970,9010,Frame Street,North East Valley,Dunedin
1786360,7773,Framptons Road,Hinds,Ashburton
2008896,3384,Fram Road,Tahorakuri Forest,Reporoa
1780319,8062,Francella Street,Bromley,Christchurch
1804191,4110,France Road,Bluff Hill,Napier
1803539,4120,France Road,Longlands,Hastings
1804805,4977,France Road,Matamau,Dannevirke
1776642,9879,France Road,Otatara,Invercargill
1792152,5024,Frances Brown Avenue,Aotea,Porirua
3078338,0616,Frances Bryers Road,Hobsonville,Auckland
1830169,0618,Francesca Place,West Harbour,Auckland
3079791,2113,Francesco Drive,Karaka,Papakura
1818501,2583,Frances Place,Hunua,
3070251,0932,Frances Place,Silverdale,
1990423,9300,Frances Rees Place,Kawarau Falls,Queenstown
1803214,4122,Frances Street,Akina,Hastings
1773339,9230,Frances Street,Balclutha,
1771965,9014,Frances Street,Broad Bay,Dunedin
1797995,4814,Frances Street,Foxton,
1807184,3216,Frances Street,Hamilton East,Hamilton
1828865,2102,Frances Street,Manurewa,Auckland
1810191,3010,Frances Street,Ngongotaha,Rotorua
1799815,4010,Frances Street,Okitu,Gisborne
1775240,9091,Frances Street,Taieri Beach,Taieri Mouth
1811986,3410,Frances Street,Tirau,
1798023,5036,Frances Street,Waikanae Beach,Waikanae
1774621,9400,France Street,Oamaru,
1827545,2123,France Street,Waiuku,
1824632,1010,France Street South,Eden Terrace,Auckland
1813852,3116,Francevic Avenue,Mount Maunganui,
1782725,8013,Francis Avenue,Mairehau,Christchurch
1821449,0932,Francis Avenue,Stanmore Bay,Whangaparaoa
1792890,5013,Francis Bell Grove,Lowry Bay,Lower Hutt
1831555,0600,Francis Curtis Avenue,Blockhouse Bay,Auckland
3077988,4310,Francis Douglas Drive,Westown,New Plymouth
3077816,5010,Francis Douglas Way,Boulcott,Lower Hutt
1804545,4200,Francis Drake Street,Waipukurau,
1808249,3129,Francis Drive,Katikati,
1803202,4120,Francis Hicks Avenue,"Camberley,Raureka,Saint Leonards",Hastings
1805508,4120,Francis Hicks Place,Raureka,Hastings
1817099,8081,Francis James Lane,Redcliffs,Christchurch
3077598,9382,Francis Lane,Lake Hawea,
1839099,5810,Francis Lane,Masterton,
3028393,5792,Francis Line,"Clareville,East Taratahi,Gladstone","Carterton,Gladstone"
1944142,8025,Francis Mill Grove,Westmorland,Christchurch
1794099,6011,Francis Place,Te Aro,Wellington
1799173,0984,Francis Place,Warkworth,
1840260,9494,Francis Road,Duntroon,
1796157,5032,Francis Road,Paraparaumu Beach,Paraparaumu
1797122,4574,Francis Road,Westmere,Whanganui
1808248,3172,Francis Road,Whakamarama,
1824902,1025,Francis Ryan Close,Mount Albert,Auckland
1832773,0931,Francis Skinner Place,Orewa,
1791557,7201,Francis Street,Blenheim,
1824619,1021,Francis Street,Grey Lynn,Auckland
1822392,0622,Francis Street,Hauraki,Auckland
1804806,4977,Francis Street,Ormondville,
1806976,3600,Francis Street,Paeroa,
1814757,3120,Francis Street,Whakatane,
1837243,4414,Francis Way,Roslyn,Palmerston North
1789905,7011,Francois Way,Enner Glynn,Nelson
1832866,2016,Franco Lane,East Tamaki,Auckland
3077491,8025,Franco Road,"Halswell,Hoon Hay",Christchurch
3008438,6011,Frandi Street,"Pipitea,Thorndon,Wadestown",Wellington
1828880,2102,Frangipani Avenue,Manurewa,Auckland
3083473,0173,Frangipani Close,Glenbervie,Whangarei
1799796,4412,Frangipani Mews,Highbury,Palmerston North
1834304,0420,Frangipani Street,Cable Bay,
3077689,0931,Franheim Crescent,Orewa,
1832310,2023,Franich Street,Otara,Auckland
1832672,2019,Frank Bunce Grove,Flat Bush,Auckland
3085179,7608,Frank Chittock Street,Lincoln,Lincoln
1986960,8051,Frank Coxon Road,Belfast,Christchurch
3081573,7604,Frank Ernest Crescent,Prebbleton,
1823173,0610,Frank Evans Place,Henderson,Auckland
3079310,2402,Frankfield Road,Pokeno,
1808960,4312,Frank Frethey Place,Highlands Park,New Plymouth
3078339,0616,Frank Gill Road,Hobsonville,Auckland
1831779,1062,Frank Grey Place,Otahuhu,Auckland
3010320,3171,Frankham Road,"Kaimai Mamaku Conservation Park,Lower Kaimai","Kaimai Mamaku Conservation Park,Tauranga"
1827475,2120,Frank Hewitt Street,Pukekohe,
1839254,5018,Frankie Stevens Place,Riverstone Terraces,Upper Hutt
1794113,6037,Frank Johnson Street,Johnsonville,Wellington
1832753,2123,Frank Knight Place,Waiuku,
3081730,2110,Frankland Road,Papakura,
3084481,7410,Frank Lane,Amberley,
3016032,8024,Frankleigh Street,Somerfield,Christchurch
3002318,,Frankley Road,"Ferndale,Frankleigh Park,Hurdon,Hurworth,Mangorei,New Plymouth,Westown",New Plymouth
1799551,4410,Franklin Avenue,"Hokowhitu,Terrace End",Palmerston North
3058444,2024,Franklin Avenue,"Mangere East,Papatoetoe",Auckland
1842432,7608,Franklin Crescent,Lincoln,
1842174,7400,Franklin Drive,Rangiora,
1824626,1011,Franklin Road,"Auckland Central,Freemans Bay,Ponsonby",Auckland
1803823,4104,Franklin Road,Bay View,Napier
3041689,9591,Franklin Road,"Evans Flat,Tuapeka West",Lawrence
1805571,4970,Franklin Road,Herbertville,
1830635,0571,Franklin Road,Paparoa,
1826581,0192,Franklin Road,"Parua Bay,Tamaterau","Parua Bay,Whangarei"
1827473,2120,Franklin Road,Pukekohe,
1798810,4581,Franklin Road,Turakina,Marton
1806818,3682,Franklin Road,Waihi,
1805518,4183,Franklin Road,Waiohiki,Napier
1804879,4999,Franklin Road,Woodville,
1771979,9010,Franklin Street,Dalmore,Dunedin
1790234,7805,Franklin Street,Greymouth,
1802090,4010,Franklin Street,Mangapapa,Gisborne
1788580,7197,Franklin Street,Marahau,Motueka
1787953,7891,Franklin Street,Millerton,Westport
1819904,0200,Franklin Street,Opua,
3022477,3802,Franklin Street,Pirongia,
1805672,4291,Franklin Street,Porangahau,
1803467,4130,Franklin Terrace,Havelock North,
1789260,7025,Franklyn Close,Wakefield,
1828881,2023,Franklyne Road,Otara,Auckland
1800345,5028,Franklyn Road,Tawa,Wellington
1788013,7830,Franklyn Street,Blacks Point,Reefton
1788145,7010,Franklyn Street,Nelson South,Nelson
1814208,3500,Franklyn Street,Thames,
1800434,6037,Frankmoore Avenue,Johnsonville,Wellington
1985246,0614,Frank Newton Road,Swanson,Auckland
1818480,2013,Frank Nobilo Drive,Golflands,Auckland
1828876,2102,Frank Place,Hillpark,Auckland
3080638,9019,Franks Place,Outram,
1781142,7776,Franks Road,Lauriston,
1798803,4581,Franks Road,Marton,
1775881,9710,Frank Street,"Gore,Upper Charlton",Gore
1810192,3010,Frank Street,"Kawaha Point,Koutu",Rotorua
1825640,1081,Frank Street,"Oneroa,Surfdale",Waiheke Island
1782749,8053,Frank Street,Papanui,Christchurch
3052986,3118,Franks Way,Papamoa Beach,Papamoa
1840772,9300,Frankton Beach Access,Frankton,Queenstown
3037105,,Frankton-Ladies Mile Highway,"Frankton,Lake Hayes,Lower Shotover",Queenstown
3042380,9300,Frankton Road,"Frankton,Queenstown",Queenstown
1813628,3682,Frankton Road,Waihi,
1816610,4312,Frank Wilson Terrace,Welbourn,New Plymouth
1836652,2013,Franshell Crescent,East Tamaki,Auckland
1833341,0494,Frantoio Ridge Road,Mangonui,
3063727,7886,Franz Josef Highway,"Franz Josef/Waiau,Waiho,Westland National Park/Tai Poutini National Park,Whataroa","Franz Josef/Waiau,Westland National Park/Tai Poutini National Park,Whataroa"
3006984,6037,Fraser Avenue,Johnsonville,Wellington
1822115,0627,Fraser Avenue,Northcote,Auckland
1771023,9332,Fraser Avenue,Ranfurly,
1770827,9495,Fraserburgh Street,Herbert,
1785750,7334,Fraser Close,Hanmer Springs,
1804803,4930,Fraser-Collin Crescent,Dannevirke,
1838750,5014,Fraser Colman Grove,Wainuiomata,Lower Hutt
1774351,9310,Fraser Court,Cromwell,
1801735,4414,Fraser Court,Roslyn,Palmerston North
1792737,5018,Fraser Crescent,Elderslea,Upper Hutt
1781964,7901,Fraser Crescent,Twizel,
3038895,9391,Fraser Dam Road,"Blackmans,Fraser Dam",Alexandra
1797217,4702,Fraser Drive,Feilding,
1789377,7072,Fraser Gully Road,Howard,St. Arnaud
1817779,4310,Fraser Lane,New Plymouth,
1796845,4500,Fraser Place,Aramoho,Whanganui
1785312,7400,Fraser Place,Rangiora,
1781965,7987,Fraser Road,Albury,
3065346,9874,Fraser Road,"Argyle Corner,Wrights Bush",Invercargill
1771258,9391,Fraser Road,Earnscleugh,Alexandra
1811557,4673,Fraser Road,"Eltham,Normanby","Eltham,Hawera"
3065347,9874,Fraser Road,"Flints Bush,Wrights Bush","Invercargill,Otautau"
1819902,0182,Fraser Road,Kawakawa,
3065351,7975,Fraser Road,"Levels Valley,Rosewill",Timaru
1776824,9781,Fraser Road,"Lochiel,Tussock Creek",Winton
3065349,9483,Fraser Road,"Macraes,Moonlight,Nenthorn",Macraes Flat
1825814,1072,Fraser Road,Mount Wellington,Auckland
1821884,0624,Fraser Road,Narrow Neck,Auckland
1832420,2025,Fraser Road,Papatoetoe,Auckland
1831959,2471,Fraser Road,Pokeno,
1788567,7182,Fraser Road,Rangihaeata,Takaka
1804266,4281,Fraser Road,Takapau,
1826583,0172,Fraser Road,Titoki,Whangarei
1809604,3196,Fraser Road,Waimana,
3065357,3198,Fraser Road,Waiotahe,Opotiki
1836035,9875,Frasers Beach Road,Fortrose,Tokanui
1836034,9679,Frasers Beach Road,Manapouri,
1802434,4092,Frasers Hill Road,Motu,Te Karaka
1809912,4376,Fraser Smith Road,Awakino,Mokau
1780314,7682,Frasers Road,"Dunsandel,Southbridge",
1770072,9011,Frasers Road,Glenross,Dunedin
1818529,9498,Frasers Road,Hakataramea Valley,
3054461,,Frasers Road,"Lagmhor,Maronan,Tinwald,Westerfield",Ashburton
1802502,7387,Frasers Road,Motunau,Greta Valley
1787310,7583,Frasers Road,Pigeon Bay,
1786252,7580,Frasers Road,"Sheffield,Springfield",
1774784,9330,Fraser Street,Clyde,
1807185,3204,Fraser Street,Frankton,Hamilton
3041113,3112,Fraser Street,"Greerton,Parkvale,Tauranga,Tauranga Harbour,Tauranga South",Tauranga
1810867,3700,Fraser Street,Huntly,
1801629,5010,Fraser Street,Hutt Central,Lower Hutt
1809814,3127,Fraser Street,Kawerau,
1800606,5810,Fraser Street,Masterton,
1799784,4071,Fraser Street,Ormond,Gisborne
1806977,3600,Fraser Street,Paeroa,
3041097,8052,Fraser Street,"Papanui,Redwood",Christchurch
1798807,4894,Fraser Street,Parewanui,Tangimoana
1826177,0110,Fraser Street,Port Whangarei,Whangarei
1772855,9023,Fraser Street,Roseneath,Dunedin
1790418,7812,Fraser Street,Ross,
1790606,7803,Fraser Street,Runanga,
1815308,3800,Fraser Street,Te Awamutu,
1779497,7920,Fraser Street,Temuka,
1781793,7910,Fraser Street,Timaru Port,Timaru
1776282,9810,Fraser Street,Waikiwi,Invercargill
1793455,5014,Fraser Street,Wainuiomata,Lower Hutt
1803038,4108,Fraser Street,Wairoa,
1809601,3120,Fraser Street,Whakatane,
3015946,4196,Frasertown Road,"Frasertown,Wairoa",Wairoa
1822640,0620,Frater Avenue,Milford,Auckland
1800685,5781,Fraters Road,Martinborough,
1832312,2012,Fratley Avenue,Farm Cove,Auckland
1781966,7925,Frayne Street,Fairlie,
3077791,2110,Frazen Avenue,Papakura,
3080622,7610,Frazer Farm Lane,Waikuku,
3080071,0420,Frazer Place,Coopers Beach,
3044514,9774,Frazer Road,"Ferndale,Tuturau","Mataura,Tuturau"
3078490,0494,Frear Rise,Mangonui,
1820639,0479,Frear Road,Kaeo,
3001465,4479,Frecklington Road,"Ohakea,Sanson","Bulls,Sanson"
1837234,7901,Freda Du Faur Avenue,"Lake Ruataniwha,Twizel",Twizel
3080490,8011,Fred Allen Lane,Phillipstown,Christchurch
1829728,2024,Freda Place,Favona,Auckland
3012162,0118,Fred Carr Place,One Tree Point,Whangarei
3080351,2682,Frederica Rise,Waiuku,
1807186,3204,Frederick Drive,Dinsdale,Hamilton
1825402,1041,Frederick Green Place,Mount Roskill,Auckland
1861189,4310,Frederick Place,Whalers Gate,New Plymouth
1833283,2105,Frederick Reece Drive,The Gardens,Auckland
1792981,5011,Frederick Street,Avalon,Lower Hutt
1801440,5713,Frederick Street,Carterton,
1806130,3506,Frederick Street,Coromandel,
3058987,9016,Frederick Street,"Dunedin Central,North Dunedin",Dunedin
1790233,7805,Frederick Street,Greymouth,
1818801,1042,Frederick Street,Hillsborough,Auckland
1802092,4010,Frederick Street,Kaiti,Gisborne
1820933,0982,Frederick Street,Mahurangi East,Warkworth
3078031,7971,Frederick Street,Makikihi,Waimate
1775744,9771,Frederick Street,McNab,Gore
1777985,9610,Frederick Street,Otautau,
1807885,3900,Frederick Street,Otorohanga,
1796192,5032,Frederick Street,Paraparaumu Beach,Paraparaumu
1786442,7903,Frederick Street,Pleasant Point,
1812398,3330,Frederick Street,"Richmond Heights,Two Mile Bay",Taupo
1791616,7202,Frederick Street,Spring Creek,
1793591,5028,Frederick Street,Tawa,Wellington
1800433,6011,Frederick Street,Te Aro,Wellington
1799554,4410,Frederick Street,Terrace End,Palmerston North
1795169,5894,Frederick Street,Tinui,
1793453,5014,Frederick Street,Wainuiomata,Lower Hutt
1783632,8011,Frederick Street,Waltham,Christchurch
1838500,9382,Frederick Street,Wanaka,
3078262,4122,Frederick Street East,Mayfair,Hastings
3059002,4120,Frederick Street West,"Frimley,Mahora,Mayfair",Hastings
3085543,9011,Fred Fox Close,Bradford,Dunedin
3081529,3591,Fred Harsant Drive,Cooks Beach,Whitianga
3077410,9010,Fred Hollows Way,Glenleith,Dunedin
1809600,3120,Fred Judd Crescent,Whakatane,
1828856,2022,Fred Ladd Way,Auckland Airport,Auckland
1812919,3800,Fred Parsons Court,Te Awamutu,
3083656,0932,Fredrica Crescent,Wainui,
3029006,8022,Fredrica Lane,Heathcote Valley,Christchurch
3079582,2110,Fredrick Hanson Road,Papakura,
3002236,0814,Fred Taylor Drive,"Westgate,Whenuapai",Auckland
1822635,0622,Fred Thomas Drive,Takapuna,Auckland
1951092,0810,Fred White Drive,Kumeu,
1825404,1041,Fred Woodward Place,Mount Roskill,Auckland
1784536,8051,Freebairn Street,Redwood,Christchurch
1808217,3112,Freeburn Road,Pyes Pa,Tauranga
3038614,4414,Freedom Drive,Kelvin Grove,Palmerston North
1842648,2018,Freedom Lane,Beachlands,Auckland
1826175,0112,Freehold Lane,Te Kamo,Whangarei
1779031,7991,Freehold Road,Kakahu,Geraldine
1827783,2113,Freelance Terrace,Pahurehure,Papakura
1825406,1041,Freeland Avenue,Mount Roskill,Auckland
1794097,6023,Freeling Street,Island Bay,Wellington
1788568,7073,Freeman Access,Puponga,Collingwood
1774412,9018,Freeman Close,Abbotsford,Dunedin
1812918,3800,Freeman Place,Te Awamutu,
3072677,9492,Freeman Road,"Elderslie,Five Forks",Oamaru
1795711,5512,Freemans Road,Otaki,
1783641,8081,Freeman Street,Mount Pleasant,Christchurch
1792815,5019,Freemans Way,Pinehaven,Upper Hutt
1830064,2104,Freeman Way,Manukau,Auckland
3077466,4310,Freemason Avenue,Spotswood,New Plymouth
1807187,3210,Freemont Street,Chartwell,Hamilton
1824623,1052,Freemont Street,Parnell,Auckland
3082634,0192,Freer Lane,Parua Bay,
1825401,1041,Freer Street,Mount Roskill,Auckland
1820028,0473,Freese Park Road,Omapere,Kaikohe
1809325,3112,Freesia Place,Hairini,Tauranga
1832649,0612,Freestone Place,Henderson,Auckland
1777989,9679,Freestone Place,Manapouri,
1817631,4598,Free Street,Kakaramea,Patea
3030512,4371,Freeth Drive,Ridgewood,New Plymouth
1791201,7273,Freeths Road,Koromiko,Picton
3083413,8083,Freeville Place,New Brighton,Christchurch
3046534,9273,Freezing Works Road,"Otanomomo,Waitepeka",Balclutha
3078742,7614,Freight Drive,Rolleston,
1828870,2022,Freight Place,Mangere,Auckland
1829613,2010,Fremantle Place,Pakuranga Heights,Auckland
1824617,1026,Fremlin Place,Avondale,Auckland
1800163,5018,Fremont Grove,Totara Park,Upper Hutt
1838031,3112,Fremont Way,Pyes Pa,Tauranga
1837761,7010,Frenchay Drive,Atawhai,Nelson
1779464,7582,French Farm Valley Road,French Farm,
3083922,9382,Frenchmans Creek Lane,Wanaka,
1782191,7972,Frenchmans Gully Road,Maungati,Southburn
3022535,3496,French Pass Road,"Cambridge,Karapiro",Cambridge
1780083,7591,French Peak Road,Little River,
3029687,3015,French Place,Tihiotonga,Rotorua
3045177,0991,French Road,Great Barrier Island (Aotea Island),
1770821,9492,Frenchs Road,"Five Forks,Incholme,Kauru Hill",Oamaru
1803215,4122,French Street,Akina,Hastings
1824620,1010,French Street,Auckland Central,Auckland
1771981,9016,French Street,Dunedin Central,Dunedin
1807188,3204,French Street,Frankton,Hamilton
1795142,5810,French Street,Lansdowne,Masterton
1795688,5711,French Street,Martinborough,
1792069,4710,French Street,Marton,
1816609,4310,French Street,Moturoa,New Plymouth
1826584,0193,French Street,Waiotira,
1783650,8062,Frensham Crescent,Woolston,Christchurch
1777993,9881,Frentz Road,"Orepuki,Pahia,Te Waewae Bay",Riverton/Aparima
1833849,0604,Frenz Drive,Titirangi,Auckland
1785715,5026,Freshfields Place,Plimmerton,Porirua
1838319,0812,Freshfields Road,Waimauku,
3073590,9777,Freshford Plains Station Road,"Freshford,Waiparu,Wendonside","Riversdale,Waikaia"
3081156,2019,Freshland Drive,Flat Bush,Auckland
1828848,2102,Freshney Place,Hillpark,Auckland
3081417,3210,Freshwater Drive,Flagstaff,Hamilton
1830362,0614,Fresil Lane,Massey,Auckland
1790829,7201,Freswick Street,Blenheim,
1841223,3382,Frethey Drive,Turangi,
1800204,5011,Frethey Grove,Naenae,Lower Hutt
1770818,9495,Frew Road,Herbert,
1821895,0630,Freya Place,Torbay,Auckland
1770819,9435,Freyberg Avenue,Kurow,
1832423,2104,Freyberg Avenue,Papatoetoe,Auckland
1784218,8011,Freyberg Avenue,Riccarton,Christchurch
1824901,1041,Freyberg Avenue,Sandringham,Auckland
1772856,9023,Freyberg Avenue,Sawyers Bay,Dunedin
1788146,7011,Freyberg Avenue,Stoke,Nelson
1802956,4112,Freyberg Avenue,Tamatea,Napier
1827474,2120,Freyberg Crescent,Pukekohe,
1812110,3411,Freyberg Crescent,Putaruru,
1798021,5036,Freyberg Crescent,Waikanae Beach,Waikanae
1842526,1010,Freyberg Place,Auckland Central,Auckland
1828007,2014,Freyberg Place,Howick,Auckland
1812218,3420,Freyberg Place,Tokoroa,
1796369,4826,Freyberg Place,Waiouru,
1780541,7600,Freyberg Road,Burnham,
1775181,9018,Freyberg Road,Fairfield,Dunedin
3015564,0530,Freyberg Road,Ruawai,
1792812,5018,Freyberg Road,Trentham,Upper Hutt
1797213,4702,Freyberg Street,Feilding,
1807189,3216,Freyberg Street,Hamilton East,Hamilton
1809815,3127,Freyberg Street,Kawerau,
1798502,5510,Freyberg Street,Levin,
1794112,6022,Freyberg Street,Lyall Bay,Wellington
1814711,3110,Freyberg Street,Otumoetai,Tauranga
1841927,7400,Freyberg Street,Rangiora,
1803200,4120,Freyberg Street,Raureka,Hastings
1799552,4414,Freyberg Street,Roslyn,Palmerston North
1772895,9012,Freyberg Street,Saint Kilda,Dunedin
1795141,5810,Freyberg Street,Solway,Masterton
1803040,4108,Freyberg Street,Wairoa,
1801510,5011,Freyberg Street,Waterloo,Lower Hutt
1790229,7805,Freyberg Terrace,Greymouth,
1804631,4200,Freyberg Terrace,Waipukurau,
1840690,5018,Freyburg Place,Trentham,Upper Hutt
1820065,0420,Freyja Crescent,Coopers Beach,
1838703,2019,Friar Close,Flat Bush,Auckland
1842904,7632,Friars Lane,Leeston,
3077547,2019,Fricker Way,Flat Bush,Auckland
1792985,5011,Frickleton Grove,Waterloo,Lower Hutt
1790231,7805,Frickleton Street,Greymouth,
1804194,4112,Frickleton Street,Taradale,Napier
3079092,0612,Frieda Henare Lane,Henderson,Auckland
3085320,8051,Friedeburg Place,Marshland,Christchurch
1811205,3287,Friedlander Road,Eureka,Hamilton
1826914,2694,Friedlander Road,Tuakau,
1828851,2102,Friedlanders Road,"Manurewa,Wattle Downs",Auckland
1841239,8013,Friel Lane,Mairehau,Christchurch
1776116,9774,Friend Road,Waimumu,Gore
3085171,3216,Friends Drive,Hamilton East,Hamilton
3056185,9092,Friends Hill Road,"Mosgiel,North Taieri",Mosgiel
1770044,9018,Friendship Drive,Waldronville,Dunedin
1780714,7700,Friendship Lane,Hampstead,Ashburton
1826172,0110,Friendship Place,Onerahi,Whangarei
3059409,5032,Friendship Place,Paraparaumu,
1794107,6012,Friend Street,Karori,Wellington
3083559,9371,Friesian Close,Jacks Point,Queenstown
1842122,7692,Friesian Crescent,Kaiapoi,
1828864,2022,Friesian Drive,Mangere,Auckland
1813678,3200,Friesian Place,Grandview Heights,Hamilton
3081836,3118,Friesian Way,Papamoa,
1822641,0620,Frieston Road,Milford,Auckland
2005922,3178,Friis Drive,Katikati,
1803213,4120,Frimley Avenue,Frimley,Hastings
1837180,4120,Frimley Oaks,Frimley,Hastings
1803209,4120,Frimley Place,Frimley,Hastings
1803203,4120,Frimley Road,Frimley,Hastings
1801328,4412,Frimley Street,Awapuni,Palmerston North
1798015,5036,Frimley Terrace,Waikanae Beach,Waikanae
3042684,7095,F R I Road,"Golden Downs,Spooners Range",Wakefield
1776806,9781,Frisby Road,Springhills,Winton
1781137,7773,Frisbys Road,Hinds,Ashburton
1778178,9792,Frisco Road,Castlerock,Lumsden
1778179,9792,Frisco Road West,Castlerock,Lumsden
1813329,3010,Frisken Place,Lynmore,Rotorua
3077515,2019,Frisken Road,Flat Bush,Auckland
1777986,9689,Friskin Road,"Ohai,Tinkertown","Ohai,Otautau"
1784530,8053,Frith Place,Burnside,Christchurch
1819266,0372,Frith Road,Mamaranui,Dargaville
3083079,0932,Frith Street,Wainui,
1831031,0626,Frizell Street,Beach Haven,Auckland
1786253,7580,Frizzell Court,Castle Hill,
1794101,6023,Frobisher Street,"Island Bay,Owhiro Bay",Wellington
1828858,2103,Frobisher Way,Clendon Park,Auckland
1776811,9871,Froggat Road,Longbush,Invercargill
3083708,9371,Frogmore Lane,Dalefield,Queenstown
3082473,7615,Frogmore Way,Rolleston,
1783639,8052,Frome Place,St Albans,Christchurch
1776286,9812,Frome Street,Clifton,Invercargill
1776802,9781,Frome Street,Lochiel,Winton
1770296,9400,Frome Street,Oamaru North,Oamaru
1777995,9881,Frome Street,Orepuki,Riverton/Aparima
1796702,4500,Fromont Street,Whanganui East,Whanganui
1796119,3122,Fromow Road,Opotiki,
3077499,0932,Frontiere Lane,Silverdale,
3083662,9300,Frontier Elm Avenue,Frankton,Queenstown
3078109,2019,Frontier Lane,Flat Bush,Auckland
3046409,3876,Frontier Road,"Pirongia,Te Awamutu",
1813596,3576,Front Miranda Road,"Pukorokoro / Miranda,Waitakaruru","Kaiaua,Ngatea"
1798805,4818,Frood Street,Bulls,
1818554,0614,Frosses Place,Massey,Auckland
1822981,0612,Frostbite Place,Ranui,Auckland
1807190,3200,Frost Place,Pukete,Hamilton
3081409,2583,Frost Rise,Hunua,
3059123,0871,Frost Road,"Dairy Flat,Waitoki",
1789904,7071,Frost Road,Hira,
1820923,0985,Frost Road,Leigh,
1825400,1041,Frost Road,Mount Roskill,Auckland
1811203,3771,Frost Road,Ohinewai,Huntly
1814543,2693,Frost Road,Onewhero,
1786021,8083,Frosts Road,Burwood,Christchurch
1790414,7883,Frosty Creek Road,Ruatapu,
1812797,3432,Froude Street,Leamington,Cambridge
1810193,3010,Froude Street,Whakarewarewa,Rotorua
3078503,0793,Fruiter Lane,Coatesville,
3036382,9391,Fruitgrowers Road,"Clyde,Earnscleugh","Alexandra,Clyde"
1850895,0810,Fruitlands Road,Kumeu,
3012331,,Fruitlands-Roxburgh Road,"Coal Creek Flat,Fruitlands,Lake Roxburgh Village,Roxburgh,Shingle Creek","Alexandra,Roxburgh"
3079027,2024,Fruit Lane,Favona,Auckland
1818802,0600,Fruitvale Road,New Lynn,Auckland
1794939,6011,Fryatt Quay,Pipitea,Wellington
1771973,9016,Fryatt Street,Dunedin Central,Dunedin
1771761,9305,Frye Crescent,Albert Town,Wanaka
1810194,3097,Fryer Road,Hamurana,
1830838,0481,Fryer Road,Kaitaia,
1778708,9881,Fryer Road,Orepuki,Riverton/Aparima
1802665,4182,Fryer Road,Poraiti,Napier
1771702,9300,Fryer Street,Queenstown,
3079349,7614,Fry Place,Rolleston,
3082430,4779,Fry Road,Halcombe,
1801547,5010,Fry Street,Boulcott,Lower Hutt
1773300,9018,Fry Street,Fairfield,Dunedin
1788589,7120,Fry Street,Motueka,
1807191,3200,Fuchsia Avenue,Pukete,Hamilton
3043548,7872,Fuchsia Creek Road,"Dunganville,Marsden","Arnold Valley,Greymouth"
3043547,9492,Fuchsia Creek Road,"Five Forks,Fuchsia Creek",Oamaru
1811206,3284,Fuchsia Lane,"Matangi,Tamahere",Hamilton
3082544,3600,Fuchsia Lane,Paeroa,
1821669,0626,Fuchsia Place,Birkdale,Auckland
1785444,8025,Fuchsia Place,Halswell,Christchurch
1813311,3116,Fuchsia Place,Mount Maunganui,
1837275,7201,Fuchsia Place,Springlands,Blenheim
1837960,7011,Fuji Court,Stoke,Nelson
1798561,4091,Fulcher Road,Tauwhareparae,Tolaga Bay
1805007,4130,Fulford Place,Havelock North,
1805166,4130,Fulford Road,Havelock North,
1816608,4310,Fulford Street,New Plymouth,
1784025,8042,Fulham Street,Islington,Christchurch
1836428,5510,Fuller Close,Levin,
1792987,5010,Fuller Grove,Woburn,Lower Hutt
3016373,0610,Fuller Lane,"Henderson,Te Atatu South",Auckland
1820229,0405,Fuller Place,Kaikohe,
1820929,0874,Fuller Road,South Head,
1785226,7691,Fullers Road,Woodend,
1784873,7630,Fuller Street,Kaiapoi,
1780315,7674,Fuller Street,Motukarara,Tai Tapu
1810932,3720,Fuller Street,Ngaruawahia,
2008802,3118,Fuller Street,Papamoa Beach,Papamoa
1830507,0230,Fuller Terrace,Kerikeri,
1793454,5014,Fullerton Grove,Wainuiomata,Lower Hutt
1811442,3289,Fullerton Road,"Rotokauri,Te Kowhai",Hamilton
3052042,3981,Fullerton Road,"Te Kuiti,Waitomo",Te Kuiti
1859036,7020,Fullford Drive,Richmond,
1831599,1041,Fulljames Avenue,Mount Roskill,Auckland
3078148,7614,Full Moon Lane,Rolleston,
1830012,0632,Fulmar Way,Unsworth Heights,Auckland
1832111,2110,Fulmen Place,Red Hill,Papakura
1783027,8014,Fulton Avenue,Merivale,Christchurch
1843034,5018,Fulton Close,Trentham,Upper Hutt
1828855,2023,Fulton Crescent,Otara,Auckland
3080037,7692,Fulton Lane,"Ohoka,Swannanoa",
1780539,7600,Fulton Road,Burnham,
1771982,9010,Fulton Road,Glenleith,Dunedin
1831874,0171,Fulton Road,Mata,Whangarei
1826915,2678,Fulton Road,Puni,Pukekohe
1778403,9810,Fulton Street,Gladstone,Invercargill
1790828,7201,Fulton Street,Springlands,Blenheim
1828869,2102,Funnell Place,Manurewa,Auckland
1798804,4818,Funnell Street,Bulls,
1840089,3112,Furl Close,Pyes Pa,Tauranga
1842206,1061,Furley Place,Onehunga,Auckland
3084837,1051,Furlong Avenue,Remuera,Auckland
1799974,6037,Furlong Crescent,Churton Park,Wellington
3077789,3187,Furlong Road,Papamoa,
1817613,4610,Furlong Street,Hawera,
3080839,8042,Furlong Street,Yaldhurst,Christchurch
3085086,2113,Furlough Road,Opaheke,Papakura
1832703,0932,Furnace Place,Silverdale,
1792154,5024,Furneaux Grove,Whitby,Porirua
1829893,1050,Furneaux Way,Remuera,Auckland
1794956,6011,Furness Lane,Te Aro,Wellington
1819903,0293,Furness Road,Kerikeri,
1841132,3110,Furniss Lane,Tauriko,Tauranga
1806810,3597,Furniss Road,Kaihere,Ngatea
1831960,2683,Furniss Road,Pollok,
1811039,3772,Furniss Road,Ruawaro,Huntly
1841131,3110,Furn Park Lane,Tauriko,Tauranga
1836964,0632,Fuschia Lane,Fairview Heights,Auckland
1774309,9024,Fuschia Place,Mosgiel,
3079553,2112,Fuselage Lane,Takanini,Auckland
3080596,0616,Fuselage Road,Hobsonville,Auckland
1783630,8025,Fusilier Street,Hoon Hay,Christchurch
1842563,3283,Fusion Lane,Tamahere,Hamilton
1834184,2019,Fusion Road,Flat Bush,Auckland
1800202,5011,Futter Grove,Taita,Lower Hutt
1797996,4814,Futter Street,Foxton,
1837775,6012,Futuna Close,Karori,Wellington
1839725,8042,FW Delamain Drive,Yaldhurst,Christchurch
3079911,9273,Fyall Drive,Te Houka,Balclutha
1829436,2025,Fyfe Avenue,Papatoetoe,Auckland
1774213,9495,Fyfe Place,Kakanui,Oamaru
1814535,3611,Fyfe Road,Waihi Beach,
3030374,8042,Fyfe Road,Wigram,Christchurch
1791658,7300,Fyffe Avenue,Kaikoura,
3039842,7300,Fyffe Quay,"Kaikoura,Kaikoura Peninsula",Kaikoura
1837224,7671,Fyffe Road,West Melton,
1790825,7201,Fyffe Street,Witherlea,Blenheim
1835389,1072,Fynes Avenue,Stonefields,Auckland
1817612,4610,Fyson Place,Hawera,
1800765,5032,Fytfield Place,Paraparaumu,
1825408,1042,Fyvie Avenue,Mount Roskill,Auckland
1793593,5028,Fyvie Avenue,Tawa,Wellington
1780312,7783,Fyvie Road,Bankside,
