road_id,postcode,name,locality,city
1825917,1060,Gabador Place,Mount Wellington,Auckland
3082122,7602,Gabbie Place,Southbridge,
3085290,4130,Gables Way,Havelock North,Havelock North
3079631,3112,Gabriela Close,Pyes Pa,Tauranga
1806506,8025,Gabriel Grove,Aidanfield,Christchurch
1775365,9591,Gabriels Gully Road,"Gabriels Gully,Lawrence",Lawrence
3037356,3198,Gabriels Gully Road,Waiotahe,Opotiki
1773352,9532,Gabriel Street,Lawrence,
1796191,5032,Gabriel Street,Raumati Beach,Paraparaumu
3077606,2402,Gadd Lane,Pokeno,
1814725,3120,Gadd Place,Whakatane,
3029946,7805,Gadd Road,Paroa,Greymouth
3002287,4191,Gaddum Road,"Frasertown,Raupunga","Raupunga,Wairoa"
1795642,4010,Gaddums Hill Road,Outer Kaiti,Gisborne
1807192,3216,Gadsby Place,Hamilton East,Hamilton
1818676,2024,Gadsby Road,Favona,Auckland
1816335,3995,Gadsby Road,Ohura,
1809914,3985,Gadsby Road,Te Kuiti,
1792983,5011,Gadsby Street,Avalon,Lower Hutt
1797764,4995,Gadsby Street,Eketahuna,
1822980,0612,Gaede Terrace,Sunnyvale,Auckland
1792155,5024,Gaff Place,Whitby,Porirua
3081927,4130,Gage Lane,Havelock North,
1794947,6037,Gahagan Way,Newlands,Wellington
1831193,0792,Gails Drive,Okura,Auckland
1818030,4310,Gaine Street,New Plymouth,
1784522,8042,Gainford Street,Avonhead,Christchurch
1787726,7614,Gainsborough Court,Rolleston,
1792984,5010,Gainsborough Grove,Belmont,Lower Hutt
1799557,4412,Gainsborough Grove,Highbury,Palmerston North
1783642,8025,Gainsborough Street,Hoon Hay,Christchurch
1832314,2102,Gainsborough Street,Manurewa,Auckland
3085353,7430,Gainsford Mews,Oxford,Oxford
1791203,7206,Gainsford Place,Woodbourne,Blenheim
1807017,3282,Gainsford Road,Peacocke,Hamilton
1774738,9310,Gair Avenue,Cromwell,
1818650,2103,Gairloch Place,Wattle Downs,Auckland
1774908,9010,Gairloch Street,North East Valley,Dunedin
3067067,4972,Gaisford Road,"Kumeroa,Maharahara","Dannevirke,Kumeroa"
1805404,4200,Gaisford Terrace,Waipukurau,
3085442,9302,Gala Burn Lane,Arrowtown,Arrowtown
1837442,9320,Gala Grove,Alexandra,
1816128,3210,Galahad Court,Rototuna North,Hamilton
1779143,8062,Gala Lane,Woolston,Christchurch
1818724,0612,Gala Place,Henderson,Auckland
3000392,9810,Gala Street,"Avenal,Queens Park,Richmond",Invercargill
1778752,9691,Gala Street,Fiordland National Park,
3000394,9013,Gala Street,"Vauxhall,Waverley",Dunedin
3061703,,Galatea Road,"Galatea,Lake Matahina,Omataroa,Te Teko,Waiohau","Murupara,Whakatane"
1824631,1011,Galatea Terrace,Herne Bay,Auckland
1810195,3077,Galatos Road,Atiamuri,
1824630,1010,Galatos Street,Auckland Central,Auckland
1841946,7400,Galatos Street,Rangiora,
1821891,0630,Galaxy Drive,"Mairangi Bay,Sunnynook",Auckland
3080475,0582,Galaxy Lane,Langs Beach,Waipu
3082160,3876,Galaxy Place,Te Awamutu,
1815910,3112,Galaxy Place,Welcome Bay,Tauranga
1840420,3491,Galaxy Road,"Kinleith,Tokoroa",Tokoroa
1783648,8061,Galbraith Avenue,Avonside,Christchurch
1807193,3200,Galbraith Avenue,Beerescourt,Hamilton
1841044,0932,Galbraith Greens,Silverdale,
1786048,7920,Galbraith Place,Temuka,
1770124,9472,Galbraith Road,"Flag Swamp,Waikouaiti",Waikouaiti
3048343,7985,Galbraith Road,"Kakahu,Waitohi","Geraldine,Temuka"
1780713,7700,Galbraith Street,Allenton,Ashburton
1826365,0173,Galbraith Street,Matapouri,Whangarei
1805947,3720,Galbraith Street,Ngaruawahia,
1814863,3015,Galbraith Street,Springfield,Rotorua
1807050,3610,Galbraith Street,Waihi,
1825398,1041,Galbraith Street,Wesley,Auckland
1839257,4414,Galea Grove,Kelvin Grove,Palmerston North
1781568,7991,Gale Cutting Road,Geraldine,
1839928,7081,Galeo Road,Redwood Valley,Richmond
1787339,7783,Gales Road,Bankside,
1827784,2110,Galilee Avenue,Red Hill,Papakura
3057444,3200,Galilee Grove,Te Rapa,Hamilton
3040683,8081,Galilee Lane,"Clifton,Moncks Bay",Christchurch
1814994,3720,Galileo Street,Ngaruawahia,
1839287,7632,Galileo Way,Leeston,
3041865,8042,Gallaghan Close,Wigram,Christchurch
1989989,8042,Gallagher Drive,Hornby South,Christchurch
1815416,3206,Gallagher Drive,Melville,Hamilton
1806131,3508,Gallagher Drive,Tairua,
1806132,3579,Gallagher Park Lane,Pauanui,
3022132,9793,Gallagher Road,"Acton,West Dome",Acton
1807886,3873,Gallagher Road,Ngahape,Te Awamutu
1826913,2678,Gallagher Road,Patumahoe,Pukekohe
1776119,9772,Gallaghers Road,Kaiwera,Gore
1810196,3015,Gallagher Street,Springfield,Rotorua
1812388,3330,Gallagher Street,Taupo,
1815135,3320,Gallagher Street,Te Aroha,
1828861,2102,Gallaher Street,Manurewa East,Auckland
1948494,2110,Gallantry Crescent,Papakura,
3080291,8025,Gallantry Lane,Halswell,Christchurch
1842569,3210,Gallants Place,Flagstaff,Hamilton
1813808,3210,Gallery Grove,Flagstaff,Hamilton
1805912,3415,Gallery Street,Arapuni,Putaruru
1819080,7971,Galletlys Road,Saint Andrews,
1788587,7096,Galletlys Road,Tapawera,Wakefield
1779548,7392,Gallettly Road,Balmoral,
1833141,0185,Galliard Way,Kauri,
1819333,0594,Gallie Branch Road,Matakohe,
1803199,4120,Gallien Street,Saint Leonards,Hastings
1819334,0594,Gallie Road,Matakohe,
3078018,2019,Gallipoli Place,Flat Bush,Auckland
1943068,5032,Gallipoli Place,Paraparaumu,
1804197,4110,Gallipoli Road,Onekawa,Napier
1792816,5018,Gallipoli Road,Trentham,Upper Hutt
1786209,7632,Gallipoli Street,Leeston,
1771968,9013,Gallipoli Street,Waverley,Dunedin
1841318,5791,Gallon Road,Dalefield,Carterton
1822983,0614,Gallony Avenue,Massey,Auckland
3082421,8042,Gallop Lane,Yaldhurst,Christchurch
1828879,2012,Galloway Crescent,Farm Cove,Auckland
1836566,3112,Galloway Crescent,Pyes Pa,Tauranga
3085295,7400,Galloway Place,Rangiora,Rangiora
1771259,9393,Galloway Road,"Galloway,Springvale",Alexandra
1832507,2580,Galloway Road,Karaka,Papakura
3017315,9073,Galloway Road,Taieri Beach,Taieri Mouth
1814369,3216,Galloway Street,Hamilton East,Hamilton
1771972,9011,Galloway Street,"Kenmure,Mornington",Dunedin
1813086,3800,Galloway Street,Kihikihi,Te Awamutu
1806412,9305,Galloway Terrace,Wanaka,
1802560,4189,Gallows Road,Putere,Raupunga
1775613,9271,Gall Road,Ahuriri Flat,Kaka Point
1781967,7925,Gall Street,Fairlie,
1839457,2019,Galora Close,Flat Bush,Auckland
1798809,4788,Galpins Road,Marton,
1842557,2402,Galston Court,Pokeno,
1832308,2014,Galsworthy Place,Bucklands Beach,Auckland
1775883,9774,Galt Road,Tuturau,
1818175,4610,Galt Street,Hawera,
1828850,2010,Galvan Avenue,Sunnyhills,Auckland
1800792,5018,Galveston Grove,Totara Park,Upper Hutt
1977394,9382,Galvin Lane,Wanaka,
3080485,4573,Galvin Road,Horopito,Raetihi
1810197,3010,Galvin Road,Owhata,Rotorua
1819339,0592,Galvin Road,Ruawai,
1783646,8052,Galway Avenue,Bryndwr,Christchurch
1807194,3216,Galway Avenue,Hamilton East,Hamilton
1799555,4410,Galway Avenue,Hokowhitu,Palmerston North
1835390,1072,Galway Bay Terrace,Stonefields,Auckland
1835952,9300,Galway Court,Queenstown,
1812109,3411,Galway Crescent,Putaruru,
1809326,3112,Galway Grove,Greerton,Tauranga
1803206,4122,Galway Place,Mayfair,Hastings
1808740,3119,Galway Place,Te Puke,
1782193,7984,Galways Road,Maungati,Southburn
1824112,1010,Galway Street,Auckland Central,Auckland
3061471,9810,Galway Street,"Grasmere,Prestonville",Invercargill
1809816,3127,Galway Street,Kawerau,
1773487,9220,Galway Street,Milton,
1825513,1061,Galway Street,Onehunga,Auckland
1788147,7011,Galway Street,Stoke,Nelson
1804192,4112,Galway Street,Tamatea,Napier
1776123,9773,Galway Street,Waikaka,Gore
1800203,5011,Galway Street,Waterloo,Lower Hutt
1832309,2103,Gambare Place,Wattle Downs,Auckland
1814117,3210,Gambia Grove,Flagstaff,Hamilton
1825514,1061,Gambia Place,Onehunga,Auckland
1783647,8053,Gambia Street,Papanui,Christchurch
1811038,3771,Gamble Road,Waikokowai,Huntly
3084325,0614,Gamble Way,Massey,Auckland
1786814,8022,Gamblins Road,Saint Martins,Christchurch
1802682,4195,Gambols Road,Tuai,Wairoa
1832110,2110,Game Place,Red Hill,Papakura
3080299,8025,Gammack Drive,Halswell,Christchurch
1780135,7672,Gammacks Road,Motukarara,Tai Tapu
1781677,7920,Gammack Street,Temuka,
1808141,3173,Gamman Mill Road,Oropi,
1785154,7495,Gammans Road,Oxford,
1771978,9011,Gamma Street,Belleknowes,Dunedin
1819672,0474,Gammon Road,Awarua,Kaikohe
1839323,5032,Gandalf Crescent,Paraparaumu,
1841114,4996,Gandys Road,Tiraumea,Eketahuna
1831256,0610,Gane Lane,Te Atatu Peninsula,Auckland
1808143,3114,Gane Place,Omokoroa,
1791200,7202,Gane Street,Spring Creek,
1828875,2024,Ganges Avenue,Mangere East,Auckland
1794949,6035,Ganges Road,Khandallah,Wellington
1830853,0479,Gangway Road,Totara North,Kaeo
1835392,1072,Ganley Terrace,"Saint Johns,Stonefields",Auckland
1789221,7197,Gannet Heights,Kaiteriteri,Motueka
1771974,9022,Gannet Lane,Saint Leonards,Dunedin
3072992,0118,Gannet Place,One Tree Point,Whangarei
3003360,0630,Gannet Point,"Browns Bay,Murrays Bay,Rothesay Bay",Auckland
1841363,5024,Gannet Way,Whitby,Porirua
1788016,7895,Gannons Road,Reefton,
1810139,3987,Gannon Street,Maniaiti / Benneydale,Te Kuiti
1770921,9310,Gantry Place,Cromwell,
1828867,2012,Ganymede Place,Half Moon Bay,Auckland
1779479,8082,Gaol Steps,Lyttelton,
1826916,2684,Gap Road,Manukau Heads,Awhitu
3013627,7591,Gap Road,Te Oka,Little River
1776818,9781,Gap Road East,"Thomsons Crossing,Winton",Winton
1776819,9781,Gap Road West,Winton,
1821896,0630,Garadice Road,Rothesay Bay,Auckland
1809406,3120,Garaway Street,Whakatane,
1792156,5024,Garboard Lane,Whitby,Porirua
1819336,0573,Garbolino Road,"Hakaru,Mangawhai","Kaiwaka,Mangawhai"
1818418,0618,Garcia Place,West Harbour,Auckland
1773301,9471,Garden Bush Road,Bucklands Crossing,Waikouaiti
1829989,0204,Garden Court,Haruru,
1832855,0110,Garden Court,Woodhill,Whangarei
1798504,5510,Gardener Street,Levin,
1812389,3330,Garden Grove,Nukuhau,Taupo
1837989,3508,Garden Grove,Tairua,
3070179,9775,Garden Gully Road,"Crossans Corner,Merino Downs,Te Kiteroa",Gore
1807196,3206,Garden Heights Avenue,Glenview,Hamilton
1785528,8081,Gardenhill Lane,Redcliffs,Christchurch
1839941,0179,Garden Hill Lane,Maungatapere,Whangarei
1816612,4312,Gardenia Avenue,Bell Block,New Plymouth
1816050,3206,Gardenia Close,Melville,Hamilton
1813312,3116,Gardenia Drive,Mount Maunganui,
1836935,0632,Gardenia Grove,Fairview Heights,Auckland
1828872,2012,Gardenia Grove,Half Moon Bay,Auckland
1789226,7020,Gardenia Place,Richmond,
3084721,4471,Garden Lane,Aokautere,Aokautere
1818684,0632,Garden Lane,Torbay,Auckland
1771980,9010,Garden Place,Glenleith,Dunedin
1814370,3204,Garden Place,Hamilton Central,Hamilton
1810198,3015,Garden Place,Hillcrest,Rotorua
1825131,1041,Garden Place,Mount Eden,Auckland
1809324,3112,Garden Place,Tauranga South,Tauranga
1806133,3500,Garden Place,Thames,
1826362,0112,Garden Place,Tikipunga,Whangarei
1792982,5011,Garden Road,Avalon,Lower Hutt
3085217,7571,Garden Road,Darfield,Darfield
3040398,0991,Garden Road,Great Barrier Island (Aotea Island),
1794943,6012,Garden Road,"Kelburn,Northland",Wellington
1784538,8014,Garden Road,Merivale,Christchurch
1777996,9881,Garden Road,"Pahia,Ruahine",Riverton/Aparima
1829877,1010,Garden Road,Parnell,Auckland
1822977,0772,Garden Road,Piha,
1796185,5032,Garden Road,Raumati Beach,Paraparaumu
1824123,1050,Garden Road,Remuera,Auckland
1776805,9730,Garden Street,Lumsden,
3002513,9483,Garden Street,Macraes,Macraes Flat
1821883,0624,Garden Terrace,Devonport,Auckland
1791339,7220,Garden Terrace,Picton,
1827476,2120,Garden Terrace,Pukekohe,
1788583,7091,Garden Valley Road,Wairoa Valley,Brightwater
3078536,1050,Gardenview Rise,Remuera,Auckland
3079794,0505,Garden Way,Mangawhai Heads,Mangawhai
1832311,2024,Gardiner Grove,Mangere East,Auckland
1793399,5014,Gardiner Grove,Wainuiomata,Lower Hutt
3049907,7011,Gardiner Place,Bishopdale,Nelson
1807197,3214,Gardiner Place,Fairfield,Hamilton
1803468,4130,Gardiner Place,Havelock North,
1808144,3189,Gardiner Place,Pukehina,
1781535,7985,Gardiner Road,Kakahu,Geraldine
1776821,9871,Gardiner Road,Kennington,Invercargill
1796351,4471,Gardiners Road,Aokautere,
1770830,9495,Gardiners Road,Awamoa,Oamaru
1779211,8051,Gardiners Road,"Bishopdale,Harewood",Christchurch
1783808,7692,Gardiners Road,Clarkville,Kaiapoi
1785234,7471,Gardiners Road,Cust,
1787536,7387,Gardiners Road,Motunau,Greta Valley
3072048,7495,Gardiners Road,"Oxford,Starvation Hill",Oxford
3072045,7781,Gardiners Road,"Pendarves,Rakaia","Ashburton,Rakaia"
3028014,9591,Gardiners Track,"Craigellachie,Glendhu Forest",Lawrence
1790826,7201,Gardiner Street,Riversdale,Blenheim
1804198,4110,Gardiner Street,Westshore,Napier
1822881,0600,Gardner Avenue,New Lynn,Auckland
1802094,4010,Gardner Place,Inner Kaiti,Gisborne
1949550,5512,Gardner Place,Otaki,
1825530,1023,Gardner Road,Epsom,Auckland
1817066,4374,Gardner Road,Omata,New Plymouth
1778220,9691,Gardner Road,Rowallan,Tuatapere
1797954,4983,Gardners Road,Pahiatua,
1788585,7173,Gardner Valley Road,Upper Moutere,
1827708,2112,Gardone Terrace,Conifer Grove,Takanini
3082075,9391,Gards Place,Alexandra,
1770829,9494,Gards Road,Otekaieke,Duntroon
1800162,5019,Gard Street,Silverstream,Upper Hutt
3026469,9775,Gardyne Road,"Greenvale,Maitland,Waikaka",Gore
1822851,0612,Garelja Road,Henderson,Auckland
1810199,3010,Gareth Place,Lynmore,Rotorua
1772423,9010,Garfield Avenue,Roslyn,Dunedin
3072974,0800,Garfield Road,Helensville,
3072973,4974,Garfield Road,"Norsewood,Ormondville",
1794953,6021,Garfield Street,Brooklyn,Wellington
1811200,3281,Garfield Street,Gordonton,Hamilton
1824107,1052,Garfield Street,Parnell,Auckland
1820924,0973,Garfield Street,Port Albert,Wellsford
1836047,8025,Garforth Green,Halswell,Christchurch
1781529,7991,Garforth Road,Kakahu,Geraldine
1781143,7772,Garforth Street,Fairton,Ashburton
1814541,3171,Gargan Road,Tauriko,Tauranga
1820930,0973,Garibaldi Street,Port Albert,Wellsford
1819272,7020,Garin Grove,Richmond,
1779800,7010,Garin Heights,Atawhai,Nelson
1835329,1072,Garin Way,Stonefields,Auckland
1807198,3200,Garland Drive,St Andrews,Hamilton
3077896,3495,Garland Lane,Leamington,Cambridge
1825529,1061,Garland Road,"Ellerslie,Greenlane",Auckland
1826363,0116,Garland Road,Ruakaka,
3057418,,Garlands Road,"Hillsborough,Woolston",Christchurch
1782194,7979,Garlands Road,Waimate,
1811523,3473,Garland Street,Matamata,
1774285,9300,Garland Terrace,Kelvin Heights,Queenstown
3079001,7610,Garlick Street,Woodend,
1822638,0620,Garmons Way,Castor Bay,Auckland
1822636,0629,Garner Place,Glenfield,Auckland
1809339,3118,Garnet Drive,Papamoa Beach,Papamoa
1792820,5018,Garnet Grove,Birchville,Upper Hutt
3077826,9305,Garnet Grove,Wanaka,
1810200,3015,Garnet Place,Pukehangi,Rotorua
1824127,1022,Garnet Road,"Waitemata Harbour,Westmere",Auckland
1776000,9710,Garnet Street,Gore,
1779876,7385,Garnet Street,Hawarden,
3056092,3200,Garnett Avenue,"Forest Lake,Te Rapa",Hamilton
1783651,8024,Garnett Avenue,Spreydon,Christchurch
1803208,4120,Garnett Street,Raureka,Hastings
1825737,1971,Garratt Road,Waiheke Island,
1783045,8052,Garreg Road,"Bryndwr,Fendalton",Christchurch
3041630,4310,Garrett Drive,Whalers Gate,New Plymouth
1842795,7608,Garrett Place,Lincoln,
1828859,2023,Garrett Place,Otara,Auckland
1801760,5018,Garrett Place,Riverstone Terraces,Upper Hutt
1778456,9877,Garrett Road,Awarua,Invercargill
1808147,3175,Garrett Road,Waitao,Tauranga
1796700,4500,Garrett Street,Durie Hill,Whanganui
1800575,6011,Garrett Street,Te Aro,Wellington
3081691,4470,Garrick Lane,Kelvin Grove,Palmerston North
1807199,3200,Garrick Place,Beerescourt,Hamilton
1810201,3015,Garrick Place,Pukehangi,Rotorua
1825407,1042,Garrison Avenue,Mount Roskill,Auckland
3077787,3187,Garrison Road,Papamoa,
3015094,3415,Garrison Street,Arapuni,Putaruru
1795351,5713,Garrison Street,Carterton,
1859666,5794,Garrity Lane,Greytown,
1779145,7473,Garrymere Road,Okuku,
1784984,7473,Garry River Road,Glentui,Oxford
1831651,1024,Garry Road,Mount Eden,Auckland
1779132,7495,Garry Road,Okuku,
1803211,4120,Garry Street,Raureka,Hastings
1817632,4598,Garsed Road,Kakaramea,Patea
1825512,1061,Garside Place,Onehunga,Auckland
3072548,9793,Garston Athol Highway,"Athol,Garston,Nokomai",Athol
3002595,7774,Gartartan Road,"Tinwald,Willowby",Ashburton
3085584,7614,Garten Lane,Rolleston,Rolleston
1785227,7471,Garterys Road,Cust,
1792811,5018,Garth Lane,Maoribank,Upper Hutt
1773299,9598,Garthmyl Lane,Middlemarch,
1775180,9597,Garthmyl Road,"Middlemarch,Sutton",Middlemarch
1832313,2102,Garth Place,Manurewa,Auckland
1799985,5571,Garth Road,Levin,
3080585,2124,Garth Ross Lane,Karaka,Papakura
1786858,8022,Garth Terrace,Cashmere,Christchurch
1807200,3216,Garthwood Road,Hillcrest,Hamilton
3079964,9393,Gartley Lane,Springvale,Alexandra
1822975,0614,Garton Drive,Massey,Auckland
3002758,0482,Garton Road,"Peria,Taipa","Kaitaia,Taipa"
3042352,8042,Gartrell Road,Wigram,Christchurch
1791205,7206,Gartrell Street,Woodbourne,Blenheim
1784983,7481,Gartys Road,"Balcairn,Leithfield","Amberley,Leithfield"
1828877,2024,Garus Avenue,Mangere East,Auckland
1785019,3112,Garvan Glen,Pyes Pa,Tauranga
1776812,9871,Garvey Road,Woodlands,Invercargill
3072994,7895,Garveys Creek Mine Road,"Rahu Saddle,Victoria Forest Park",Reefton
1787954,7891,Garveys Road,Westport,
1831961,2583,Garvie Road,Hunua,
1776808,9872,Garvie Road,Mabel Bush,Invercargill
3025171,0372,Garvie Road,"Mamaranui,Tangowahine",Dargaville
1784169,8042,Garvins Road,Hornby,Christchurch
1790050,7872,Garvin Street,"Hochstetter,Ngahere","Moana,Ngahere"
1837861,3204,Gary John Lane,Frankton,Hamilton
1791741,5581,Gary Road,Peka Peka,Waikanae
1789337,7096,Garys Road,Spooners Range,Wakefield
1790830,7201,Gascoigne Street,"Islington,Riversdale",Blenheim
1803198,4120,Gascoigne Street,Raureka,Hastings
1812387,3330,Gascoigne Street,Taupo,
1826979,2684,Gaskell Road,Manukau Heads,Awhitu
1792986,5010,Gaskill Grove,Harbour View,Lower Hutt
1796152,3197,Gaskill Road,Toatoa,Opotiki
1840709,3197,Gaskill Road East,Toatoa,Opotiki
1803536,4102,Gaskin Place,Haumoana,
1808142,3173,Gasson Lane,Pyes Pa,Tauranga
1783634,,Gasson Street,Sydenham,Christchurch
1817799,4310,Gasworks Lane,New Plymouth,
1841940,7691,Gatehouse Lane,Woodend,
1797458,4816,Gate Pa Avenue,Ohakea,Bulls
1802901,4083,Gate Road,Raukumara,Ruatoria
1842558,2402,Gateshead Road,Pokeno,
1785400,8023,Gates Lane,Woolston,Christchurch
1786359,7771,Gates Road,Mount Somers,
3040631,7483,Gates Road,Scargill,Waikari
1798022,5036,Gates Road,Waikanae Beach,Waikanae
3081281,0479,Gates Way,Totara North,Kaeo
2004292,2571,Gateway Avenue,Beachlands,Auckland
1816019,3194,Gateway Crescent,Coastlands,Whakatane
1809408,3194,Gateway Drive,Coastlands,Whakatane
1842622,3288,Gateway Drive,Horotiu,Hamilton
3082079,3800,Gateway Drive,Te Awamutu,
3079433,6011,Gateway Lane,Pipitea,Wellington
1842559,2402,Gateway Park Drive,Pokeno,
1805842,3194,Gateway West,Coastlands,Whakatane
1820928,0873,Gatfield Road,Kaukapakapa,
1783649,8011,Gatherer Street,Phillipstown,Christchurch
1826977,2113,Gatland Road,Opaheke,Papakura
1933003,6037,Gatley Grove,Churton Park,Wellington
1831043,0626,Gatman Street,Birkdale,Auckland
1784529,8042,Gatonby Place,Avonhead,Christchurch
1794946,6022,Gaudin Street,Rongotai,Wellington
1774408,9494,Gaudion Road,Peebles,Waitaki Bridge
1802711,3197,Gault Road,Otara,Opotiki
1824116,1010,Gaunt Street,Auckland Central,Auckland
1770952,9310,Gavan Street,Cromwell,
1794944,6035,Gavaskar Place,Khandallah,Wellington
1803824,4112,Gavin Black Street,Meeanee,Napier
1816133,3210,Gavin Heights,Rototuna,Hamilton
1839979,0812,Gavinike Place,Waimauku,
1810845,3700,Gavin Place,Huntly,
1796184,5032,Gavin Road,Raumati Beach,Paraparaumu
1810202,3073,Gavin Road,Rerewhakaaitu,
3033542,1060,Gavin Street,"Ellerslie,Mount Wellington",Auckland
1801530,5014,Gawler Grove,Wainuiomata,Lower Hutt
3008225,5581,Gawler Street,Te Horo Beach,Otaki
1841729,9305,Gawn Lane,Wanaka,
1775277,9584,Gaws Road,Wairuna,Clinton
1794952,6035,Gaya Grove,Ngaio,Wellington
1828878,2023,Gaye Crescent,Otara,Auckland
3003152,8061,Gayhurst Road,"Avonside,Burwood,Dallington",Christchurch
1827786,2113,Gaylands Place,Opaheke,Papakura
3081666,3214,Gaylard Avenue,Chartwell,Hamilton
1789028,7201,Gaylee Place,Redwoodtown,Blenheim
1950626,6037,Gayle Way,Grenada Village,Wellington
1818515,2112,Gaylord Place,Conifer Grove,Takanini
1814504,3973,Gayne Road,Honikiwi,Otorohanga
1825403,1041,Gaynor Street,Mount Roskill,Auckland
3079943,3119,Gaynor Way,Te Puke,
1786435,7982,Gays Pass Road,Totara Valley,Pleasant Point
1790415,7812,Gay Street,Ross,
3081135,1072,Gazala Lane,Panmure,Auckland
3084152,2580,Gazala Road,Karaka,Papakura
3026167,3216,Gazeley Avenue,Silverdale,Hamilton
1821757,0626,Gazelle Avenue,Beach Haven,Auckland
1785954,8081,Gazelle Lane,Redcliffs,Christchurch
1826965,2683,Gazelle Road,Karioitahi,Waiuku
1830333,0582,Gazelle Way,Langs Beach,Waipu
1801019,4774,Geanges Road,Apiti,
1799762,5018,Geange Street,Upper Hutt Central,Upper Hutt
3051713,2681,Gearon Road,"Glenbrook,Mauku","Glenbrook,Pukekohe"
1795960,5582,Gear Road,Te Horo,Otaki
1811985,3078,Gears Road,Kinleith,Tokoroa
1793373,5012,Gear Street,Petone,Lower Hutt
1810203,3015,Gear Street,Utuhina,Rotorua
3007433,5024,Gear Terrace,Ranui,Porirua
1774383,9371,Geary Lane,Closeburn,Queenstown
1817633,4598,Geary Road,Manutahi,Patea
1772420,9014,Geary Street,Portobello,Dunedin
1804196,4112,Gebbie Road,Taradale,Napier
3014631,8971,Gebbies Pass Road,"Gebbies Valley,Tai Tapu,Teddington","Governors Bay,Tai Tapu"
1772833,9024,Gebbie Street,Kinmont Park,Mosgiel
3081915,3204,Gecko Lane,Hamilton Lake,Hamilton
3078721,0616,Gecko Road,Hobsonville,Auckland
1810204,3010,Geddes Road,Koutu,Rotorua
3029934,9397,Geddes Road,"Kyeburn,Naseby,Ranfurly",
1780198,7672,Geddes Road,Lincoln,
1772740,9018,Geddes Street,Green Island,Dunedin
1824117,1026,Geddes Terrace,Avondale,Auckland
1802957,4110,Geddis Avenue,"Maraenui,Marewa,Meeanee",Napier
1785229,7400,Geddis Street,Rangiora,
3080309,8011,Gee Lane,Linwood,Christchurch
1784527,8053,Geelong Place,Burnside,Christchurch
1773298,9510,Geelong Street,Waikouaiti,
1828871,2024,Gee Place,"Mangere,Mangere East",Auckland
3080422,4112,Gee Place,Taradale,Napier
1842436,7692,Geering Place,Kaiapoi,
1819338,0591,Gee Road,Matakohe,
1810205,3074,Gee Road,Owhata,Rotorua
1770823,9495,Gees Road,Kakanui,Oamaru
1791202,7204,Gee Street,Renwick,
1793592,5028,Gee Street,Tawa,Wellington
1783850,7400,Gefkins Road,Rangiora,
1785233,7473,Geisha Road,Waikuku,
3079508,7615,Geldard Drive,Rolleston,
1930779,2113,Gelderland Way,Karaka,Papakura
1842308,7608,Gelens Place,Lincoln,
1832449,2580,Gellert Road,Karaka,Papakura
1808139,3114,Gellibrand Place,Omokoroa,
3039602,2583,Gelling Road,"Ararimu,Hunua","Drury,Hunua"
1776644,9877,Gell Road,Woodend,Invercargill
1799556,4414,Gemini Avenue,Milson,Palmerston North
1792159,5024,Gemini Lane,Cannons Creek,Porirua
1821754,0626,Gemini Place,Beach Haven,Auckland
1810209,3010,Gemini Place,Kawaha Point,Rotorua
3079187,7614,Gemini Place,Rolleston,
3069864,9492,Gemmells Crossing Road,"Incholme,Reidston",Oamaru
1779873,7385,Gemmells Road,Hawarden,
3005404,0810,Gemscott Crescent,Huapai,Kumeu
1792819,5018,Gemstone Drive,Birchville,Upper Hutt
3084518,2113,Gemstone Park Road,Rosehill,Papakura
3082440,7615,Gemstone Place,Rolleston,
1810208,3015,Gem Street,Pukehangi,Rotorua
1832871,0612,Gendo Avenue,Henderson,Auckland
1837118,0230,General Gates Avenue,Kerikeri,
3016753,7999,Generator Shed Road,Aoraki/Mount Cook National Park,
1785982,7675,Genesis Drive,West Melton,
1833079,2019,Genesis Place,Flat Bush,Auckland
1824118,0600,Geneva Place,Blockhouse Bay,Auckland
1839259,4414,Geneva Terrace,Kelvin Grove,Palmerston North
3079915,0616,Genevieve Lane,Hobsonville,Auckland
1815557,3289,Genevieve Way,Whatawhata,Hamilton
1785652,7025,Genia Drive,Wakefield,
1784524,8083,Genista Place,Parklands,Christchurch
1841133,5024,Gennaker Lane,Whitby,Porirua
1842703,7614,Genoa Avenue,Rolleston,
1813803,3210,Genoa Close,Flagstaff,Hamilton
1800330,0173,Genoa Lane,Tutukaka,Whangarei
3080042,5024,Genoa Place,Whitby,Porirua
1800652,0632,Genoa Way,Albany Heights,Auckland
3044812,7875,Gentian Lane,Arthur's Pass National Park,
1792821,5018,Gentian Street,Timberlea,Upper Hutt
1806134,3591,Gentle Annie Road,Coroglen,Whitianga
3081763,7875,Gentle Annie Road,Kumara Junction,Greymouth
1796370,4826,Gentry Grove,Waiouru,
1840775,7700,Geoff Geering Drive,Netherby,Ashburton
1828860,2024,Geoffrey Place,Mangere East,Auckland
1814372,3216,Geoffrey Place,Riverlea,Hamilton
1831090,0630,Geoffrey Road,Torbay,Auckland
1828853,2022,Geoffrey Roberts Road,Auckland Airport,Auckland
1822829,0612,Geordie Street,Henderson,Auckland
1837418,2120,George Arthur Place,Pukekohe,
1822978,0618,George Avenue,Herald Island,Auckland
3034340,8042,George Bellew Road,"Avonhead,Yaldhurst",Christchurch
3023970,2022,George Bolt Memorial Drive,"Auckland Airport,Mangere",Auckland
1800577,6022,George Bolt Street,Rongotai,Wellington
1825916,1060,George Bourke Drive,Mount Wellington,Auckland
3080540,9371,George Bullen Lane,Arthurs Point,Queenstown
1810848,3700,George Clay Place,Huntly,
3080523,2112,George Cole Lane,Takanini,Auckland
1840464,7201,George Conroy Drive,Witherlea,Blenheim
3081309,2018,George Couldrey Lane,Maraetai,Auckland
1826971,2677,George Crescent,Buckland,Pukekohe
3010146,5018,George Daniels Drive,Trentham,Upper Hutt
1835285,0632,George Deane Place,Greenhithe,Auckland
1810847,3700,George Drive,Huntly,
3077553,9304,George Drive,Lower Shotover,Queenstown
3079373,7025,George Fyfe Way,Wakefield,
1793372,5012,George Gee Drive,Korokoro,Lower Hutt
3078664,7805,George Glenn Place,Paroa,Greymouth
1780284,7173,George Harvey Road,"Mahana,Upper Moutere",Upper Moutere
3083637,5711,George Hawkins Way,Martinborough,
1822792,0602,George Herring Place,Glen Eden,Auckland
1778259,7614,George Holmes Road,Rolleston,
1789676,7020,George Kidd Street,Richmond,
3015170,,George King Memorial Drive,"Hindon,Lee Stream,Outram",Outram
1825405,1041,George Laurenson Lane,Mount Roskill,Auckland
3083454,9011,George Lewin Lane,Mornington,Dunedin
1820927,0931,George Lowe Place,Orewa,
3078728,0614,George McWhirter Avenue,Massey,Auckland
1814061,3800,George Melrose Drive,Te Awamutu,
3078228,8042,George Noble Road,Yaldhurst,Christchurch
1784528,8083,George Oliver Place,Kainga,Christchurch
1803523,4130,George Place,Havelock North,
1812169,3420,George Place,Tokoroa,
1826360,0110,George Point Road,Onerahi,Whangarei
1788584,7120,George Quay,Motueka,
1781524,7986,George Road,Clandeboye,Temuka
1837443,9396,George Road,Naseby,
1775804,9884,George Road,Waikawa Valley,Tokanui
3016201,4110,Georges Drive,Napier South,Napier
1779478,8082,George Seymour Quay,Lyttelton,
1780374,7673,George Square,Coalgate,
3042981,7482,Georges Road,"Broomfield,Glasnevin","Amberley,Broomfield"
1795598,5783,Georges Road,Martinborough,
1796704,4500,George Street,Aramoho,Whanganui
1813255,3481,George Street,Arapuni,Putaruru
1773367,9230,George Street,Balclutha,
1790827,7201,George Street,Blenheim,
1798811,4818,George Street,Bulls,
1807202,3214,George Street,Claudelands,Hamilton
1773803,9534,George Street,Clinton,
1805739,4930,George Street,Dannevirke,
1778488,9791,George Street,Dipton West,
3048794,9016,George Street,"Dunedin Central,North Dunedin,North East Valley",Dunedin
1800164,5018,George Street,Ebdentown,Upper Hutt
1776815,9825,George Street,Edendale,
1801043,4900,George Street,Eketahuna,
1818268,4322,George Street,Eltham,
1781238,7930,George Street,Geraldine,
1778348,9710,George Street,Gore,
1817427,4610,George Street,Hawera,
1770826,9495,George Street,Herbert,
3048853,0114,George Street,Hikurangi,
1804200,4110,George Street,Hospital Hill,Napier
1770828,9495,George Street,Kakanui,Oamaru
1825025,1024,George Street,"Kingsland,Mount Eden",Auckland
1798410,5510,George Street,Levin,
3048831,4310,George Street,"Lower Vogeltown,New Plymouth",New Plymouth
1830902,0982,George Street,Mahurangi East,Warkworth
1802091,4010,George Street,Mangapapa,Gisborne
1828846,2024,George Street,Mangere East,Auckland
1820574,0420,George Street,Mangonui,
1811528,3400,George Street,Matamata,
1773483,9220,George Street,Milton,
1811650,3300,George Street,Morrinsville,
1788588,7007,George Street,Murchison,
1825022,1023,George Street,Newmarket,Auckland
1805948,3720,George Street,Ngaruawahia,
1798808,4785,George Street,Ohingaiti,Kimbolton
3048850,1081,George Street,"Oneroa,Surfdale",Waiheke Island
1777991,9610,George Street,Otautau,
1814331,3600,George Street,Paeroa,
1801670,4910,George Street,Pahiatua,
1799542,4410,George Street,Palmerston North,
1827785,2110,George Street,Papakura,
1796190,5032,George Street,Paraparaumu Beach,Paraparaumu
1791340,7220,George Street,Picton,
1781533,7903,George Street,Pleasant Point,
3048795,9023,George Street,Port Chalmers,Dunedin
1796683,4632,George Street,Raetihi,
1785232,7400,George Street,Rangiora,
1784193,8041,George Street,Riccarton,Christchurch
1788579,7020,George Street,Richmond,
1820920,0820,George Street,Riverhead,
1778866,9822,George Street,Riverton/Aparima,
1786211,7614,George Street,Rolleston,
1779545,7379,George Street,Rotherham,
1801680,4474,George Street,Shannon,
1795140,5810,George Street,Solway,Masterton
1780370,7681,George Street,Springfield,
1792979,5019,George Street,Stokes Valley,Lower Hutt
1811878,3320,George Street,Te Aroha,
1812876,3800,George Street,Te Awamutu,
1809915,3910,George Street,Te Kuiti,
1806071,3119,George Street,Te Puke,
1794945,6011,George Street,Thorndon,Wellington
1781829,7910,George Street,Timaru,
1780715,7700,George Street,Tinwald,Ashburton
1827524,2121,George Street,Tuakau,
1807051,3610,George Street,Waihi,
1773486,9073,George Street,Waihola,Milton
1782195,7924,George Street,Waimate,
1817065,4320,George Street,Waitara,
1827534,2123,George Street,Waiuku,
3048783,9810,George Street,"Waverley,Windsor",Invercargill
1809407,3120,George Street,Whakatane,
1778869,9720,George Street,Winton,
1795597,5794,George Street,Woodside,Greytown
1825515,1061,George Terrace,Onehunga,Auckland
3077438,2018,George Town Drive,Beachlands,Auckland
3057933,,Georgetown-Pukeuri Road,"Awamoko,Georgetown,Papakaio,Peebles,Pukeuri","Oamaru,Waitaki Bridge"
1781526,7985,Georgetown Road,Temuka,
1796706,4500,Georgetti Road,Bastia Hill,Whanganui
1810140,3987,Georgetti Street,Maniaiti / Benneydale,Te Kuiti
3078899,0981,Georgetti Way,Warkworth,
3000941,7972,George Ward Road,"Claremont,Fairview,Pareora West",Timaru
2010946,8025,George West Square,Wigram,Christchurch
1814795,3127,George Whatnall Place,Kawerau,
3084058,9371,George White Place,Lake Hayes,Queenstown
3083712,4112,George Yee Place,Taradale,Napier
1841439,4702,Georgia Court,Feilding,
1836667,5032,Georgia Grove,Paraparaumu,
1839148,3112,Georgia Grove,Pyes Pa,Tauranga
3082243,7700,Georgia Lane,Ashburton,
1785956,8051,Georgia Lane,Casebrook,Christchurch
3082325,0230,Georgia Lane,Kerikeri,
1820036,0176,Georgia Lane,Te Kamo,Whangarei
1832757,0632,Georgia Terrace,Albany,Auckland
3083506,1072,Georgie Salter Crescent,"Saint Johns,Stonefields",Auckland
3083700,5713,Georgina Beyer Way,Carterton,
1799546,4412,Georgina Close,Highbury,Palmerston North
3085464,7632,Georgina Mary Street,Leeston,Leeston
1824109,1011,Georgina Street,Freemans Bay,Auckland
1955739,8083,Georgina Street,Marshland,Christchurch
1826973,2121,Geraghty Maber Road,Tuakau,
1808164,2696,Geraghty Road,Pukekawa,
1819181,0372,Geraghty Road,Tangowahine,Dargaville
1818831,2121,Geraghtys Road,Tuakau,
1787169,7400,Gerald Beattie Lane,Rangiora,
1785771,8042,Gerald Connolly Place,Hornby,Christchurch
3006619,7992,Geraldine-Arundel Road,"Arundel,Carew,Rangitata","Ashburton,Geraldine"
1801321,4412,Geraldine Crescent,Cloverlea,Palmerston North
3014352,,Geraldine-Fairlie Highway,"Fairlie,Geraldine,Geraldine Flat,Hilton,Kakahu,Middle Valley,Pleasant Valley","Fairlie,Geraldine"
1781532,7991,Geraldine Flat Road,Geraldine Flat,Geraldine
1824126,1071,Geraldine Place,Kohimarama,Auckland
1828849,2023,Geraldine Road,Otara,Auckland
1839889,7992,Geraldine Street,Arundel,Geraldine
3067927,8013,Geraldine Street,"Christchurch Central,Edgeware,Mairehau",Christchurch
1790670,7805,Geraldine Street,Greymouth,
1786950,8042,Geraldo Place,Russley,Christchurch
1814540,3114,Gerald Place,Omokoroa,
1820696,0800,Gerald Stokes Avenue,Helensville,
1786210,7608,Gerald Street,Lincoln,
1842108,2019,Geranium Avenue,Flat Bush,Auckland
3078002,7471,Gerard Place,Rangiora,
1777987,9683,Gerard Road,"Drummond,Gladfield","Otautau,Winton"
3001417,1072,Gerard Way,Saint Johns,Auckland
1831700,1041,Gerbic Place,Mount Roskill,Auckland
1830121,0612,Gerda Place,Ranui,Auckland
1776122,9773,Gerken Road,Chatton,Gore
1780669,7672,Gerkins Road,Tai Tapu,
1771262,9387,German Hill Road,Moa Creek,
1790535,7882,German Road,Arahura Valley,Hokitika
3030826,7495,German Road,"Cust,Starvation Hill","Cust,Oxford"
1817806,4394,German Terrace,Midhirst,Stratford
1833120,2019,Gerolds Place,Flat Bush,Auckland
1833287,2102,Gerona Crescent,Hillpark,Auckland
1822021,0630,Gerontius Glade,Torbay,Auckland
1820932,0920,Gerontius Lane,Snells Beach,
1807203,3210,Gerrand Place,Chedworth,Hamilton
1806817,3673,Gerrand Road,Paeroa,
1841670,1061,Gerrard Beeson Place,Onehunga,Auckland
1775826,9783,Gerrard Lane,Winton,
1775829,9720,Gerrard Place,Winton,
3066053,9791,Gerrard Road,"Castle Downs,Wether Hill","Dipton,Dipton West"
1805721,4193,Gerrard Road,Frasertown,Wairoa
1778485,,Gerrard Road,Winton,
1830694,0474,Gerrards Road,Punakitere Valley,Kaikohe
1825399,1042,Gerrard Street,Three Kings,Auckland
1789429,7095,Gerrys Road,Golden Downs,Wakefield
1772411,9022,Gerrys Road,Ravensbourne,Dunedin
1796696,4500,Gerse Street,Whanganui East,Whanganui
1789859,7011,Gershwin Grove,Stoke,Nelson
3082573,2679,Gertrude Cole Road,Clarks Beach,
1783653,8061,Gertrude Place,Avondale,Christchurch
1795352,5713,Gertrude Street,Carterton,
1804769,4930,Gertrude Street,Dannevirke,
1775999,9710,Gertrude Street,Gore,
1820926,0992,Gervin Road,Wainui,
1828873,2010,Gerwyn Place,Pakuranga Heights,Auckland
1796703,4501,G F Moore Drive,Springvale,Whanganui
1826980,2682,Ghezzie Road,"Otaua,Port Waikato",
3046712,6011,Ghuznee Street,Te Aro,Wellington
1790051,7804,Giacomo Street,Blackball,Greymouth
1838847,2105,Giani Court,Manurewa,Auckland
1836198,2113,Giarni Place,Karaka,Papakura
1791097,2018,Gibbia Way,Beachlands,Auckland
3078323,2402,Gibboney Place,Pokeno,
3050783,2585,Gibbon Road,"Clevedon,Ness Valley",Clevedon
1801209,4782,Gibbon Road,Hunterville,
1811805,3374,Gibbon Road,Morrinsville,
1800852,4501,Gibbons Crescent,Castlecliff,Whanganui
3080639,7202,Gibbons Place,Grovetown,Blenheim
1819337,0573,Gibbons Road,Kaiwaka,
1822634,0622,Gibbons Road,Takapuna,Auckland
1828862,2103,Gibbons Road,Weymouth,Auckland
1792814,5018,Gibbons Street,"Ebdentown,Elderslea,Upper Hutt Central",Upper Hutt
1783645,8023,Gibbon Street,Sydenham,Christchurch
3053465,9891,Gibb Road,Pine Bush,Wyndham
1827787,2110,Gibbs Crescent,Red Hill,Papakura
1793398,5014,Gibbs Crescent,Wainuiomata,Lower Hutt
1785228,7610,Gibbs Drive,Woodend,
1790965,5018,Gibbs Lane,Upper Hutt Central,Upper Hutt
1784168,8025,Gibbs Place,Halswell,Christchurch
1812385,3377,Gibbs Place,Kinloch,Taupo
3078083,3473,Gibbs Place,Matamata,
1788472,7073,Gibbs Road,Collingwood,
3022153,7886,Gibbs Road,Franz Josef/Waiau,
1788590,7096,Gibbs Road,"Golden Downs,Kohatu",Wakefield
1786134,7483,Gibbs Road,Greta Valley,
1828857,2102,Gibbs Road,Manurewa,Auckland
1842884,4720,Gibbs Road,Taihape,
1826366,0182,Gibbs Road,Whakapara,Hikurangi
1774853,9371,Gibbston Back Road,Gibbston,Queenstown
1811785,3210,Gibbston Close,Huntington,Hamilton
1817956,2016,Gibbston Crescent,Flat Bush,Auckland
3025052,,Gibbston Highway,"Arrow Junction,Arrowtown,Gibbston,Kawarau Gorge,Roaring Meg","Arrowtown,Cromwell,Queenstown"
1818595,3110,Gibbston Lane,Bethlehem,Tauranga
1788592,7095,Gibbs Valley Road,Wakefield,
1788594,7020,Giblin Street,Richmond,
3081686,7672,Gibraltar Close,Tai Tapu,
1831460,1052,Gibraltar Crescent,Parnell,Auckland
3062887,4271,Gibraltar Road,"Aramoana,Pourerere",Omakere
3062888,0172,Gibraltar Road,"Kaihu,Pakotai","Kaihu,Whangarei"
1828008,2014,Gibraltar Street,Howick,Auckland
1827487,4410,Gibraltar Way,Fitzherbert,Palmerston North
1801367,4414,Gibson Court,Roslyn,Palmerston North
1793077,5011,Gibson Crescent,Naenae,Lower Hutt
1784163,8042,Gibson Drive,Hornby,Christchurch
1812878,3800,Gibson Lane,Te Awamutu,
1805438,4930,Gibson Place,Dannevirke,
3059057,2014,Gibson Place,Mellons Bay,Auckland
1839231,3118,Gibson Place,Papamoa Beach,Papamoa
1817634,4520,Gibson Place,Patea,
1790335,7810,Gibson Quay,Hokitika,
1774785,9384,Gibson Road,Bannockburn,Cromwell
1778370,9774,Gibson Road,Brydone,Mataura
1807204,3204,Gibson Road,Dinsdale,Hamilton
1771044,9395,Gibson Road,Gimmerburn,Ranfurly
1770820,9494,Gibson Road,"Glenavy,Peebles","Waimate,Waitaki Bridge"
1774302,9587,Gibson Road,Kelso,Tapanui
1819331,0193,Gibson Road,Taipuha,Paparoa
1832064,2121,Gibson Road,Tuakau,
1788586,7095,Gibsons Road,Golden Downs,Wakefield
1791199,7273,Gibsons Road,Kaituna,Renwick
1782196,7971,Gibsons Road,Makikihi,Waimate
1780977,7777,Gibsons Road,Wakanui,Ashburton
1796698,4500,Gibson Street,Aramoho,Whanganui
1810212,3010,Gibson Street,Fenton Park,Rotorua
3070565,9010,Gibson Street,"Kaikorai,Wakari",Dunedin
1790721,7812,Gibson Street,Ross,
1781835,7910,Gibson Street,Seaview,Timaru
1786331,7773,Giddings Road,Ealing,Ashburton
1845361,2113,Gidran Street,Karaka,Papakura
1797257,4702,Giesen Road,Feilding,
1825250,1041,Gifford Avenue,Wesley,Auckland
1839030,6037,Gifford Grove,Churton Park,Wellington
1818527,1072,Gifford Lane,Panmure,Auckland
1810213,3015,Gifford Place,Utuhina,Rotorua
3041299,9483,Gifford Road,Macraes,Macraes Flat
1827612,2025,Gifford Road,Papatoetoe,Auckland
1790294,7273,Giffords Creek Lane,Rapaura,Blenheim
1791204,7273,Giffords Road,Rapaura,Blenheim
1770831,9495,Gifford Street,Maheno,Oamaru
1824110,1071,Gifford Street,Saint Heliers,Auckland
1786221,7673,Gift Street,Coalgate,
1827710,2112,Gigi Place,Conifer Grove,Takanini
1832307,2103,Gila Place,Weymouth,Auckland
1814373,3204,Gilbass Avenue,Hamilton Lake,Hamilton
3034074,3200,Gilbek Place,"Avalon,Burbush",Hamilton
1829591,0630,Gilberd Place,Torbay,Auckland
1796695,4501,Gilberd Street,Castlecliff,Whanganui
1824124,1021,Gilbert Avenue,Grey Lynn,Auckland
3082063,4120,Gilbert Close,Mahora,Hastings
1785820,7614,Gilbert Close,Rolleston,
1815943,3210,Gilbert Court,Rototuna,Hamilton
3077979,0614,Gilbert Hall Way,Swanson,Auckland
3006840,8042,Gilberthorpes Road,"Hei Hei,Hornby,Islington,Yaldhurst",Christchurch
1819675,0272,Gilbert Mair Rise,Russell,
1783654,8023,Gilbert Place,Sydenham,Christchurch
1788593,7096,Gilbert Road,Golden Downs,Wakefield
1792818,5018,Gilbert Road,Kaitoke,Upper Hutt
1826364,0171,Gilbert Road,Mata,Whangarei
1828866,2023,Gilbert Road,Otara,Auckland
3037512,7805,Gilbert Road,Paroa,Greymouth
1816456,4377,Gilbert Road,Waiiti,Urenui
1803762,4183,Gilbertson Road,Pakowhai,Napier
3031197,7385,Gilberts Road,"Masons Flat,Medbury,Waikari","Hawarden,Waikari"
1779874,7410,Gilbert Street,Amberley,
1776001,9710,Gilbert Street,Gore,
1790232,7805,Gilbert Street,Greymouth,
1797608,4779,Gilbert Street,Halcombe,
1818178,4598,Gilbert Street,Kakaramea,Patea
1816616,4310,Gilbert Street,"Lower Vogeltown,New Plymouth",New Plymouth
1788581,7020,Gilbert Street,Richmond,
1791558,7201,Gilbert Street,Witherlea,Blenheim
1820921,0810,Gilbransen Road,Kumeu,
1825949,0114,Gilby Avenue,Hikurangi,
3021108,5022,Gilby Grove,Titahi Bay,Porirua
1783638,8011,Gilby Street,Linwood,Christchurch
1812798,3434,Gilchrist Place,Cambridge,
1841419,7630,Gilchrist Place,Kaiapoi,
3044968,9471,Gilchrist Road,Karitane,Waikouaiti
1776124,9775,Gilchrist Road,"Maitland,Waikaka Valley",Gore
1831969,2682,Gilchrist Road,Otaua,
1807007,3288,Gilchrist Street,Avalon,Hamilton
1811879,3320,Gilchrist Street,Te Aroha,
1787625,8022,Gilders Grove,Heathcote Valley,Christchurch
3080010,4180,Giles Lane,Mangateretere,Hastings
1784273,8061,Giles Place,Shirley,Christchurch
3031483,7692,Giles Road,"Clarkville,Kaiapoi",Kaiapoi
1820104,0475,Giles Road,Horeke,Okaihau
1825736,1081,Giles Road,Ostend,Waiheke Island
1815176,3420,Giles Street,Tokoroa,
1808145,3177,Giles Way,Tanners Point,Tahawai
1777176,9871,Gilfedder Road,Kennington,Invercargill
1808146,3129,Gilfillan Drive,Katikati,
3017600,9586,Gilfillan Road,"Owaka Valley,Purekireki",Owaka
1824111,0600,Gilfillan Street,Blockhouse Bay,Auckland
1833253,2016,Gilford Place,East Tamaki Heights,Auckland
1824108,1023,Gilgit Road,Epsom,Auckland
1772428,9010,Gilkison Street,Halfway Bush,Dunedin
1840838,9320,Gillaly Way,Bridge Hill,Alexandra
1810214,3015,Gillam Crescent,Springfield,Rotorua
1790540,7882,Gillams Gully Road,Awatuna,Hokitika
1779214,7682,Gillanders Road,"Dunsandel,Greendale","Darfield,Dunsandel"
1831196,0629,Gillan Place,Bayview,Auckland
1828874,2012,Gillard Place,Eastern Beach,Auckland
3036843,3882,Gillard Road,"Ngahinapouri,Ohaupo",Ohaupo
1838830,8025,Gillatt Gardens,Halswell,Christchurch
1822979,0610,Gill Avenue,Te Atatu Peninsula,Auckland
1824121,0600,Gill Crescent,Blockhouse Bay,Auckland
1790923,7201,Gill Crescent,Redwoodtown,Blenheim
1819673,0210,Gill Drive,Kawakawa,
1803526,4130,Gillean Street,Havelock North,
1834970,0377,Gillespie Drive,Baylys Beach,
1805861,3385,Gillespie Place,Acacia Bay,Taupo
1821814,0624,Gillespie Place,Narrow Neck,Auckland
1826970,2583,Gillespie Road,Hunua,
1778710,9679,Gillespie Road,Whare Creek,Manapouri
1790536,7886,Gillespies Beach Road,"Fox Glacier,Westland National Park/Tai Poutini National Park",
3065974,,Gillespies Line,"Cloverlea,Highbury,Kairanga,Takaro","Kairanga,Palmerston North"
1792817,5018,Gillespies Road,Birchville,Upper Hutt
1784280,8083,Gillespies Road,Kainga,Christchurch
3082506,9382,Gillespie Street,Lake Hawea,
1774999,9010,Gillespie Street,North East Valley,Dunedin
1800225,5011,Gillespie Street,Taita,Lower Hutt
1818805,1041,Gilletta Road,Mount Roskill,Auckland
1807206,3214,Gillett Lane,Enderley,Hamilton
1818568,2014,Gillett Place,Botany Downs,Auckland
1811806,3474,Gillett Road,Waharoa,
1797613,4779,Gillett Street,Halcombe,
1831245,0600,Gilliam Street,New Lynn,Auckland
3073455,9679,Gillian Lane,Fiordland National Park,
1789417,7096,Gillians Road,Golden Downs,Wakefield
1806135,3620,Gillian Street,Whangamata,
1807207,3214,Gillies Avenue,Claudelands,Hamilton
1818806,1023,Gillies Avenue,"Epsom,Newmarket",Auckland
1812386,3330,Gillies Avenue,"Tauhara,Taupo",Taupo
1803757,4294,Gillies Crescent,Waimarama,
3083830,4616,Gillies Lane,Opunake,
3062506,5024,Gillies Place,Ranui,Porirua
1776697,9810,Gillies Road,Ascot,Invercargill
1833233,0483,Gillies Road,Karikari Peninsula,
1825918,1062,Gillies Road,Mount Wellington,Auckland
1789654,7073,Gillies Road,Rockville,Collingwood
1815286,3434,Gillies Street,Cambridge,
1789529,7891,Gillies Street,Denniston,Westport
3013712,0210,Gillies Street,Kawakawa,
1773488,9220,Gillies Street,Milton,
1802146,4010,Gillies Street,Outer Kaiti,Gisborne
1777992,9620,Gillies Street,Tuatapere,
1839298,4500,Gilligan Close,College Estate,Whanganui
1805216,4183,Gilligan Road,Pakowhai,Napier
1771177,9320,Gilligans Gully Road,Alexandra,
3082316,0478,Gilligans Lane,Whangaroa,Kaeo
1770315,9430,Gilligan Street,Palmerston,
1795240,5889,Gilligan Street,Tauweru,Masterton
1818807,0112,Gillingham Road,Te Kamo,Whangarei
1781969,7925,Gillingham Street,Fairlie,
1770953,9310,Gilling Place,Cromwell,
1779606,7395,Gilling Road,Hanmer Forest,Hanmer Springs
1791388,7300,Gillings Lane,Kaikoura,
1808140,3174,Gill Lane,"Minden,Te Puna",Tauranga
3083217,4476,Gill Lane,Rongotea,
1839811,7612,Gillman Place,Pegasus,
1830660,0594,Gillon Road,Matakohe,
1790047,7872,Gillon Street,Arnold Valley,
1832608,7892,Gillows Dam Road,Westport,
3013135,0482,Gill Road,"Ahipara,Awanui,Kaitaia","Awanui,Kaitaia"
1803863,4104,Gill Road,Bay View,Napier
3013130,9781,Gill Road,"Browns,Lochiel,Springhills",Winton
1792859,5013,Gill Road,Lowry Bay,Lower Hutt
1778227,9682,Gill Road,Merrivale,Otautau
1827788,2110,Gills Avenue,Papakura,
1822639,0632,Gills Road,"Albany,Albany Heights",Auckland
3049324,2014,Gills Road,"Bucklands Beach,Half Moon Bay,Howick",Auckland
1780981,7773,Gills Road,Hinds,Ashburton
1789682,7096,Gills Road,Spooners Range,Wakefield
1816693,,Gill Street,"New Plymouth,Strandon",New Plymouth
1773297,9510,Gill Street,Waikouaiti,
1814864,3015,Gilltrap Street,Mangakakahi,Rotorua
1790230,7805,Gilmer Lane,Greymouth,
1788015,7895,Gilmer Road,"Cronadun,Reefton",Reefton
1794950,6011,Gilmer Terrace,Wellington Central,Wellington
1772408,9012,Gilmerton Street,Corstorphine,Dunedin
1784268,8053,Gilmore Place,Burnside,Christchurch
1826978,2681,Gilmore Road,Glenbrook,
1837905,9383,Gilmore Road,Mount Pisa,Cromwell
1813155,3290,Gilmore Road,Ngahinapouri,Ohaupo
1830659,0571,Gilmore Road,Taipuha,Paparoa
1814152,3295,Gilmore Road,Waitetuna,Raglan
3011107,9010,Gilmore Street,"Kaikorai,Wakari",Dunedin
1808739,3119,Gilmore Street,Te Puke,
1805298,4112,Gilmour Place,Taradale,Napier
1771209,9571,Gilmour Road,Roxburgh East,Roxburgh
1783635,8011,Gilmours Lane,Christchurch Central,Christchurch
1780668,7672,Gilmours Road,Lincoln,
1796697,4501,Gilmour Street,Gonville,Whanganui
1811096,3225,Gilmour Street,Raglan,
1807049,3610,Gilmour Street,Waihi,
1816694,4310,Gilmour Street,Westown,New Plymouth
1779477,8082,Gilmour Terrace,Lyttelton,
1832748,2016,Gilnockie Close,East Tamaki Heights,Auckland
1821755,0626,Gilpin Place,Beach Haven,Auckland
1803753,4172,Gilpin Road,Havelock North,
1826972,2682,Gilpin Road,Otaua,
1805299,4110,Gilray Avenue,Maraenui,Napier
1803006,4294,Gilray Place,Waimarama,
1841576,9281,Gilroy Road,Kaitangata,
3079430,5018,Gilruth Road,Wallaceville,Upper Hutt
1789675,7096,Gilsenans Road,Golden Downs,Wakefield
1821497,0932,Gilshennan Valley,Red Beach,
1843005,2019,Gilston Avenue,Flat Bush,Auckland
1786811,8083,Gilwell Street,Burwood,Christchurch
3080904,7910,Gimbal Place,Gleniti,Timaru
1791848,5510,Gimblett Court,Levin,
1778191,9810,Gimblett Court,Waikiwi,Invercargill
1778066,9810,Gimblett Place,Waikiwi,Invercargill
1779607,7392,Gimblett Road,Balmoral,
1803350,4175,Gimblett Road,Roys Hill,Hastings
1777180,9778,Gimblett Road,Waikaia,
1776495,9810,Gimblett Street,Waikiwi,Invercargill
3028190,9395,Gimmerburn-Naseby Road,"Gimmerburn,Naseby,Ranfurly","Naseby,Ranfurly"
1838065,9395,Gimmerburn Road,Gimmerburn,Ranfurly
3072543,9395,Gimmerburn-Waipiata Road,"Gimmerburn,Ranfurly,Waipiata",Ranfurly
1840671,5810,Gimson Street,Solway,Masterton
1837106,0612,Gina Avenue,Ranui,Auckland
1837214,9382,Gin and Raspberry Lane,Cardrona,Wanaka
1808602,8025,Ginaty Lane,Aidanfield,Christchurch
1838169,3112,Gina Way,Welcome Bay,Tauranga
1832566,0614,Ginders Drive,Massey,Auckland
1786135,7385,Ginders Road,Medbury,Hawarden
3079202,2113,Gingernut Place,Karaka,Papakura
1818179,4598,Ginger Street,Kakaramea,Patea
3082965,8051,Gingko Lane,Marshland,Christchurch
1791537,7201,Gingko Place,Witherlea,Blenheim
3079159,9300,Ginkgo Avenue,Frankton,Queenstown
1832935,2022,Ginko Place,Mangere,Auckland
3084970,3400,Ginko Place,Matamata,Matamata
1811095,3771,Ginn Road,Rotowaro,Huntly
1840650,0582,Ginty Way,Waipu,
1837908,0175,Giovanni Drive,Whareora,
1804058,4112,Gipps Place,Tamatea,Napier
1788148,7010,Gipps Street,Atawhai,Nelson
1800578,6012,Gipps Street,Karori,Wellington
1842156,0616,Gipsy Moth Street,Hobsonville,Auckland
1818654,2120,Girdhar Place,Pukekohe,
1790671,7805,Girdwood Lane,Greymouth,
1790922,7201,Girling Avenue,Mayfield,Blenheim
3016505,0381,Girls High School Road,"Arapohue,Omana,Pukehuia","Dargaville,Tangiteroria"
1822637,0629,Girrahween Drive,Totara Vale,Auckland
1794948,6021,Girton Terrace,Mount Cook,Wellington
1812171,3420,Girvan Place,Tokoroa,
1773991,9591,Girvan Road,Lawrence,
1784283,8041,Girvan Street,Fendalton,Christchurch
1770235,9400,Girvan Street,Oamaru North,Oamaru
1777183,9816,Girvan Street,Wallacetown,
1812247,2103,Girvan Terrace,Wattle Downs,Auckland
1808822,3116,Girven Road,Mount Maunganui,
3069707,2684,G Irwin Road,Manukau Heads,Awhitu
1814624,3119,Gisborne Road,Te Puke,
1817317,4616,Gisborne Terrace,Opunake,
1797784,4996,Gisbourne Street,Alfredton,Eketahuna
3082106,8025,Gisele Crescent,Halswell,Christchurch
1806136,3620,Given Avenue,Whangamata,
1806137,3579,Given Grove,Pauanui,
1778369,9772,Given Road,Charlton,Gore
1811804,3474,Given Road,Ngarua,Waitoa
1826975,2684,Given Road,Pollok,
1803524,4130,Given Street,Havelock North,
1840880,7072,Glacial Terrace,St. Arnaud,
1794508,9372,Glacier Way,Glenorchy,
1773293,9597,Gladbrook Road,Middlemarch,
3080531,9305,Gladbrook Street,Wanaka,
1828991,2104,Gladding Place,Manukau,Auckland
1783633,8013,Glade Avenue,Richmond,Christchurch
1841351,4474,Glade Park Lane,Shannon,
1821758,0626,Glade Place,Birkenhead,Auckland
1822982,0610,Gladfield Lane,Te Atatu Peninsula,Auckland
3005421,9683,Gladfield Road,"Bayswater,Drummond,Gladfield","Otautau,Winton"
1773295,9092,Gladfield Road,"East Taieri,Mosgiel,Riverside",Mosgiel
1814374,3200,Glading Place,St Andrews,Hamilton
1773292,9598,Gladsmuir Road,Middlemarch,
1834334,9383,Gladsmuir Road,Queensberry,Cromwell
1784162,8042,Gladson Avenue,Sockburn,Christchurch
1840471,5884,Gladstone Braes,Longbush,
1770236,9400,Gladstone Drive,Oamaru North,Oamaru
1812391,3330,Gladstone Grove,Richmond Heights,Taupo
3084373,9393,Gladstone Lane,Letts Gully,Alexandra
3003196,8082,Gladstone Quay,Lyttelton,
1791206,7274,Gladstone Road,Awatere Valley,Seddon
1804057,4110,Gladstone Road,Bluff Hill,Napier
3023421,9010,Gladstone Road,"Dalmore,North East Valley",Dunedin
3023427,5792,Gladstone Road,"East Taratahi,Gladstone","Carterton,Gladstone"
3023431,4010,Gladstone Road,"Gisborne,Kaiti,Makaraka,Te Hapara",Gisborne
1781534,7974,Gladstone Road,Hadlow,Timaru
1771762,9382,Gladstone Road,"Hawea Flat,John Creek,Lake Hawea",Lake Hawea
1798200,5571,Gladstone Road,"Levin,Tararua Forest Park",
1815085,3400,Gladstone Road,Matamata,
1816688,4310,Gladstone Road,New Plymouth,
1831113,0627,Gladstone Road,Northcote,Auckland
1824125,1052,Gladstone Road,Parnell,Auckland
1785230,7610,Gladstone Road,"Pegasus,Woodend",
3023426,7020,Gladstone Road,Richmond,
1814311,3610,Gladstone Road,Waihi,
1775405,9024,Gladstone Road North,Mosgiel,
3036447,9092,Gladstone Road South,"Allanton,East Taieri,Mosgiel,Owhiro",Mosgiel
1795762,4472,Gladstone Square,Linton,Palmerston North
1804770,4930,Gladstone Street,Dannevirke,
1819085,0310,Gladstone Street,Dargaville,
1797256,4702,Gladstone Street,Feilding,
1797981,4814,Gladstone Street,Foxton,
1779870,7385,Gladstone Street,Hawarden,
1817425,4610,Gladstone Street,Hawera,
1821496,0973,Gladstone Street,Port Albert,Wellsford
1787862,7891,Gladstone Street,Seddonville,Westport
1809916,3910,Gladstone Street,Te Kuiti,
1788089,7825,Gladstone Street,Westport,
1804906,4920,Gladstone Street,Woodville,
1781531,7992,Gladstone Street North,Orari,Temuka
1781530,7992,Gladstone Street South,Orari,Temuka
3022683,9810,Gladstone Terrace,"Gladstone,Rosedale",Invercargill
1794955,6012,Gladstone Terrace,Kelburn,Wellington
1825578,1023,Gladwin Road,Epsom,Auckland
1822288,0629,Gladys Avenue,Glenfield,Auckland
1799544,4414,Gladys Place,Kelvin Grove,Palmerston North
1840306,5510,Gladys Place,Levin,
1801761,5028,Gladys Scott Place,Tawa,Wellington
1842566,3210,Glaisdale Crescent,Flagstaff,Hamilton
1804650,3110,Glambourne Way,Judea,Tauranga
1816687,4312,Glamis Avenue,Bell Block,New Plymouth
1807208,3204,Glamis Avenue,Dinsdale,Hamilton
1821507,0930,Glamis Avenue,Manly,Whangaparaoa
3072988,6022,Glamis Avenue,Strathmore Park,Wellington
1813459,3110,Glamis Grove,Bethlehem,Tauranga
1783920,8022,Glamis Place,Cashmere,Christchurch
1781831,7910,Glamis Street,Marchwiel,Timaru
1802958,4112,Glamorgan Avenue,Tamatea,Napier
1822022,0630,Glamorgan Drive,"Northcross,Torbay",Auckland
1770824,9482,Glamorgan Street,Moeraki,
1794938,6012,Glamorgan Street,Northland,Wellington
1818712,0310,Glamuzina Road,Dargaville,
3038305,0982,Glance Street,"Sandspit,Warkworth",Warkworth
1783051,8052,Glandovey Road,"Fendalton,Strowan",Christchurch
1796701,4500,Glandwr Crescent,Whanganui East,Whanganui
1837866,2016,Glanmire Place,Flat Bush,Auckland
1794940,6037,Glanmire Road,Newlands,Wellington
3080849,2019,Glann Lane,Flat Bush,Auckland
1818478,0932,Glanville Close,Stanmore Bay,Whangaparaoa
1812244,4332,Glanville Road,Stratford,
1831462,1052,Glanville Terrace,Parnell,Auckland
1830150,2016,Glanworth Place,Dannemora,Auckland
1836009,8971,Glas Brae,Governors Bay,
1829437,2104,Glasgow Avenue,Papatoetoe,Auckland
1802147,4010,Glasgow Crescent,Kaiti,Gisborne
1804063,4112,Glasgow Place,Tamatea,Napier
1827394,2120,Glasgow Road,Pukekohe,
3065215,4581,Glasgow Road,Whangaehu,Whanganui
1775195,9230,Glasgow Street,Balclutha,
1816695,4312,Glasgow Street,Bell Block,New Plymouth
1796705,4500,Glasgow Street,"College Estate,Springvale,Whanganui",Whanganui
1817431,4610,Glasgow Street,Hawera,
1810846,3700,Glasgow Street,Huntly,
1809817,3127,Glasgow Street,Kawerau,
1800579,6012,Glasgow Street,Kelburn,Wellington
1772808,9024,Glasgow Street,Mosgiel,
1797953,4910,Glasgow Street,Pahiatua,
1786812,8011,Glasgow Street,Phillipstown,Christchurch
1774832,9300,Glasgow Street,Queenstown,
1772418,9012,Glasgow Street,South Dunedin,Dunedin
1807209,3200,Glasgow Street,St Andrews,Hamilton
1789274,7891,Glasgow Street,Stockton,Westport
1799540,4412,Glasgow Street,Takaro,Palmerston North
1809150,3110,Glasgow Street,Tauranga,
1792813,5018,Glasgow Street,Trentham,Upper Hutt
1773104,9510,Glasgow Street,Waikouaiti,
1782197,7924,Glasgow Street,Waimate,
1795720,4702,Glasgow Terrace,Feilding,
1825413,1023,Glasgow Terrace,Grafton,Auckland
1785865,8051,Glasnevin Drive,"Bishopdale,Casebrook",Christchurch
3021540,,Glasnevin Road,"Amberley,Glasnevin",Amberley
1787357,7700,Glassey Drive,Allenton,Ashburton
1787860,7893,Glasseye Drive,Little Wanganui,Karamea
1787861,7893,Glasseye Road,Little Wanganui,Karamea
1780316,7682,Glasseys Road,"Leeston,Southbridge",
1771261,9377,Glassford Road,"Becks,Drybread,Matakanui",Omakau
3079031,2022,Glasshouse Lane,Favona,Auckland
1839115,2016,Glasson Avenue,Flat Bush,Auckland
3053544,2013,Glassonby Road,Northpark,Auckland
1813156,3879,Glasson Road,Rotoorangi,Cambridge
1790115,7804,Glassons Lane,Blackball,Greymouth
1790537,7881,Glass Road,Kokatahi,
1831970,2474,Glass Road,Mercer,
1825254,1041,Glass Road,Mount Roskill,Auckland
3038411,7772,Glassworks Road,"Netherby,Newland",Ashburton
3081877,3210,Glastonbury Avenue,Chartwell,Hamilton
1836061,8083,Glastonbury Drive,Burwood,Christchurch
1822286,0629,Glastron Place,Bayview,Auckland
1833254,2016,Glastry Close,East Tamaki Heights,Auckland
1775481,9400,Glayva Crescent,Oamaru North,Oamaru
1819205,2123,Gleaming Place,Waiuku,
1830429,0632,Gleanor Avenue,Oteha,Auckland
1785663,7608,Glebe Close,Lincoln,
1827535,2123,Glebe Place,Waiuku,
1808374,3129,Gledstane Road,Katikati,
1821505,0932,Gledstane Road,Stanmore Bay,Whangaparaoa
1811186,3721,Gleeson Place,Taupiri,
1798199,5573,Gleeson Road,Manakau,
1826974,2683,Gleeson Road,Pollok,
1819474,0594,Gleeson Road,Ruawai,
1798957,4581,Gleeson Road,Turakina,Marton
1783652,8024,Gleig Place,Spreydon,Christchurch
2005171,0618,Glenae Lane,Hobsonville,Auckland
1791662,7285,Glenake Road,Ward,
1793078,5011,Glen Alice Grove,Naenae,Lower Hutt
3055467,7491,Glenallen Road,"Pyramid Valley,Weka Pass","Waikari,Waipara"
1776491,9812,Glenalmond Crescent,Rockdale,Invercargill
3031812,1024,Glenalmond Road,"Epsom,Mount Eden",Auckland
1816691,4310,Glen Almond Street,New Plymouth,
1794951,6037,Glen Alton Avenue,Paparangi,Wellington
1805657,4274,Glenalvon Road,Tikokino,
1794954,6037,Glenamoy Crescent,Johnsonville,Wellington
1842616,9305,Glenaray Crescent,Wanaka,
1830199,0612,Glenarden Way,Ranui,Auckland
1825253,1041,Glenarm Avenue,Wesley,Auckland
1783643,8061,Glenarm Terrace,Dallington,Christchurch
1808636,8025,Glen Arrife Place,Wigram,Christchurch
1842424,7604,Glenary Drive,Prebbleton,
1824115,1071,Glen Atkinson Street,Saint Heliers,Auckland
1789937,7120,Glenaven Drive,Motueka,
1829457,2025,Glen Avenue,Papatoetoe,Auckland
3080528,9305,Glenavon Green,Wanaka,
1784266,8041,Glenavon Place,Ilam,Christchurch
3046508,9493,Glenavy-Hilderthorpe Road,"Hilderthorpe,Waitaki Bridge",Waitaki Bridge
1786562,7979,Glenavy Tawai Road,Glenavy,Waimate
1803761,4102,Glenbank Road,Te Awanga,
3077940,8042,Glenbarr Lane,Broomfield,Christchurch
1833065,0632,Glen Bay Close,Pinehill,Auckland
1822985,0614,Glenbervie Crescent,Massey,Auckland
3083632,0173,Glenbervie Drive,Glenbervie,Whangarei
1794957,6011,Glenbervie Terrace,Thorndon,Wellington
1802436,2677,Glenbogle Drive,Buckland,Pukekohe
1777304,7678,Glenbogle Drive,Rolleston,
3083706,9305,Glenbrae Crescent,Wanaka,
3078779,1072,Glenbrae Glade,Glen Innes,Auckland
1776494,9810,Glenbrae Place,Hargest,Invercargill
1784941,7472,Glenbrae Place,Loburn,
1788150,7010,Glenbrae Street,Atawhai,Nelson
1840003,8051,Glen Bridge Lane,Harewood,Christchurch
1831968,2681,Glenbrook Beach Road,Glenbrook,
1787398,7901,Glenbrook Crescent,Twizel,
1772807,9024,Glenbrook Drive,Mosgiel,
1801591,5011,Glenbrook Grove,Naenae,Lower Hutt
3083707,9305,Glenbrook Lane,Wanaka,
3019038,2679,Glenbrook Road,"Glenbrook,Karaka,Kingseat","Glenbrook,Papakura,Pukekohe"
1805059,4188,Glenbrook Road,Putorino,Kotemaori
1825627,1081,Glen Brook Road,Omiha,Waiheke Island
3025943,2681,Glenbrook Station Road,"Glenbrook,Mauku","Glenbrook,Pukekohe"
1824120,1050,Glenbrook Street,Remuera,Auckland
3065959,2681,Glenbrook-Waiuku Road,"Glenbrook,Waiuku",
1837809,0176,Glen Bruce Place,Ngararatunua,Whangarei
1784282,8042,Glenburn Place,Avonhead,Christchurch
1813822,3200,Glenburn Place,Nawton,Hamilton
1832099,2110,Glenburn Place,Papakura,
1808230,4470,Glenburn Road,Ashhurst,
1795393,5883,Glenburn Road,"Glenburn,Te Wharau",Masterton
3084939,0616,Glenburn Road,Hobsonville,Auckland
3043260,9683,Glenburn Road,Otautau,
1822986,0614,Glenbury Place,Massey,Auckland
1831044,0626,Glenbush Place,Birkenhead,Auckland
1775835,8062,Glenbyre Place,Bromley,Christchurch
1837203,2677,Glencairn Place,Buckland,Pukekohe
1778690,9791,Glencairn Road,"Castle Downs,Wether Hill","Dipton,Dipton West"
1798959,4788,Glencairn Road,Turakina,Marton
1781971,7901,Glencairn Road,Twizel,
3072346,9010,Glencairn Street,"Dalmore,North East Valley",Dunedin
1833372,2103,Glencalder Place,Wattle Downs,Auckland
1815954,3110,Glencarron Place,Bethlehem,Tauranga
1770887,9320,Glencarron Street,Alexandra,
1829567,0602,Glen Close,Glen Eden,Auckland
3061172,7999,Glencoe Access Road,Aoraki/Mount Cook National Park,
1791636,3112,Glencoe Court,Pyes Pa,Tauranga
3012498,,Glencoe Highway,"Glencoe,Hedgehope,Mataura,Pebbly Hill,Te Tipua,Waitane","Gore,Invercargill,Mataura"
1813496,3200,Glencoe Place,Nawton,Hamilton
3041154,9371,Glencoe Road,"Arrow Junction,Arrowtown","Arrowtown,Queenstown"
1822019,0630,Glencoe Road,Browns Bay,Auckland
1770833,9495,Glencoe Road,Herbert,
1779602,7392,Glencoe Road,Island Hills,Hanmer Springs
1804988,4171,Glencoe Station Road,Maraekakaho,
1784278,8053,Glencoe Street,Burnside,Christchurch
1785460,8083,Glenconnor Place,Burwood,Christchurch
1812170,3420,Glencorse Street,Tokoroa,
1822289,0629,Glencourt Place,Glenfield,Auckland
1815485,3210,Glen Cree Avenue,Rototuna,Hamilton
1791406,7374,Glencree Road,Oaro,Kaikoura
1785952,8051,Glencullen Drive,Casebrook,Christchurch
1830151,2016,Glencullen Place,Dannemora,Auckland
1774568,9300,Glenda Drive,Frankton,Queenstown
1774608,9401,Glendale Crescent,Holmes Hill,Oamaru
1807211,3204,Glendale Drive,Dinsdale,Hamilton
1800576,6037,Glendale Grove,Churton Park,Wellington
1838228,0295,Glendale Heights,Waipapa,
1790928,7201,Glendale Place,Witherlea,Blenheim
1822793,0602,Glendale Road,Glen Eden,Auckland
1826361,0110,Glendale Road,Woodhill,Whangarei
1771538,9372,Glendale Street,Kinloch,Glenorchy
3081053,9812,Glenda Place,Seaward Bush,Invercargill
3083842,3385,Glendas Way,Acacia Bay,Taupo
1794958,6023,Glendavar Street,Berhampore,Wellington
1822287,0629,Glendawn Place,Bayview,Auckland
1823141,0602,Glendene Avenue,"Glendene,Te Atatu South",Auckland
3077894,7614,Glendene Court,Rolleston,
3077387,9305,Glen Dene Crescent,Wanaka,
1841479,9023,Glendermid Close,Sawyers Bay,Dunedin
1783636,8081,Glendevere Terrace,Redcliffs,Christchurch
1815181,3420,Glendevon Place,Tokoroa,
1772416,9013,Glendevon Place,Vauxhall,Dunedin
1774723,9412,Glendhu Crescent,Otematata,
1830483,0629,Glendhu Road,Bayview,Auckland
1795596,5784,Glendhu Road,Hinakura,Martinborough
3041217,9774,Glendhu Road,"Mataura,Waimumu","Gore,Mataura"
3041218,7387,Glendhu Road,"Motunau,Omihi","Greta Valley,Waipara"
1775001,9010,Glendining Avenue,North East Valley,Dunedin
1803042,4197,Glendining Road,Wairoa,
3079771,9793,Glendinning Crescent,Kingston,
1795239,5871,Glendonald Road,Bideford,Masterton
1831463,1026,Glendon Avenue,Avondale,Auckland
1807888,3900,Glendon Place,Otorohanga,
3082817,8025,Glendore Drive,Halswell,Christchurch
1779740,7384,Glendower Street,Conway Flat,Cheviot
1824122,1071,Glendowie Road,Glendowie,Auckland
1795600,5784,Glendryneoch Road,Hinakura,Martinborough
1815830,3178,Gleneagles Drive,Aongatete,
1815906,3800,Gleneagles Drive,Te Awamutu,
1827723,2103,Gleneagles Grove,Wattle Downs,Auckland
1784281,8053,Gleneagles Terrace,Ilam,Christchurch
1841437,4312,Gleneagles Way,Waiwhakaiho,New Plymouth
3064454,9371,Glenelg Lane,Jacks Point,Queenstown
1775278,9586,Glenelg Road,"Lochindorb,Purekireki","Balclutha,Owaka"
3051190,9273,Glenelg Road,"Lochindorb,Purekireki","Balclutha,Owaka"
1799941,4071,Glenelg Road,Makauri,Gisborne
1821503,0932,Glenelg Road,Red Beach,
1783057,8022,Glenelg Spur,Hillsborough,Christchurch
1774997,9011,Glenelg Street,"Bradford,Brockville",Dunedin
1824113,1050,Glen Esk Place,Remuera,Auckland
1823146,0772,Glenesk Road,Piha,
3078365,5011,Glen Evans Crescent,Fairfield,Lower Hutt
1774354,9584,Glenfalloch Road,"Lochindorb,Waiwera South,Warepa","Balclutha,Clinton"
1818809,1023,Glenfell Place,Epsom,Auckland
1815862,3581,Glenfern Drive,Wyuna Bay,Coromandel
3072409,0991,Glenfern Road,Great Barrier Island (Aotea Island),
3072408,2014,Glenfern Road,Mellons Bay,Auckland
1825256,1023,Glenferrie Place,Epsom,Auckland
3051673,9371,Glenfiddich Road,Jacks Point,Queenstown
3080758,7901,Glenfield Avenue,Twizel,
1783640,8052,Glenfield Crescent,Mairehau,Christchurch
1814683,3110,Glenfield Place,Brookfield,Tauranga
1818810,,Glenfield Road,"Bayview,Birkenhead,Glenfield,Hillcrest,Totara Vale",Auckland
1826966,2580,Glenfield Road,Karaka,Papakura
1810217,3010,Glenfield Road,Owhata,Rotorua
1772413,9014,Glenfinlass Street,Company Bay,Dunedin
1772410,9013,Glenfinnan Place,Andersons Bay,Dunedin
2005400,7618,Glenfinnan Place,West Melton,
1775651,9305,Glenfinnon Place,Wanaka,
1823147,0614,Glenfinn Place,Massey,Auckland
1823149,0610,Glenford Lane,Te Atatu Peninsula,Auckland
3037893,9383,Glenfoyle Road,"Lagoon Valley,Luggate","Lake Hawea,Wanaka"
3081094,8025,Glengael Drive,Halswell,Christchurch
1777361,7672,Glengarriff Drive,Lincoln,
1821495,0930,Glengarry Avenue,Manly,Whangaparaoa
3034113,9371,Glengarry Court,Jacks Point,Queenstown
1843015,9024,Glengarry Court,Mosgiel,
1778431,9810,Glengarry Crescent,Glengarry,Invercargill
1787104,7691,Glengarry Lane,Kaiapoi,
1829772,0174,Glengarry Lane,Tamaterau,Whangarei
1812390,3330,Glengarry Place,Hilltop,Taupo
1803043,4108,Glengarry Place,Wairoa,
1804771,4978,Glengarry Road,Dannevirke,
1818811,0602,Glengarry Road,Glen Eden,Auckland
3022400,4182,Glengarry Road,"Glengarry,Puketapu",Napier
3022398,7895,Glengarry Road,Shenandoah,Murchison
3050466,5024,Glengavel Grove,Papakowhai,Porirua
1832335,2112,Glengowan Place,Conifer Grove,Takanini
1816052,3210,Glengoyne Place,Rototuna,Hamilton
1779407,8062,Glengyle Place,Linwood,Christchurch
1772414,9013,Glengyle Street,Vauxhall,Dunedin
1788109,9305,Glengyle Way,Wanaka,
1777178,9891,Glenham School Road,Glenham,Wyndham
1784269,8042,Glenharrow Avenue,Avonhead,Christchurch
1823153,0610,Glenhaven Place,Te Atatu Peninsula,Auckland
1791574,7201,Glenhill Drive,Witherlea,Blenheim
1796153,3196,Glenholme Road,Nukuhou,
1772421,9010,Glenholm Street,Glenleith,Dunedin
1803347,4120,Glenhope Street,Mahora,Hastings
1834272,3287,Glen Ida Way,Tauwhare,Hamilton
3080209,7730,Gleniffer Place,Methven,
3079644,9024,Glenimrie Close,Mosgiel,
1800226,5010,Glen Iris Grove,Woburn,Lower Hutt
1808116,3611,Glen Isla Place,Waihi Beach,
1777174,9791,Glen Islay Road,Hokonui Hills,Dipton
1779498,,Gleniti Road,"Claremont,Gleniti,Hadlow",Timaru
3046394,9775,Glenkenich Road,"Crossans Corner,Maitland,Merino Downs,Te Kiteroa,Waikoikoi",Gore
1779739,7381,Glenkens Road,Cheviot,
1841294,8042,Glen Kerran Close,Broomfield,Christchurch
1812168,3420,Glenkill Street,Tokoroa,
1930676,2402,Glenkirk Crescent,Pokeno,
3027460,9777,Glenlapa Road,"Cattle Flat,Wendonside",Riversdale
1828989,2019,Glenlea Place,Flat Bush,Auckland
1774444,9292,Glenledi Road,"Akatore,Glenledi,Milton",Milton
1775349,9024,Glenleigh Place,Mosgiel,
1784170,8042,Glenleith Lane,Hei Hei,Christchurch
1799933,5032,Glen Loch Place,Paraparaumu,
1837733,3385,Glenlochy Rise,Acacia Bay,Taupo
1807210,3210,Glen Lynne Avenue,"Chedworth,Queenwood",Hamilton
1809149,3112,Glenlyon Avenue,Greerton,Tauranga
1781970,,Glen Lyon Road,"Ben Ohau,Hopkins Valley,Pukaki,Twizel","Pukaki,Twizel"
1831222,0602,Glenmall Place,Glen Eden,Auckland
1831255,0602,Glen Marine Parade,Glendene,Auckland
3080615,7571,Glenmark Drive,Darfield,
1779788,7483,Glenmark Drive,"Omihi,Waipara",Waipara
1842132,4414,Glenmary Close,Palmerston North,
1827613,2025,Glenmary Place,Papatoetoe,Auckland
1837127,3385,Glen Mohr,Acacia Bay,Taupo
1826598,0582,Glenmohr Road,Waipu,
1838650,3112,Glenmonarch Place,Pyes Pa,Tauranga
1784284,8051,Glenmore Avenue,Casebrook,Christchurch
1821499,0910,Glenmore Drive,Warkworth,
3085302,9305,Glenmore Lane,Wanaka,Wanaka
1821504,0793,Glenmore Road,Coatesville,
1828992,2010,Glenmore Road,"Farm Cove,Pakuranga,Pakuranga Heights,Sunnyhills",Auckland
1775567,9010,Glenmore Street,Glenleith,Dunedin
3071525,,Glenmore Street,"Kelburn,Northland,Thorndon",Wellington
1807212,3204,Glenmorgan Place,Dinsdale,Hamilton
1795599,5794,Glenmorven Road,Morison Bush,Greytown
3071340,3772,Glen Murray Road,"Glen Murray,Rangiriri","Onewhero,Te Kauwhata"
1828988,2012,Glennandrew Drive,Half Moon Bay,Auckland
1806138,3579,Glen Neaves,Pauanui,
1774435,9793,Glen Nevis Station Road,Kingston,
1828985,2103,Glennis Place,Clendon Park,Auckland
1955134,3204,Glennis Place,Frankton,Hamilton
1822984,0610,Glen Norman Avenue,Henderson,Auckland
1826595,0178,Glenn Road,Maungakaramea,
1841124,2123,Glennron Lane,Waiuku,
3013837,9494,Glenn Settlement Road,"Awamoko,Georgetown",Oamaru
1800851,4501,Glenn Street,Castlecliff,Whanganui
1809148,3110,Glenn Terrace,Otumoetai,Tauranga
1817386,4399,Glen Nui Road,Matemateaonga,Eltham
3031719,4279,Glenny Road,Tikokino,
1834129,7571,Glen Oak Drive,Kirwee,
1824119,1071,Glen Oaks,Saint Heliers,Auckland
1838600,8051,Glen Oaks Drive,Northwood,Christchurch
3019050,2014,Glenoaks Rise,Mellons Bay,Auckland
1803759,4178,Glenogle Road,Poukawa,
3067666,9271,Glenomaru Valley Road,"Ahuriri Flat,Glenomaru Valley",Kaka Point
1784166,8042,Glenora Place,Hornby,Christchurch
1797744,4991,Glenora Road,Akitio,Pongaroa
1830539,2112,Glenora Road,Takanini,Auckland
1818530,3110,Glenorchy Lane,Bethlehem,Tauranga
1771529,9372,Glenorchy-Paradise Road,"Glenorchy,Mount Aspiring National Park",
1813638,3200,Glenorchy Place,Nawton,Hamilton
1838652,3112,Glenorchy Place,Pyes Pa,Tauranga
3054615,,Glenorchy-Queenstown Road,"Ben Lomond,Closeburn,Fernhill,Glenorchy,Mount Creighton,Queenstown,Sunshine Bay","Glenorchy,Queenstown"
1771540,9372,Glenorchy-Routeburn Road,"Glenorchy,Kinloch",Glenorchy
1822790,0602,Glenorchy Street,Glen Eden,Auckland
3016005,9372,Glenorchy Water Front Reserve Road,Glenorchy,
1842721,5024,Glenorchy Way,Aotea,Porirua
1773489,9292,Glenore Cemetery Road,Glenore,Milton
1832670,2019,Glen Osborne Terrace,Flat Bush,Auckland
3012415,9011,Glenpark Avenue,"Balaclava,Maryhill,Mornington",Dunedin
3012416,4310,Glenpark Avenue,"Frankleigh Park,Westown",New Plymouth
1801292,3110,Glenpark Crescent,Bethlehem,Tauranga
1833083,2024,Glenpark Place,Favona,Auckland
1803525,4130,Glenpark Place,Havelock North,
1799539,4412,Glen Place,Awapuni,Palmerston North
1772809,9024,Glen Place,Mosgiel,
1784287,8083,Glen Place,Parklands,Christchurch
1792779,5019,Glenrae Grove,Silverstream,Upper Hutt
1789474,7096,Glenrae Road,Tapawera,Wakefield
1832540,0630,Glenreagh Place,Torbay,Auckland
1817731,7873,Glen Road,Barrytown,Greymouth
1822020,0630,Glen Road,Browns Bay,Auckland
1810962,3771,Glen Road,Glen Afton,Huntly
3050822,7071,Glen Road,"Glenduan,Wakapuaka",Nelson
1790188,7805,Glen Road,Greymouth,
1794941,6012,Glen Road,Kelburn,Wellington
1822976,0612,Glen Road,"Massey,Ranui",Auckland
3050817,9011,Glen Road,"Mornington,The Glen",Dunedin
1771046,9397,Glen Road,Ranfurly,
1796170,5032,Glen Road,Raumati South,Paraparaumu
1821815,0624,Glen Road,Stanley Point,Auckland
1793076,5019,Glen Road,Stokes Valley,Lower Hutt
1773484,9291,Glen Road,Table Hill,Milton
3014427,0372,Glenrob Road,"Mamaranui,Tangowahine",Dargaville
3079157,8042,Glen Rosa Lane,Broomfield,Christchurch
1818651,2103,Glenross Drive,Wattle Downs,Auckland
1803756,4179,Glenross Road,Waiwhare,Hastings
1772425,9011,Glenross Street,Glenross,Dunedin
1782592,8061,Glenrowan Avenue,Avondale,Christchurch
1813591,3110,Glenrowan Rise,Bethlehem,Tauranga
1811597,3472,Glenrowan Road,Matamata,
1790926,7201,Glenroy Crescent,Springlands,Blenheim
1778211,9810,Glenroy Park Drive,Waikiwi,Invercargill
1794672,3434,Glenroy Place,Cambridge,
1823140,0604,Glenroy Place,Green Bay,Auckland
1804428,3074,Glenroy Place,Tikitere,Rotorua
3065315,7077,Glenroy Road,Matakitaki,Murchison
1799942,4073,Glenroy Road,Whangara,
1782598,8062,Glenroy Street,Woolston,Christchurch
1804338,4274,Glenselwyn Road,Tikokino,
1812104,3411,Glenshea Street,Putaruru,
1828979,2010,Glenshee Place,Highland Park,Auckland
1773805,9771,Glenshee Road,"Waikaka Valley,Waikoikoi",Gore
3080529,9305,Glenshee Street,Wanaka,
1784276,8041,Glenside Avenue,Ilam,Christchurch
1828986,2010,Glenside Avenue,Pakuranga,Auckland
1824128,1010,Glenside Crescent,Eden Terrace,Auckland
1814005,3200,Glenside Rise,Grandview Heights,Hamilton
1794073,6037,Glenside Road,"Churton Park,Glenside",Wellington
1788746,7095,Glens Road,Golden Downs,Wakefield
1782622,8081,Glenstrae Road,Redcliffs,Christchurch
1798407,5510,Glen Street,Levin,
1781830,7910,Glen Street,Marchwiel,Timaru
1770237,9400,Glen Street,Oamaru,
1808714,3119,Glen Terrace,Te Puke,
1824864,1051,Glenties Lane,Ellerslie,Auckland
1785156,7495,Glentui Bennetts Road,Starvation Hill,Oxford
1784942,7495,Glentui Bush Road,Glentui,Oxford
1794074,6035,Glentui Grove,Khandallah,Wellington
1815667,3293,Glentui Lane,Whatawhata,Hamilton
1836694,7220,Glentui Place,Waikawa,Picton
1824927,1025,Glentui Road,Mount Albert,Auckland
1843371,7673,Glentunnel Domain Road,Glentunnel,
1949558,8051,Glenturret Drive,Casebrook,Christchurch
1817385,4322,Glentworth Street,Eltham,
3081414,6037,Glenugie Grove,Glenside,Wellington
1778188,9779,Glenure Hill Road,"Caroline,Glenure","Balfour,Dipton"
3020083,9776,Glenure Road,"Balfour,Glenure",Balfour
3069865,9779,Glenure Saint Patricks Road,"Glenure,St Patricks",Balfour
1778765,7630,Glenvale Drive,Kaiapoi,
3079013,3112,Glenvale Place,Pyes Pa,Tauranga
1831137,0629,Glenvale Place,Totara Vale,Auckland
1830240,2679,Glenvale Way,Glenbrook,
3016352,0630,Glenvar Close,Torbay,Auckland
3078417,0630,Glenvar Ridge Road,"Long Bay,Torbay",Auckland
1818812,0630,Glenvar Road,"Fairview Heights,Long Bay,Redvale,Torbay",Auckland
1825247,1041,Glenveagh Drive,Mount Roskill,Auckland
1830462,2103,Glenveagh Park Drive,"Manurewa,Weymouth",Auckland
1806139,3579,Glen Venus,Pauanui,
1807887,3900,Glen View Avenue,Otorohanga,
3085230,1071,Glenview Place,Glendowie,Auckland
1822796,0602,Glenview Road,Glen Eden,Auckland
3040226,7183,Glenview Road,"Motupipi,Takaka",Takaka
1807213,3206,Glenview Terrace,Glenview,Hamilton
1781832,7910,Glenview Terrace,Highfield,Timaru
1783921,8022,Glenview Terrace,Saint Martins,Christchurch
1823150,0610,Glenvil Lane,Te Atatu Peninsula,Auckland
3046564,6022,Glenville Road,Karaka Bays,Wellington
1822291,0629,Glen Vista Place,Bayview,Auckland
1841569,0510,Glen Wallace Road,Waipu,
1816055,3210,Glenwarrick Court,Rototuna,Hamilton
1776489,9810,Glen Way,Glengarry,Invercargill
1821753,0626,Glenwood Avenue,Birkenhead,Auckland
1781833,7910,Glenwood Avenue,Highfield,Timaru
1802999,7604,Glenwood Drive,Prebbleton,
3078061,3285,Glenwood Grove,Whatawhata,Hamilton
1794067,6037,Glenwood Grove,Woodridge,Wellington
1784164,8042,Glenys Place,Broomfield,Christchurch
1836716,2018,Glesan Place,Beachlands,Auckland
1783798,7471,Glews Road,"Cust,Starvation Hill","Cust,Oxford"
3078920,5024,Glide Lane,Whitby,Porirua
3078055,0616,Glidepath Road,Hobsonville,Auckland
1819179,0371,Glinks Road,Te Kopuru,
1798637,4510,Gloag Street,Waverley,
3004477,5022,Gloaming Hill,Titahi Bay,Porirua
3082011,5018,Gloaming Lane,Wallaceville,Upper Hutt
1828995,2112,Gloaming Place,Conifer Grove,Takanini
1784160,8042,Gloaming Place,Sockburn,Christchurch
1805687,8042,Globe Bay Drive,Templeton,Christchurch
1788061,7895,Globe Hill Road,Victoria Forest Park,Reefton
1823142,0610,Gloria Avenue,Te Atatu Peninsula,Auckland
1860956,2677,Glory Way,Buckland,Pukekohe
1779073,8011,Gloucester Arcade,Christchurch Central,Christchurch
1825460,1061,Gloucester Park Road,Onehunga,Auckland
1832337,2102,Gloucester Road,Manurewa,Auckland
3050000,3116,Gloucester Road,"Mount Maunganui,Papamoa Beach","Mount Maunganui,Papamoa"
1810218,3097,Gloucester Road,Ngongotaha,Rotorua
1772427,9013,Gloucester Street,Andersons Bay,Dunedin
3049735,,Gloucester Street,"Avonside,Christchurch Central,Linwood",Christchurch
1792165,5024,Gloucester Street,Cannons Creek,Porirua
1778432,9810,Gloucester Street,"Grasmere,Waikiwi",Invercargill
3049744,4112,Gloucester Street,"Greenmeadows,Taradale",Napier
1778318,9793,Gloucester Street,Kingston,
1788152,7010,Gloucester Street,"Nelson,Nelson South",Nelson
1817635,4520,Gloucester Street,Patea,
1792778,5019,Gloucester Street,Silverstream,Upper Hutt
1799545,4412,Gloucester Street,Takaro,Palmerston North
1801112,5510,Gloucester Street,"Waitarere,Waitarere Beach",Levin
1781834,7910,Gloucester Street,Watlington,Timaru
1801461,4500,Gloucester Street,Whanganui,
1794059,6012,Gloucester Street,Wilton,Wellington
1790927,7201,Glover Crescent,Blenheim,
1826163,0110,Glover Place,Onerahi,Whangarei
1789309,7011,Glover Place,Stoke,Nelson
1817426,,Glover Road,Hawera,
3059419,9874,Glover Road,"Isla Bank,Otahuti","Invercargill,Otautau"
1831461,1071,Glover Road,Saint Heliers,Auckland
1784159,8025,Glovers Road,Halswell,Christchurch
1806140,3506,Glover Street,Coromandel,
1815276,3432,Glover Street,Leamington,Cambridge
1794069,6035,Glover Street,Ngauranga,Wellington
1818546,0932,Glover Terrace,Red Beach,
1826162,0110,Gloyn Road,Onerahi,Whangarei
1823151,0618,Glucina Avenue,West Harbour,Auckland
1822794,0602,Glucina Place,Glen Eden,Auckland
3033482,8024,Glue Place,Somerfield,Christchurch
1792166,5022,Gluepot Lane,Elsdon,Porirua
1808372,3173,Glue Pot Road,Oropi,
3057487,7772,Gluyas Way,Newland,Ashburton
1836258,3210,Glyll Close,Flagstaff,Hamilton
1823148,0610,Glynnbrooke Street,Te Atatu South,Auckland
1782615,8024,Glynne Crescent,Spreydon,Christchurch
1831673,1041,Glynn Street,Mount Roskill,Auckland
1794185,7334,Glyn Wye Lane,Hanmer Springs,
1825251,1042,Goad Crescent,Hillsborough,Auckland
1800430,6021,Goa Street,Hataitai,Wellington
1792772,5372,Goat Hill Road,Craigs Flat,Upper Hutt
1830830,0484,Goat Hill Road,Waiharara,Awanui
1821500,0985,Goat Island Road,Leigh,
1805296,4110,Goat Lane,Napier South,Napier
3023136,0981,Goatley Road,"Dome Forest,Warkworth",Warkworth
1779391,7583,Goat Rock Road,"Le Bons Bay,Okains Bay",
1839229,2679,Goble Road,Clarks Beach,
1806881,3674,Goble Road,"Hikutaia,Komata",Paeroa
1788628,7095,Goblin Road,Golden Downs,Wakefield
1814633,3116,Gobray Crescent,Mount Maunganui,
1789699,7095,Godbaz Road,Golden Downs,Wakefield
1794070,6037,Goddard Grove,Churton Park,Wellington
1805162,4130,Goddard Lane,Havelock North,
1788737,7173,Goddard Road,Tasman,Upper Moutere
3079754,9023,Goddard Way,Sawyers Bay,Dunedin
1824078,1071,Godden Crescent,"Mission Bay,Orakei",Auckland
1944699,0931,Godfrey Drive,Orewa,
1786909,8041,Godfrey Place,Ilam,Christchurch
1824083,1071,Godfrey Place,Kohimarama,Auckland
1791243,7272,Godfrey Road,"Fairhall,Renwick",
1812866,3285,Godfrey Road,Te Pahu,
1820522,0483,Godinovich Road,Awanui,
3036437,8081,Godley Drive,Scarborough,Christchurch
1822285,0632,Godley Lane,Lucas Heights,Auckland
3040461,7999,Godley Peaks Road,"Lake Tekapo,Tekapo",Lake Tekapo
1781836,7910,Godley Place,Oceanview,Timaru
2006799,7610,Godley Place,Woodend,
1779476,8082,Godley Quay,Lyttelton,
1780372,7677,Godley Road,Burnham,
3023993,0604,Godley Road,"Green Bay,Titirangi",Auckland
1797612,4779,Godley Street,Halcombe,
1781672,7920,Godley Street,Temuka,
1781973,7901,Godley Street,Twizel,
3038360,,Godley Street,"Waiwhetu,Waterloo",Lower Hutt
1789435,7072,Godturkey Road,Atapo,St. Arnaud
1829747,0632,Godwin Court,Unsworth Heights,Auckland
1796856,4500,Godwin Crescent,College Estate,Whanganui
2018538,7614,Godwin Grove,Rolleston,
1837335,4815,Godwit Court,Foxton Beach,Foxton
3079745,3112,Godwit Lane,Welcome Bay,Tauranga
1825249,1042,Godwit Place,Lynfield,Auckland
1827544,2123,Godwit Place,Waiuku,
1782602,8062,Godwit Street,Southshore,Christchurch
1819472,0593,Goebel Street,Tinopai,
1830692,0204,Goffe Drive,Haruru,
3009433,9396,Goff Road,Ranfurly,
1814230,2105,Goh Place,Manurewa,Auckland
1842661,7674,Goh Street,Lincoln,
1815375,3290,Goile Road,Ngahinapouri,Ohaupo
1819666,0281,Going Road,Maromaku,Kawakawa
3003809,0185,Going Road,"Matarau,Ruatangata West",Whangarei
1776125,9773,Gold Creek Road,"Knapdale,Maitland",Gore
3085015,9382,Golden Age Close,Cardrona,Wanaka
1818469,2025,Golden Arches Place,Wiri,Auckland
3078314,2019,Golden Avenue,Flat Bush,Auckland
3018039,9483,Golden Bar Road,"Macraes,Stoneburn","Macraes Flat,Palmerston"
1777553,9818,Golden Bay Road,Halfmoon Bay / Oban,Stewart Island
1815841,3118,Golden Courie Close,Papamoa Beach,Papamoa
1806880,3682,Golden Cross Road,Waikino,Waihi
3079163,9300,Golden Elm Lane,Frankton,Queenstown
1784285,8041,Golden Elm Lane,Upper Riccarton,Christchurch
3084224,7010,Golden Elm Rise,Toi Toi,Nelson
3082200,0616,Golden Fall Road,Hobsonville,Auckland
1840749,0185,Golden Grove,Ruatangata West,Whangarei
1813660,3112,Golden Heights,Hairini,Tauranga
3080770,9393,Golden Heights Lane,Springvale,Alexandra
1806141,3579,Golden Hills Drive,Pauanui,
3020185,7081,Golden Hills Road,Appleby,Richmond
1842352,0632,Golden Morning Drive,Albany Heights,Auckland
1807215,3214,Golden Place,Fairfield,Hamilton
3065971,9483,Golden Point Road,Macraes,Macraes Flat
3084055,9382,Golden River Lane,Luggate,Wanaka
1771317,9393,Golden Road,"Springvale,Waikerikeri",Alexandra
1836575,3118,Golden Sands Drive,Papamoa Beach,Papamoa
1790113,7873,Golden Sands Road,Barrytown,Greymouth
1840148,3506,Golden Shore Place,Coromandel,
3046785,0589,Golden Stairs Road,"Mareretu,Maungaturoto,Taipuha","Maungaturoto,Paparoa"
1838523,9398,Golden Terrace,Patearoa,
1771537,9300,Golden Terrace,Queenstown,
1806879,3681,Golden Valley Road,Waihi,
1828981,2014,Golders Place,Howick,Auckland
1812496,3330,Golders Place,Richmond Heights,Taupo
1799899,4995,Golders Road,Eketahuna,
1792774,5018,Golders Road,Elderslea,Upper Hutt
1831136,0627,Goldfield,Wairau Valley,Auckland
1771535,9300,Goldfield Heights,Queenstown,
1806142,3592,Goldfields Drive,Matarangi,Whitianga
1813629,3674,Goldfields Road,Karangahake,
1806143,3581,Goldfields Road,Manaia,Coromandel
1813630,3674,Goldfields Road North,Karangahake,
3085163,9371,Goldfinch Drive,Jacks Point,Queenstown
3085536,0505,Goldfinch Lane,Mangawhai,Mangawhai
3085041,0984,Goldfinch Lane,Warkworth,Warkworth
1801327,3112,Goldfinch Place,Welcome Bay,Tauranga
1831135,0632,Goldfinch Rise,Unsworth Heights,Auckland
1796630,4625,Goldfinch Street,Ohakune,
1799068,4720,Goldfinch Street,Taihape,
1830519,0793,Goldflats Lane,Coatesville,
3080720,7400,Goldie Drive,Rangiora,
3084213,9305,Goldie Lane,Albert Town,Wanaka
1839305,7614,Goldie Place,Rolleston,
1798205,5036,Goldie Place,Waikanae Beach,Waikanae
1794061,6011,Goldies Brae,Thorndon,Wellington
1810219,3015,Goldie Street,Pukehangi,Rotorua
1824082,1071,Goldie Street,Saint Heliers,Auckland
1785994,7400,Golding Avenue,Rangiora,
1826968,2677,Golding Road,"Buckland,Pukekohe",Pukekohe
1804062,4112,Golding Road,Taradale,Napier
1792077,4787,Goldings Line,Marton,
3079822,3118,Gold Lane,Papamoa,
1774549,9300,Goldleaf Hill,Queenstown,
1842069,7608,Goldney Close,Lincoln,
1828980,2105,Goldnib Place,Randwick Park,Auckland
1838092,7805,Gold Nugget Road,Marsden,Greymouth
1842147,7700,Goldrich Grove,Netherby,Ashburton
3085515,9384,Goldrich Place,Cromwell,Cromwell
1774172,9300,Goldridge Way,Queenstown,
1842701,7614,Goldrush Lane,Rolleston,
1800395,9300,Goldrush Way,Queenstown,
1796172,5032,Goldsborough Avenue,Raumati Beach,Paraparaumu
1799830,4500,Goldsbury Place,Otamatea,Whanganui
1798408,5510,Goldsmith Crescent,Levin,
1782601,8023,Goldsmith Place,Waltham,Christchurch
3041393,4110,Goldsmith Road,"Ahuriri,Hospital Hill",Napier
1831454,1023,Goldsmith Road,Epsom,Auckland
1777175,9872,Goldsmith Road,Mabel Bush,Invercargill
1802148,4010,Goldsmith Street,Elgin,Gisborne
1802846,4193,Goldsmith Street,Frasertown,Wairoa
1812742,3432,Goldsmith Street,Leamington,Cambridge
1807216,3200,Goldsmith Street,Maeroa,Hamilton
1782198,7924,Goldsmith Street,Waimate,
1804059,4110,Goldsmith Terrace,Hospital Hill,Napier
3038016,7582,Gold Spur Road,"Duvauchelle,French Farm",
1830082,1023,Goldstine Place,Royal Oak,Auckland
1799463,9371,Goldston Court,Arrowtown,
1808373,3114,Goldstone Place,Omokoroa,
1833009,0632,Gold Street,Albany Heights,Auckland
1811749,4320,Gold Street,Waitara,
1808442,7805,Goldtown Road,Rutherglen,Greymouth
3079720,7672,Gold Valley Road,Gebbies Valley,Tai Tapu
3080279,0993,Goldwater Drive,Silverdale,
1825806,1062,Golf Avenue,Otahuhu,Auckland
1798960,4795,Golf Club Road,Taihape,
1806882,3392,Golf Club Road,Te Aroha,
3068883,4312,Golf Course Lane,Waiwhakaiho,New Plymouth
1840759,9300,Golf Course Loop Road,Kelvin Heights,Queenstown
1802827,4081,Golfcourse Road,Te Puia Springs,Tokomaru Bay
1819689,7893,Golf Course Road,Karamea,
1819470,0589,Golf Course Road,Maungaturoto,
1811781,,Golf Course Road,Morrinsville,
1803132,4691,Golf Course Road,Ohakune,
1777892,9679,Golf Course Road,Te Anau,
1771544,9305,Golf Course Road,Wanaka,
1774365,9230,Golfers Drive,"Balclutha,Stirling",
1807217,3200,Golf Grove,St Andrews,Hamilton
1830074,0179,Golf Harbour Drive,Maunu,Whangarei
1789858,7011,Golf Haven Way,Annesbrook,Nelson
1828987,2013,Golfland Drive,Golflands,Auckland
1780978,7700,Golf Links Drive,Allenton,Ashburton
3056748,9291,Golf Links Road,"Akatore,Milburn",Milton
1779790,7481,Golf Links Road,Amberley,
3056757,3191,Golf Links Road,"Awakeri,Coastlands",Whakatane
1787863,7892,Golf Links Road,"Buller Bay,Carters Beach",Westport
1788062,7871,Golf Links Road,Ikamatua,Reefton
1790114,7805,Golf Links Road,Kaiata,Greymouth
1785231,7473,Golf Links Road,Rangiora,
1788749,7883,Golf Links Road,Ruatapu,
1782617,8061,Golf Links Road,Shirley,Christchurch
1780670,7672,Golf Links Road,Tai Tapu,
1825577,1023,Golf Road,Epsom,Auckland
1809608,3079,Golf Road,Galatea,Murupara
1788741,7095,Golf Road,Golden Downs,Wakefield
1792775,5018,Golf Road,Heretaunga,Upper Hutt
1841601,2471,Golf Road,Mangatawhiri,
1792501,5019,Golf Road,Manor Park,Lower Hutt
1808820,3116,Golf Road,Mount Maunganui,
3047810,,Golf Road,"New Lynn,Titirangi",Auckland
1807889,3977,Golf Road,"Otorohanga,Waitomo","Otorohanga,Te Kuiti"
1796174,5032,Golf Road,Paraparaumu Beach,Paraparaumu
1788153,7011,Golf Road,Tahunanui,Nelson
1813207,3920,Golf Road,Taumarunui,
1815353,,Golf Road,Te Awamutu,
1788731,7025,Golf Road,Wakefield,
1831001,0985,Golf Road,Warkworth,
1806144,3591,Golf Road,Whitianga,
1812103,3411,Golf Street,Putaruru,
1791544,7272,Golf View Close,Fairhall,
1818460,0230,Golf View Road,"Kerikeri,Waipapa",
1833231,4501,Golf Vue Place,Castlecliff,Whanganui
3084366,2019,Golfwell Road,Flat Bush,Auckland
1818814,1072,Gollan Road,Mount Wellington,Auckland
1826599,0181,Gomez Road,Hikurangi,
3078952,4294,Gonda Lane,Ocean Beach,Waimarama
1796855,4501,Gonville Avenue,Gonville,Whanganui
1799999,5028,Gonville Street,Tawa,Wellington
1818564,2014,Gooch Place,Somerville,Auckland
1838467,7400,Goodall Lane,Rangiora,
1788730,7197,Goodall Place,Kaiteriteri,Motueka
1778947,8051,Goodall Place,Redwood,Christchurch
3053110,9792,Goodall Road,"Hamilton Burn,Mossburn",Mossburn
1788734,7198,Goodall Road,Riwaka,Motueka
1821509,0920,Goodall Road,Snells Beach,
1808375,3176,Goodall Road,Whakamarama,
1772417,9012,Goodall Street,Caversham,Dunedin
1807218,3204,Goodall Street,Dinsdale,Hamilton
1825248,1042,Goodall Street,Hillsborough,Auckland
1772811,9024,Goodall Street,Mosgiel,
1815013,3225,Goodare Road,Raglan,
1797258,4702,Goodbehere Street,Feilding,
3069747,7674,Goodericks Road,"Lincoln,Springston",
1805439,4977,Goodeve Road,Ormondville,
3078106,2019,Goodfellow Lane,Flat Bush,Auckland
1840523,3204,Goodfellow Place,Frankton,Hamilton
1811787,3393,Goodfellow Road,Waihou,Te Aroha
1812875,3800,Goodfellow Street,Te Awamutu,
1770951,9310,Goodger Court,Cromwell,
1771318,9383,Goodger Road,Lindis Pass,
1804541,4200,Goodger Street,Waipukurau,
1811185,3781,Goodin Road,Waerenga,Te Kauwhata
1838321,0792,Goodland Drive,Dairy Flat,
3080409,9400,Goodland Drive,Oamaru,
3001200,7614,Goodland Place,Rolleston,
1830081,1023,Goodland Street,Royal Oak,Auckland
1788724,7120,Goodman Drive,Motueka,
1825576,1061,Goodman Place,Penrose,Auckland
1790924,7201,Goodman Street,Blenheim,
1782590,8061,Goodman Street,Burwood,Christchurch
3083307,5773,Goodnight Lane,Ocean Beach,
1814055,3110,Goodrich Close,Bethlehem,Tauranga
1786112,7382,Goodshed Road,Cheviot,
1800156,5018,Goodshed Road,Maidstone,Upper Hutt
1817429,4610,Goodson Place,Hawera,
1817430,4675,Goodson Road,Hawera,
1809152,3110,Goods Road,Otumoetai,Tauranga
1815032,3284,Good Street,Matangi,Hamilton
1785327,7400,Good Street,Rangiora,
1780373,7500,Good Street,Sheffield,
1811641,3300,Goodwin Avenue,Morrinsville,
1825628,1081,Goodwin Avenue,"Oneroa,Oneroa Bay",Waiheke Island
1810220,3015,Goodwin Avenue,Springfield,Rotorua
2018597,3173,Goodwin Crescent,Pyes Pa,Tauranga
1827805,2113,Goodwin Drive,Rosehill,Papakura
1809606,3121,Goodwin Parade,Ohope,
1800155,5019,Goodwin Place,Pinehaven,Upper Hutt
1830540,2682,Goodwin Road,Aka Aka,Waiuku
1815124,3471,Goodwin Road,Gordon,Manawaru
1781523,7985,Goodwin Road,"Hilton,Temuka,Waitohi","Geraldine,Temuka"
3061026,4073,Goodwin Road,"Matokitoki,Waimata","Gisborne,Waimata"
1815354,3495,Goodwin Road,Ohaupo,
1817316,4381,Goodwin Road,Okato,
1820105,0473,Goodwin Road,Waimamaku,Kaikohe
1777172,9774,Goodwin Road,Waitane,Gore
1797614,4481,Goodwin Street,Bunnythorpe,Palmerston North
1826159,0110,Goodwin Street,Onerahi,Whangarei
1841947,7400,Goodwin Street,Rangiora,
1812011,3410,Goodwin Street,Tirau,
1775606,9073,Goodwin Street,Waihola,Milton
1811470,3218,Goodwin Terrace,Temple View,Hamilton
1853328,7608,Goodwood Avenue,Lincoln,
1785639,7400,Goodwood Close,Rangiora,
1828984,2105,Goodwood Drive,Goodwood Heights,Auckland
1770375,,Goodwood Road,"Bushey,Goodwood,Palmerston",Palmerston
1774635,9481,Goodwood Settlement Road,Goodwood,Palmerston
1799541,4410,Goodwyn Crescent,Hokowhitu,Palmerston North
3085361,7678,Google Place,Rolleston,Rolleston
1806145,3579,Gooseberry Grove,Pauanui,
1779603,7395,Gooseberry Gully Road,Hanmer Forest,Hanmer Springs
1773436,9272,Goose Neck Road,Awamangu,Balclutha
1838516,2016,Gordal Place,Flat Bush,Auckland
1813866,3129,Gordet Drive,Katikati,
3083093,1041,Gordon Alexander Lane,Mount Roskill,Auckland
3014609,0620,Gordon Avenue,Milford,Auckland
1782613,8014,Gordon Avenue,St Albans,Christchurch
1805864,,Gordon Avenue,Te Aroha,
3079999,0593,Gordon Coates Avenue,Matakohe,
1821508,0920,Gordon Craig Place,Algies Bay,
1792076,4710,Gordon Crescent,Marton,
1834038,3210,Gordon Davies Lane,Huntington,Hamilton
3078049,2578,Gordon Francis Drive,"Paerata,Ramarama","Drury,Pukekohe"
1787147,7630,Gordon Lane,Kaiapoi,
1832062,2121,Gordon Paul Place,Tuakau,
1812744,3432,Gordon Place,Leamington,Cambridge
1798406,5510,Gordon Place,Levin,
1794075,6021,Gordon Place,Newtown,Wellington
1803346,4120,Gordon Road,"Camberley,Raureka",Hastings
1773485,9272,Gordon Road,Hillend,Balclutha
3069721,4392,Gordon Road,"Huiroa,Toko",Stratford
1810887,3700,Gordon Road,Huntly,
1776107,9772,Gordon Road,Kaiwera,Gore
1776755,9793,Gordon Road,Kingston,
3069723,9571,Gordon Road,Knobby Range,Roxburgh
1831611,1025,Gordon Road,Morningside,Auckland
3069715,,Gordon Road,"Mosgiel,North Taieri",Mosgiel
1814634,3116,Gordon Road,Mount Maunganui,
1825804,1062,Gordon Road,Otahuhu,Auckland
1832425,2025,Gordon Road,Papatoetoe,Auckland
1800043,5026,Gordon Road,Plimmerton,Porirua
1826967,2683,Gordon Road,Pollok,
1819671,0272,Gordon Road,Russell,
1814866,3015,Gordon Road,"Selwyn Heights,Western Heights",Rotorua
1803754,4102,Gordon Road,Te Awanga,
1830607,0391,Gordon Road,Te Kopuru,
1799940,4078,Gordon Road,Waingake,Manutuke
1770012,9305,Gordon Road,Wanaka,
1804767,4970,Gordon Road,Weber,
1789698,7095,Gordons Road,Golden Downs,Wakefield
1780979,7772,Gordons Road,Netherby,Ashburton
1825619,1971,Gordons Road,Waiheke Island,
1833981,0614,Gordon Stanley Drive,Massey,Auckland
1793080,5011,Gordon Street,Avalon,Lower Hutt
1775194,9230,Gordon Street,Balclutha,
1804768,4930,Gordon Street,Dannevirke,
1819073,0310,Gordon Street,Dargaville,
1775000,9016,Gordon Street,Dunedin Central,Dunedin
1787209,7925,Gordon Street,Fairlie,
1803755,4175,Gordon Street,Fernhill,Napier
1816692,4312,Gordon Street,Glen Avon,New Plymouth
1807219,3216,Gordon Street,Hillcrest,Hamilton
1805242,4112,Gordon Street,Jervoistown,Napier
1809818,3127,Gordon Street,Kawerau,
1770738,9435,Gordon Street,Kurow,
1795059,5810,Gordon Street,Lansdowne,Masterton
1802144,4010,Gordon Street,Mangapapa,Gisborne
1773103,9483,Gordon Street,Nenthorn,Macraes Flat
1794065,6021,Gordon Street,Newtown,Wellington
3070317,7872,Gordon Street,Ngahere,
1797952,4910,Gordon Street,Pahiatua,
1790319,7803,Gordon Street,Runanga,
1785814,7602,Gordon Street,Southbridge,
1776490,9812,Gordon Street,Strathern,Invercargill
1808713,3119,Gordon Street,Te Puke,
1774708,9401,Gordon Street,Weston,Oamaru
1804886,4920,Gordon Street,Woodville,
1782199,7972,Gordons Valley Road,Maungati,Southburn
1775943,9710,Gordon Terrace,East Gore,Gore
1798963,4730,Gordon Terrace,Hunterville,
1811503,3400,Gordon Terrace,Matamata,
3066100,,Gordonton Road,"Chartwell,Gordonton,Puketaha,Taupiri","Hamilton,Taupiri"
3021021,0974,Gordon Way,"Te Arai,Wellsford",Wellsford
1779741,7383,Gore Bay Road,"Cheviot,Gore Bay",Cheviot
1797364,4777,Gore Browne Street,Kiwitea,Feilding
3053533,9772,Gore Mataura Highway,"Charlton,Gore,Mataura","Gore,Mataura"
1774998,9016,Gore Place,North Dunedin,Dunedin
1811598,3484,Gore Road,Okoroire,Tirau
1824090,1010,Gore Street,Auckland Central,Auckland
3051395,9814,Gore Street,Bluff,
1784161,8025,Gore Street,Halswell,Christchurch
1817428,4614,Gore Street,Normanby,Hawera
1794071,6022,Gore Street,Seatoun,Wellington
1802739,4077,Gore Street,Tolaga Bay,
1824075,1010,Gore Street Lane,Auckland Central,Auckland
1785601,7984,Gorge Road,Albury,
3004939,9371,Gorge Road,"Arthurs Point,Queenstown",Queenstown
1794475,4983,Gorge Road,"Ballance,Woodville","Pahiatua,Woodville"
1774035,9587,Gorge Road,"Blue Mountains,Crookston",Tapanui
3004936,9584,Gorge Road,Clinton,
3004940,9397,Gorge Road,"Kokonga,Tiroiti",Kyeburn
1830661,,Gorge Road,"Maungaturoto,Waipu",
1777896,9689,Gorge Road,Ohai,
1797363,4774,Gorge Road,Rangiwahia,Kimbolton
3004946,4794,Gorge Road,"Taihape,Taoroa Junction",Taihape
1788732,7096,Gorge Road,Tapawera,Wakefield
3004941,7924,Gorge Road,Waimate,
1809613,3120,Gorge Road,Whakatane,
3000431,,Gorge Road Invercargill Highway,"Ashers,Awarua Wetlands,Gorge Road,Kapuka,Mokotua,Motu Rimu,Tisbury,Waimatua",Invercargill
1824926,1025,Goring Road,Sandringham,Auckland
1796186,3122,Goring Street,Opotiki,
1794055,6011,Goring Street,Thorndon,Wellington
1774336,9230,Gormack Street,Balclutha,
1786563,9498,Gormans Road,Cattle Creek,Hakataramea Valley
3033687,9014,Gorman Street,Macandrew Bay,Dunedin
1796858,4501,Gorran Avenue,Gonville,Whanganui
1825252,1023,Gorrie Avenue,Epsom,Auckland
3005157,5371,Gorrie Road,"Mangaroa,Whitemans Valley",Upper Hutt
1831840,0112,Gorrie Road,Regent,Whangarei
3027236,7472,Gorries Road,"Ashley,Loburn","Loburn,Rangiora"
1788154,7010,Gorrie Street,Nelson South,Nelson
1805751,4274,Gorse Ridge Road,Tikokino,
1812877,3800,Gorst Avenue,Te Awamutu,
1830417,1010,Gorst Lane,Auckland Central,Auckland
1833226,2013,Gortin Close,East Tamaki,Auckland
1840848,2019,Gortnest Place,Flat Bush,Auckland
1812841,3494,Gorton Road,Karapiro,Cambridge
1787095,7495,Gortons Road,View Hill,Oxford
1798962,4818,Gorton Street,Bulls,
1775945,9710,Gorton Street,Gore,
1795058,5810,Gort Place,Lansdowne,Masterton
1828994,2010,Gosford Drive,Botany Downs,Auckland
1815656,3110,Gosford Way,Bethlehem,Tauranga
3079861,8025,Gosforth Way,"Cracroft,Westmorland",Christchurch
1820520,0494,Goshen Valley Road,Mangonui,
1842343,8025,Gosling Crescent,Halswell,Christchurch
1800724,3334,Gosling Grove,Turangi,
3038228,2019,Gospel Heights,Flat Bush,Auckland
3078386,2112,Gosper Road,"Conifer Grove,Takanini","Auckland,Takanini"
1825461,1061,Gosport Place,Onehunga,Auckland
1786637,8061,Gosport Street,Aranui,Christchurch
1773102,9597,Gosport Street,Sutton,Middlemarch
1818815,2010,Gossamer Drive,Pakuranga Heights,Auckland
3079733,3210,Gosset Avenue,Chartwell,Hamilton
1782606,8014,Gosset Street,St Albans,Christchurch
3083232,7612,Gossett Lane,Pegasus,
1841748,7025,Gossey Drive North,Wakefield,
1841747,7095,Gossey Drive South,Wakefield,
1818107,4335,Gossling Street,Okato,
3017112,2583,Goss Track,Hunua,
1789575,7825,Gothard Place,Westport,
1784267,8041,Gothic Place,Ilam,Christchurch
1825255,1042,Gothic Place,Lynfield,Auckland
1794064,6037,Gothic Street,Johnsonville,Wellington
1773765,9271,Gott Road,Romahapa,Balclutha
3056231,0875,Goudie Road,"Helensville,Muriwai",
1810221,3079,Goudies Road,"Kaingaroa Forest,Reporoa","Murupara,Reporoa"
3047419,7771,Goughs Crossing Road,Ashburton Forks,Ashburton
1779390,7583,Goughs Road,Goughs Bay,Akaroa
1800218,5010,Gough Street,Seaview,Lower Hutt
1811504,3400,Gouk Street,Matamata,
1791241,7202,Gouland Road,Spring Creek,
1782604,8023,Gould Crescent,Woolston,Christchurch
1784165,8042,Goulding Avenue,Hornby,Christchurch
1770745,9494,Goulding Road,Georgetown,Oamaru
1810222,3074,Goulding Road,Okere Falls,Rotorua
1781556,7982,Gould Road,"Hazelburn,Totara Valley",Pleasant Point
1805949,3392,Gould Road,"Te Aroha,Waihou",Te Aroha
1786486,7910,Goulds Road,Marchwiel,Timaru
3056853,,Goulds Road,"Rolleston,Springston",
1819669,0202,Gould Street,Russell,
1814759,3120,Goulstone Road,Whakatane,
1791512,7275,Goulter Road,North Bank,Wairau Valley
1803758,4172,Goulter Street,Clive,
1791622,7210,Goulter Street,Seddon,
1777173,9884,Gourley Road,Progress Valley,Tokanui
1770154,9012,Gourley Street,Saint Kilda,Dunedin
1933731,7096,Gourmet Road,Thorpe,Motueka
1775747,9600,Govan Drive,Te Anau,
1771316,9393,Govan Road,Galloway,Alexandra
1831003,0985,Govan Wilson Road,Whangaripo,Wellsford
1798958,4788,Govenlock Road,Turakina,Marton
3030309,9495,Government Hill Road,Herbert,
1811026,3225,Government Road,Raglan,
1837605,1010,Governor Fitzroy Place,Auckland Central,Auckland
1830479,0920,Governor Grey Road,Snells Beach,
1815961,3610,Governor Grove,Waihi,
1794058,6012,Governor Road,Northland,Wellington
3028857,,Governors Bay Road,"Cass Bay,Governors Bay,Te Rapaki-o-Te Rakiwhakaputa","Governors Bay,Lyttelton"
3015207,8971,Governors Bay Teddington Road,"Allandale,Teddington",Governors Bay
3063900,5794,Governors Green Drive,"Greytown,Woodside",Greytown
1815702,3620,Governors Heights,Whangamata,
1841684,0230,Governors Lane,Kerikeri,
1816690,4310,Gover Street,New Plymouth,
1809285,4310,Govett Avenue,Frankleigh Park,New Plymouth
1794062,6035,Govind Grove,Ngaio,Wellington
3080532,9305,Gowanbrae Lane,Wanaka,
1775472,9013,Gowan Close,Shiel Hill,Dunedin
1788733,7077,Gowan East Bank Road,Gowanbridge,St. Arnaud
3072240,9689,Gowan Hill Road,"Beaumont,Gowan Hill",Otautau
3054354,9689,Gowan Hill Road East,Gowan Hill,Otautau
3029482,7077,Gowan Valley Road,"Gowanbridge,Kahurangi National Park,Nelson Lakes National Park,Rotoroa","Kahurangi National Park,Nelson Lakes National Park,St. Arnaud"
1803760,4102,Gow Avenue,Haumoana,
1816277,3991,Gower Road,Aukopae,Taumarunui
1779738,7381,Gower Road,Spotswood,Cheviot
1811187,3792,Gower Road,Taupiri,
1798956,4788,Gowers Road,Turakina,Marton
1792776,5019,Gower Street,Silverstream,Upper Hutt
1782605,8013,Gowerton Place,Richmond,Christchurch
1818816,1072,Gowing Drive,"Meadowbank,Saint Johns",Auckland
3018828,9016,Gowland Street,North Dunedin,Dunedin
3021192,8062,Gow Place,"Bromley,Woolston",Christchurch
1794057,6021,Gowrie Street,Brooklyn,Wellington
1809605,3193,Gow Road,"Edgecumbe,Matata",
3041560,3197,Gow Road,Tirohanga,Opotiki
1772293,9010,Gowry Place,Kaikorai,Dunedin
3081766,7872,Gows Creek Road,Hochstetter,Moana
3044294,7883,Gows Creek Road,Totara River,Ross
1820688,0800,Gow Street,Helensville,
1775080,9024,Gow Street,Mosgiel,
1794060,6037,Gow Street,Newlands,Wellington
1790539,7812,Gow Street,Ross,
1804537,4200,Gow Street,Waipukurau,
1778055,9720,Gow Street,Winton,
2013070,2010,Goyal Lane,Pakuranga,Auckland
1784277,8051,Goya Place,Bishopdale,Christchurch
1789398,7072,Gps Road,Glenhope,St. Arnaud
1838293,3118,Grabella Place,Papamoa Beach,Papamoa
1813853,3116,Grable Court,Mount Maunganui,
1817382,4679,Grace Avenue,Kaponga,Hawera
1838376,3432,Grace Avenue,Leamington,Cambridge
1808821,3116,Grace Avenue,Mount Maunganui,
1815814,3210,Grace Avenue,Rototuna North,Hamilton
1811898,3320,Grace Avenue,Te Aroha,
1798198,5036,Grace Avenue,Waikanae,
1828993,2016,Gracechurch Drive,Flat Bush,Auckland
1839165,8025,Grace Close,Aidanfield,Christchurch
1841997,5024,Grace Cove,Aotea,Porirua
1815230,3330,Grace Crescent,Richmond Heights,Taupo
1812182,3420,Grace Crescent,Tokoroa,
1786636,8013,Gracefield Avenue,Christchurch Central,Christchurch
3079191,9371,Gracefield Lane,Frankton,Queenstown
1816214,3210,Gracefield Place,Huntington,Hamilton
1793046,5010,Gracefield Road,"Gracefield,Seaview,Waiwhetu",Lower Hutt
1788156,7011,Gracefield Street,Wakatu,Nelson
1841200,0792,Grace Hill Drive,Dairy Flat,
1805073,7730,Grace Ireland Drive,Methven,
1837231,2120,Grace James Road,Pukekohe,
1793182,9024,Gracemount Place,Kinmont Park,Mosgiel
1801759,5018,Grace Nicholls Grove,Riverstone Terraces,Upper Hutt
1777181,9871,Grace Road,Longbush,Invercargill
1802867,4082,Grace Road,Ruatoria,
1809607,3191,Grace Road,Taneatua,
1809155,3112,Grace Road,Tauranga South,Tauranga
1795890,,Grace Road,Turangi,
3052760,9371,Graces Terrace,"Lower Shotover,Queenstown Hill",Queenstown
3052633,9812,Grace Street,"Appleby,Strathern",Invercargill
1809612,3194,Grace Street,Matata,
3052635,7011,Grace Street,"Monaco,Waimea Inlet",Nelson
1824089,1071,Grace Street,Orakei,Auckland
1797528,4817,Grace Street,Sanson,
1782126,7924,Grace Street,Waimate,
1841496,4817,Grace Street North,Sanson,
1787464,7476,Grace Track,Eyrewell,West Eyreton
1833208,0618,Graceview Way,West Harbour,Auckland
3077459,1071,Graceville Lane,Saint Heliers,Auckland
1822133,7614,Grace Way,Rolleston,
3080243,9305,Grace Wright Drive,Wanaka,
3078974,7615,Gracia Avenue,Rolleston,
1814505,3900,Gradara Avenue,Otorohanga,
1812493,3330,Gradwell Place,Two Mile Bay,Taupo
1790921,7201,Grady Street,Mayfield,Blenheim
1832336,2024,Graeme Avenue,Mangere East,Auckland
3082303,8042,Graeme Cooper Lane,Avonhead,Christchurch
3081801,7571,Graeme Foote Street,Darfield,
3084665,9382,Grafters Crescent,Wanaka,Wanaka
1829759,1010,Grafton Bridge,Grafton,Auckland
3019621,1010,Grafton Road,"Auckland Central,Grafton",Auckland
3019618,6011,Grafton Road,Roseneath,Wellington
1802145,4010,Grafton Road,Te Hapara,Gisborne
1806146,3500,Grafton Road,Thames,
1782616,8011,Grafton Street,Waltham,Christchurch
1824085,1010,Grafton Terrace,Grafton,Auckland
1823145,0610,Graham Avenue,Te Atatu Peninsula,Auckland
1825201,1041,Graham Bell Avenue,Mount Roskill,Auckland
1832727,0632,Graham Collins Drive,"Pinehill,Windsor Park",Auckland
1789700,7072,Graham Creek Road,Atapo,St. Arnaud
1818513,1042,Grahame Breed Drive,Three Kings,Auckland
3006248,0624,Grahame Street,Devonport,Auckland
1798204,5036,Graham Grove,Waikanae,
1840192,3782,Graham McRae Place,Whangamarino,Te Kauwhata
1809156,3110,Graham Place,Bellevue,Tauranga
3060093,7886,Graham Place,Franz Josef/Waiau,
1810886,3700,Graham Place,Huntly,
1835796,3300,Graham Place,Morrinsville,
3060094,4410,Graham Place,West End,Palmerston North
1832333,2112,Graham Road,"Conifer Grove,Takanini","Auckland,Takanini"
3072935,4972,Graham Road,"Dannevirke,Maharahara",Dannevirke
1811184,3281,Graham Road,Gordonton,Hamilton
1802143,4010,Graham Road,Inner Kaiti,Gisborne
1781544,7982,Graham Road,Kakahu,Geraldine
1810223,3010,Graham Road,Lynmore,Rotorua
1826593,0178,Graham Road,Mangapai,Whangarei
1831955,2675,Graham Road,Mangatawhiri,
1771045,9398,Graham Road,Patearoa,
1833396,0473,Graham Road,Taheke,Kaikohe
1802446,4094,Graham Road,Te Karaka,
1777186,9875,Graham Road,Tokanui,
1826883,2684,Grahams Beach Road,Manukau Heads,Awhitu
3078066,4312,Grahams Lane,Bell Block,New Plymouth
3005429,,Grahams Road,"Ashton,Eiffelton,Huntingdon,Tinwald,Willowby",Ashburton
3005431,,Grahams Road,"Avonhead,Bishopdale,Burnside,Ilam",Christchurch
1791244,7272,Grahams Road,Fairhall,
1780175,7682,Grahams Road,Leeston,
1795193,5886,Grahams Road,Whangaehu Valley,Masterton
1824087,1010,Graham Street,Auckland Central,Auckland
1790920,7201,Graham Street,Blenheim,
1774975,9016,Graham Street,Dunedin Central,Dunedin
1817384,4322,Graham Street,Eltham,
1807222,3216,Graham Street,Hamilton East,Hamilton
3037336,0112,Graham Street,"Kensington,Regent",Whangarei
1798409,5510,Graham Street,Levin,
1772810,9024,Graham Street,Mosgiel,
3037335,0118,Graham Street,One Tree Point,Whangarei
1793343,5012,Graham Street,Petone,Lower Hutt
1804538,4293,Graham Street,Porangahau,
1821494,0973,Graham Street,Port Albert,Wellsford
1788157,7010,Graham Street,Port Nelson,Nelson
1827395,2120,Graham Street,Pukekohe,
1798197,4821,Graham Street,Shannon,
1819224,0391,Graham Street,Te Kopuru,
1806147,3500,Graham Street,Thames,
1787575,7700,Graham Street,Tinwald,Ashburton
1782201,7924,Graham Street,Waimate,
1806148,3620,Graham Street,Whangamata,
1832114,2113,Graham Tagg Close,Pahurehure,Papakura
1826597,0174,Grahamtown Road,Onerahi,Whangarei
1788743,7196,Graham Valley North Branch Road,Motueka Valley,Motueka
1788742,7196,Graham Valley Road,Motueka Valley,Motueka
3042743,7196,Graham Valley South Branch Road,"Kahurangi National Park,Motueka Valley","Kahurangi National Park,Motueka"
3083563,9371,Grain Close,Jacks Point,Queenstown
1823139,0610,Grainger Road,Te Atatu South,Auckland
3062813,9073,Grainger Road,Woodside,Outram
3085495,2113,Grain Road,Opaheke,Papakura
1828982,2010,Grammar School Road,Pakuranga,Auckland
1797365,4777,Grammar Street,Kimbolton,
1808371,3177,Grammer Road,Tahawai,
3079852,7010,Grampian Oaks Lane,Nelson South,Nelson
1824084,1071,Grampian Road,Saint Heliers,Auckland
1784286,8051,Grampian Street,Casebrook,Christchurch
1813664,3420,Grampian Street,Tokoroa,
1838022,0582,Granada Lane,Langs Beach,Waipu
1824080,1071,Granada Place,Glendowie,Auckland
1816689,4310,Granby Place,Westown,New Plymouth
3008779,1051,Grand Drive,"One Tree Hill,Onehunga",Auckland
1832946,0931,Grand Drive,"Orewa,Wainui",
1830541,1050,Grand Drive,"Remuera,Saint Johns",Auckland
1824934,1025,Grande Avenue,Mount Albert,Auckland
1988969,5014,Grande Place,Wainuiomata,Lower Hutt
1803048,5570,Grande View Terrace,Ohau,
1828990,2102,Grande Vue Road,"Hillpark,Manurewa",Auckland
1829456,2025,Grande Vue Road,Papatoetoe,Auckland
3083792,0179,Grand Hills Lane,Maunu,Whangarei
1786487,7910,Grandi Avenue,Highfield,Timaru
3078651,2110,Grandifolia Road,Takanini,Auckland
1822924,0600,Grandison Crescent,New Lynn,Auckland
1836822,4412,Grand Oaks Drive,Awapuni,Palmerston North
1799748,5036,Grand Poppa Way,Otaihanga,Paraparaumu
3080943,2019,Grand Ridge Avenue,Flat Bush,Auckland
3017859,1010,Grandstand Road North,Parnell,Auckland
3072981,1010,Grandstand Road South,"Newmarket,Parnell",Auckland
1801113,4821,Grand Street,Shannon,
3081220,9371,Grand Terrace Square,Arrowtown,
1772298,9010,Grandview Crescent,Opoho,Dunedin
3083840,3385,Grandview Lane,Acacia Bay,Taupo
3041837,3200,Grandview Road,"Grandview Heights,Nawton,Western Heights",Hamilton
3041836,9382,Grandview Road,Lake Hawea,
1831002,0932,Grandview Road,Stanmore Bay,Whangaparaoa
1821502,0985,Grand View Road,Leigh,
1831457,1050,Grand View Road,Remuera,Auckland
1826161,0112,Grand View Road,Te Kamo,Whangarei
1777897,9881,Grandview Terrace,Orepuki,Riverton/Aparima
1770039,9383,Grandview Track,"Lake Hawea,Lindis Pass",
1841148,9018,Grandvista Drive,Green Island,Dunedin
1836632,3377,Grand Vista Lane,Kinloch,Taupo
1805939,7901,Grandvue Drive,Twizel,
1814867,3010,Grand Vue Road,Kawaha Point,Rotorua
1826160,0112,Granfield Place,Te Kamo,Whangarei
1807224,3200,Grange Avenue,Nawton,Hamilton
1778946,7910,Grange Close,Marchwiel,Timaru
3065345,9483,Grange Hill Road,"Inch Valley,Makareao,Stoneburn",Palmerston
1841570,4282,Grange Lane,Waipu,
1796171,5032,Grange Park Avenue,Raumati South,Paraparaumu
1799543,4414,Grange Place,Milson,Palmerston North
1804540,4282,Granger Lane,Waipukurau,
3055595,7677,Grange Road,"Burnham,Charing Cross","Burnham,Darfield"
3055593,9775,Grange Road,"Crossans Corner,Waikoikoi",Gore
1814209,3591,Grange Road,Hahei,Whitianga
1791389,7371,Grange Road,Hapuku,Kaikoura
1825111,1024,Grange Road,Mount Eden,Auckland
1782202,7971,Grange Road,Otaio,Saint Andrews
1809151,3110,Grange Road,Otumoetai,Tauranga
3055598,2025,Grange Road,Papatoetoe,Auckland
1776698,9877,Grange Road,Woodend,Invercargill
1803684,4102,Grange Road North,Haumoana,
1803685,4102,Grange Road South,Haumoana,
3054142,9884,Granger Road,"Catlins Conservation Park,Waikawa Valley","Catlins Conservation Park,Tokanui"
1828001,2014,Granger Road,Cockle Bay,Auckland
1779216,7920,Grange Settlement Road,Temuka,
3033167,9016,Grange Street,"Dunedin Central,North Dunedin",Dunedin
1777185,9825,Grange Street,Edendale,
1782619,8022,Grange Street,Hillsborough,Christchurch
1821492,0982,Grange Street,Warkworth,
1778720,9720,Grange Street,Winton,
1785328,7610,Grange View,Woodend,
1833365,2024,Grangewood Close,Favona,Auckland
1838235,7608,Grangewood Drive,Lincoln,
1778384,8053,Grangewood Lane,Burnside,Christchurch
1787858,7893,Granite Creek Road,Karamea,
1842548,7614,Granite Drive,Rolleston,
1828996,2104,Granite Place,Wiri,Auckland
1789364,7096,Granite Road,Tapawera,Wakefield
3085144,9305,Granite Terrace,Albert Town,Wanaka
1777895,9883,Granity Road,Pourakino Valley,Riverton/Aparima
1802588,4010,Granny Tarr Street,Makaraka,Gisborne
1833319,2013,Gransna Lane,East Tamaki,Auckland
1832334,2023,Grant Avenue,Otara,Auckland
3029214,7282,Grant Bay,"Grant Bay,Manaroa",Marlborough Sounds
1795113,5810,Grant Crescent,Masterton,
1770155,9092,Grant Dalton Street,Mosgiel,
1813642,3112,Grantham Close,Gate Pa,Tauranga
1799685,5032,Grantham Court,Paraparaumu Beach,Paraparaumu
1779351,7334,Grantham Drive,Hanmer Springs,
1813838,3281,Grantham Lane,Gordonton,Hamilton
1831455,1071,Grantham Road,Glendowie,Auckland
1829458,2025,Grantham Road,Papatoetoe,Auckland
1791240,7202,Grantham Street,Grovetown,Blenheim
1807225,3204,Grantham Street,Hamilton Central,Hamilton
1781766,7910,Grantlea Drive,Marchwiel,Timaru
1815440,3112,Grantleigh Way,Pyes Pa,Tauranga
3000501,8083,Grantley Street,"New Brighton,North New Brighton",Christchurch
1779161,8024,Granton Lane,Spreydon,Christchurch
1812183,3420,Granton Place,Tokoroa,
3049350,9073,Granton Road,"Momona,Outram,Woodside","Mosgiel,Outram"
1801322,4412,Grant Place,Awapuni,Palmerston North
1805297,4112,Grant Place,Greenmeadows,Napier
1815590,3400,Grant Place,Matamata,
1809357,3118,Grant Place,Papamoa Beach,Papamoa
1785782,7400,Grant Place,Rangiora,
1790925,7201,Grant Place,Witherlea,Blenheim
1829844,0994,Grant Ridge Road,Puhoi,Warkworth
1771542,9300,Grant Road,Frankton,Queenstown
1814760,3079,Grant Road,Galatea,Murupara
1770743,9410,Grant Road,"Hampden,Hillgrove","Hampden,Moeraki"
1817493,4672,Grant Road,Hawera,
1775388,9492,Grant Road,Incholme,Oamaru
1838947,3385,Grant Road,Kinloch,Taupo
1796187,3122,Grant Road,Opotiki,
1770290,9879,Grant Road,Otatara,Invercargill
1800428,6011,Grant Road,"Thorndon,Wadestown",Wellington
1831910,0582,Grant Road,Waipu,
1802071,4010,Grant Road,Whataupoko,Gisborne
1788478,7182,Grant Road Puramahoi,Puramahoi,Takaka
1838734,0202,Grants Avenue,Russell,
1775503,9491,Grants Road,Island Cliff,Oamaru
3040337,7910,Grants Road,"Marchwiel,Waimataitai",Timaru
1770744,9494,Grants Road,Otiake,Duntroon
1779217,,Grants Road,Papanui,Christchurch
1814071,3112,Grantston Drive,Pyes Pa,Tauranga
1805446,4930,Grant Street,Dannevirke,
1774977,9016,Grant Street,Dunedin Central,Dunedin
1774707,9494,Grant Street,Duntroon,
1775942,9710,Grant Street,Gore,
1803500,4130,Grant Street,Havelock North,
1821501,0982,Grant Street,Mahurangi East,Warkworth
1818818,1025,Grant Street,Mount Albert,Auckland
1773107,9483,Grant Street,Nenthorn,Macraes Flat
1826164,0112,Grant Street,Te Kamo,Whangarei
1787235,7920,Grant Street,Temuka,
1805060,4108,Grant Street,Wairoa,
3019114,9085,Grant Street,Waitati,
1804885,4920,Grant Street,Woodville,
1817491,4610,Grant VC Street,Hawera,
3081106,7201,Granville Close,Springlands,Blenheim
1823152,0614,Granville Drive,Massey,Auckland
1771043,9332,Granville Place,Ranfurly,
1831007,0974,Granville Road,Te Arai,Wellsford
1790648,7871,Granville Road,Totara Flat,Ahaura
1808443,7871,Granville Road West,Totara Flat,Ahaura
1800649,5884,Granville Street,Gladstone,
3011468,5018,Granville Street,"Silverstream,Trentham",Upper Hutt
3011470,5581,Granville Street,Te Horo Beach,Otaki
1772309,9011,Granville Terrace,Belleknowes,Dunedin
3080040,5024,Grapnel Lane,Whitby,Porirua
3030847,0932,Grapnel Street,Silverdale,
1839152,4172,Grasmere Avenue,Karamu,Hastings
1852298,7400,Grasmere Close,Rangiora,
1816208,3210,Grasmere Court,Huntington,Hamilton
1785882,7580,Grasmere Road,Lake Pearson,Arthur's Pass
1781768,7910,Grasmere Street,Waimataitai,Timaru
1838844,3110,Grasmere Way,Bethlehem,Tauranga
1799948,4592,Grassey Lane,Waverley,
1832950,0812,Grassfield Place,Waimauku,
1808701,8025,Grassington Lane,Wigram,Christchurch
1779608,7379,Grassington Road,Rotherham,
1815907,3493,Grasslands Drive,Cambridge,
1814375,3204,Grasslands Place,Frankton,Hamilton
3028117,9772,Grasslands Road,"Charlton,Gore",Gore
1823144,0612,Grassmere Road,Henderson Valley,Auckland
1791245,7285,Grassmere Road,Lake Grassmere,Seddon
1803850,4112,Grassmere Road,Meeanee,Napier
1779218,8052,Grassmere Street,Papanui,Christchurch
1804884,4999,Grass Road,Woodville,
3043405,6011,Grass Street,"Oriental Bay,Roseneath",Wellington
1821512,0881,Grass Track Road,Muriwai,
1828983,2010,Grassways Avenue,Pakuranga,Auckland
3078125,7886,Grassy Creek Road,Haast,
1807226,3200,Grassy Downs Place,St Andrews,Hamilton
1782203,7977,Grassy Hills Road,Elephant Hill,Waimate
1772294,9010,Grater Street,Maori Hill,Dunedin
3084116,4414,Gratitude Way,Kelvin Grove,Palmerston North
1824088,1011,Grattan Place,Freemans Bay,Auckland
1805950,3392,Grattan Road,Te Aroha,
1809356,3118,Gravatt Road,Papamoa Beach,Papamoa
3048387,9679,Gravelpit Lane,Fiordland National Park,
1830028,0612,Graven Court,Henderson,Auckland
1791370,7220,Gravesend Place,Picton,
1815097,3471,Gravesons Road,Okauia,Matamata
1789418,7096,Graves Road,Golden Downs,Wakefield
1817383,4322,Graves Street,Eltham,
1773098,9081,Grave Street,Purakaunui,Port Chalmers
1774798,9320,Graveyard Gully Road,Little Valley,Alexandra
1806149,3592,Gray Avenue,Kuaotunu West,Whitianga
3003793,,Gray Avenue,"Mangere East,Papatoetoe",Auckland
1796173,5032,Gray Avenue,Paraparaumu Beach,Paraparaumu
1814616,3119,Gray Avenue,Te Puke,
3083864,9382,Grayburn Lane,Albert Town,Wanaka
1785436,7772,Grayburn Road,Elgin,Ashburton
1842341,8025,Graycliffe Street,Halswell,Christchurch
1785039,7630,Gray Crescent,Kaiapoi,
1822057,0630,Gray Crescent,Torbay,Auckland
1811788,3375,Grayden Road,Morrinsville,
3018987,9292,Gray Road,"Crichton,Hillend","Balclutha,Milton"
3018992,0991,Gray Road,Great Barrier Island (Aotea Island),
3018989,9382,Gray Road,Lake Hawea,
3018990,7991,Gray Road,"Orari Gorge,Woodbury",Geraldine
1773767,9271,Gray Road,"Otanomomo,Waitepeka",Balclutha
1770740,9494,Gray Road,"Papakaio,Pukeuri","Oamaru,Waitaki Bridge"
1826596,0185,Gray Road,Te Kamo,Whangarei
1812970,3496,Gray Road,Te Miro,Cambridge
1777179,9891,Gray Road,Waimahaka,Tokanui
3018985,9874,Gray Road,Wallacetown,
1786564,7988,Grays Crossing Road,Saint Andrews,
1949557,8051,Grayshott Avenue,Casebrook,Christchurch
1791390,7300,Grays Lane,Kaikoura,
1810224,3015,Grayson Avenue,Mangakakahi,Rotorua
1829459,2104,Grayson Avenue,Papatoetoe,Auckland
3039665,0992,Grayson Road,Wainui,
1825113,1024,Graysons Lane,Mount Eden,Auckland
1786120,7481,Grays Road,"Amberley,Balcairn",Amberley
3019390,,Grays Road,"Camborne,Pauatahanui,Plimmerton,Te Awarua-o-Porirua Harbour (Pauatahanui Arm)",Porirua
3019391,4120,Grays Road,"Mahora,Saint Leonards",Hastings
3019392,4381,Grays Road,Warea,
1784056,8042,Grays Road,Yaldhurst,Christchurch
1781974,7925,Gray Street,Fairlie,
1771536,9300,Gray Street,Frankton,Queenstown
1786332,7773,Gray Street,Hinds,Ashburton
1808376,3129,Gray Street,Katikati,
1773461,9220,Gray Street,Milton,
1792167,5026,Gray Street,Pukerua Bay,Porirua
1825626,1081,Great Barrier Road,Oneroa,Waiheke Island
1813059,3803,Great Burke Street,Ohaupo,
1815333,3803,Great Collins Street,Ohaupo,
1798955,4787,Greatford Street,Marton,
1785729,8022,Great Gables Lane,Huntsbury,Christchurch
3006573,9016,Great King Street,"Dunedin Central,North Dunedin,North East Valley",Dunedin
3084839,1050,Great Northern Terrace,Remuera,Auckland
1818407,,Great North Road,"Avondale,Glen Eden,Glendene,Grey Lynn,Henderson,New Lynn,Point Chevalier,Waterview,Western Springs",Auckland
3024898,,Great North Road,"Kauri,Te Kamo","Kauri,Whangarei"
3024895,,Great North Road,"Otamatea,Saint Johns Hill,Westmere,Whanganui",Whanganui
1831008,0820,Great North Road,Riverhead,
3024894,4210,Great North Road,Waipawa,
3024897,0910,Great North Road,Warkworth,
3024893,9720,Great North Road,Winton,
3034769,,Great South Road,"Bombay,Drury,Ellerslie,Epsom,Greenlane,Manukau,Manurewa,Mercer,Mount Wellington,Opaheke,Otahuhu,Papakura,Papatoetoe,Penrose,Pokeno,Ramarama,Rosehill,Runciman,Takanini,Wiri","Auckland,Bombay,Drury,Mercer,Papakura,Pokeno"
3034767,,Great South Road,"Horotiu,Ngaruawahia,Taupiri","Hamilton,Ngaruawahia,Taupiri"
3034768,3700,Great South Road,"Huntly,Ohinewai,Taupiri","Huntly,Taupiri"
3034766,3803,Great South Road,Ohaupo,
1837717,4571,Great Western Line,Brunswick,
1838725,3015,Great West Road,"Matipo Heights,Pomare",Rotorua
1784053,8042,Grebe Place,Wigram,Christchurch
1832259,2102,Grebe Street,Manurewa,Auckland
1830693,0210,Greenacres Drive,Kawakawa,
1834714,3782,Green Acres Drive,Te Kauwhata,
1788745,7081,Greenacres Road,Redwood Valley,Richmond
1789928,7081,Greenacres Road North,Redwood Valley,Richmond
3041827,9014,Greenacres Street,"Highcliff,Macandrew Bay",Dunedin
1773769,9271,Greenall Road,Romahapa,Balclutha
2010158,2019,Greenan Drive,Flat Bush,Auckland
3071754,7683,Greenan Place,Doyleston,
1798424,5510,Green Avenue,Levin,
1795686,5711,Greenaway Place,Martinborough,
3020445,5036,Greenaway Road,"Otaihanga,Waikanae","Paraparaumu,Waikanae"
1797520,4473,Greenaway Road,Rongotea,
1842862,8025,Greenaway Street,Halswell,Christchurch
3082193,0616,Green Bamboo Road,Hobsonville,Auckland
3016663,1072,Greenbank Drive,Saint Johns,Auckland
1841976,8083,Greenbank Place,Parklands,Christchurch
1774157,9532,Greenbank Road,Lawrence,
1773764,9771,Greenbank Road,Waikoikoi,Gore
1777184,9781,Greenbanks Road,Springhills,Winton
1839048,9305,Greenbelt Place,Wanaka,
1833087,0612,Greenberry Drive,Ranui,Auckland
1838339,0632,Greenbough Lane,Greenhithe,Auckland
3083810,0814,Greenbrier Street,Westgate,Auckland
1838506,2016,Greenbrooke Drive,Flat Bush,Auckland
1835511,7371,Greenburn Way,Kaikoura Flat,Kaikoura
1784274,8042,Greendale Avenue,Avonhead,Christchurch
1799749,5036,Greendale Drive,Otaihanga,Paraparaumu
1840031,7510,Greendale Road,"Darfield,Greendale",Darfield
1822417,0629,Greendale Spur,Glenfield,Auckland
1789391,7095,Greendick Road,Golden Downs,Wakefield
3079808,0510,Green Estate Drive,Waipu,
1838850,2123,Greenfield Close,Waiuku,
1813322,3200,Greenfield Drive,"Dinsdale,Western Heights",Hamilton
3077694,7011,Greenfield Lane,Stoke,Nelson
1847409,7400,Greenfield Mews,Rangiora,
1782597,8052,Greenfield Place,Mairehau,Christchurch
3025279,7901,Greenfield Place,Twizel,
1775271,9586,Greenfield Road,Chaslands,Owaka
1825204,1023,Greenfield Road,Epsom,Auckland
1774335,9274,Greenfield Road,"Greenfield,Puketi",Clydevale
1818585,2684,Greenfield Road,Pollok,
1840616,3193,Greenfields Lane,Te Teko,Whakatane
1787859,7822,Greenfield Street,Hector,
1789528,7893,Greenfield Street,Karamea,
3084616,0295,Greenfields Way,Kerikeri,
3077525,0616,Greenfinch Road,Hobsonville,Auckland
1955022,7630,Greengrass Crescent,Kaiapoi,
1827806,2113,Greenhaven Avenue,"Opaheke,Papakura",Papakura
1799969,4702,Greenhaven Court,Feilding,
1784279,8083,Greenhaven Drive,Burwood,Christchurch
1954614,3283,Green Haven Lane,Tamahere,Hamilton
1772305,9010,Greenhill Avenue,Wakari,Dunedin
1832260,2010,Greenhill Crescent,Pakuranga,Auckland
1812902,3800,Greenhill Drive,Te Awamutu,
3021702,7984,Greenhill Road,Albury,
1789696,7196,Greenhill Road,Ngatimoti,Motueka
1811247,3281,Greenhill Road,Puketaha,Hamilton
1819445,0591,Greenhill Road,Ruawai,
1799661,5391,Greenhill Road,Waikanae,
1788159,7011,Greenhill Road,Wakatu,Nelson
1805000,4174,Green Hill Road,Raukawa,
1840149,3506,Greenhills Drive,Coromandel,
3021701,7979,Green Hills Road,Ikawai,Waimate
1822413,0632,Greenhithe Road,Greenhithe,Auckland
1773456,9073,Greenhithe Street,Waihola,Milton
1821524,0994,Green Hollows Road,Puhoi,Warkworth
3079019,2024,Greenhouse Road,Favona,Auckland
1784055,8042,Greenhurst Street,Sockburn,Christchurch
1785598,7681,Greenings Road,Springfield,
3077775,9877,Green Island,Green Island,
3009808,9076,Green Island Bush Road,"Blackhead,Waldronville",Dunedin
3081527,3882,Greenkeeper Lane,Ngahinapouri,Ohaupo
1791623,7272,Green Lane,Burleigh,Blenheim
1817492,4610,Green Lane,Hawera,
1820687,0800,Green Lane,Helensville,
1784050,8042,Green Lane,Hornby,Christchurch
1820635,0478,Green Lane,Kaeo,
1791391,7371,Green Lane,Kaikoura Flat,Kaikoura
1788735,7120,Green Lane,Motueka,
1827484,2120,Green Lane,Pukekohe,
1777893,9822,Green Lane,Riverton/Aparima,
3081122,5018,Green Lane,Wallaceville,Upper Hutt
1837267,0478,Green Lane Access,Kaeo,
1838413,,Green Lane East,"Greenlane,Remuera",Auckland
1787348,7673,Greenlane Road,Glentunnel,
1815042,3721,Greenlane Road,Taupiri,
1800615,5810,Green Lane Road,Masterton,
1838414,,Green Lane West,"Epsom,Greenlane",Auckland
1773099,9073,Greenlaw Street,Berwick,Outram
1992235,7608,Greenlaw Street,Lincoln,
1773101,9510,Greenlaw Street,Waikouaiti,
1832637,0630,Greenleaf Way,Northcross,Auckland
1815491,3204,Greenlea Lane,Frankton,Hamilton
1840500,4120,Greenlea Place,Frimley,Hastings
3082252,0110,Greenlea Terrace,Port Whangarei,Whangarei
1842321,0630,Greenlink Rise,Long Bay,Auckland
1787724,8051,Greenmeadow Gardens,Belfast,Christchurch
1828584,2102,Greenmeadows Avenue,Manurewa East,Auckland
3003895,2013,Greenmount Drive,"Burswood,East Tamaki",Auckland
1829901,2684,Greenock Drive,Manukau Heads,Awhitu
1799488,4412,Greenock Place,Awapuni,Palmerston North
1831285,0612,Greenock Road,Ranui,Auckland
1772297,9010,Greenock Street,Kaikorai,Dunedin
1784275,8051,Greenock Street,Redwood,Christchurch
1812901,3800,Greenough Crescent,Te Awamutu,
1813989,3210,Greenough Place,Rototuna,Hamilton
1801716,5012,Green Park Lane,Korokoro,Lower Hutt
3062111,7674,Greenpark Road,Lincoln,
1831732,1061,Greenpark Road,Penrose,Auckland
1782603,8025,Greenpark Street,Hoon Hay,Christchurch
1808975,3112,Greenpark Way,Greerton,Tauranga
1840752,0112,Green Pasture Lane,Te Kamo,Whangarei
3079520,4310,Greenpath Lane,Hurworth,New Plymouth
1812495,3330,Green Place,Richmond Heights,Taupo
1842913,9877,Green Point Road,Greenpoint,Bluff
1829678,0629,Greenridge Court,Glenfield,Auckland
3064811,4312,Greenridge Lane,Merrilands,New Plymouth
3019448,4476,Green Road,"Awahuri,Rongotea","Palmerston North,Rongotea"
1821528,0792,Green Road,Dairy Flat,
1821514,0985,Green Road,Matakana,
1773105,9085,Green Road,Mount Cargill,Waitati
1825805,1072,Green Road,Panmure,Auckland
1821519,0874,Green Road,Parakai,Helensville
1779667,7379,Green Road,Rotherham,
1805556,4274,Green Road,Tikokino,
1777761,7582,Green Road,Wainui,French Farm
1807228,3216,Greensboro Street,"Hamilton East,Hillcrest",Hamilton
3042444,0991,Greenside Road,Great Barrier Island (Aotea Island),
1822150,0627,Greenslade Crescent,Northcote,Auckland
3085281,7608,Greenslade Drive,Lincoln,Lincoln
1811024,3295,Greenslade Road,Raglan,
1779896,7011,Greenslade Way,Stoke,Nelson
1818245,4681,Green's Lane,Rahotu,Opunake
3059524,7886,Greens Road,"Franz Josef/Waiau,Westland National Park/Tai Poutini National Park",
1788740,7096,Greens Road,Golden Downs,Wakefield
3059519,7774,Greens Road,"Huntingdon,Willowby",Ashburton
3059523,4472,Greens Road,"Linton,Turitea",Palmerston North
1795591,5771,Greens Road,Tauwharenikau,Tauherenikau
1787085,7691,Greens Road,Tuahiwi,Kaiapoi
3080945,2019,Greenstead Close,Flat Bush,Auckland
1841693,5018,Greenstone Grove,Brown Owl,Upper Hutt
1839040,5024,Greenstone Place,Aotea,Porirua
1828595,2019,Greenstone Place,Clover Park,Auckland
1771543,9300,Greenstone Place,"Fernhill,Sunshine Bay",Queenstown
1790396,7832,Greenstone Road,Kumara,Greymouth
3065281,9372,Greenstone Station Road,"Greenstone,Kinloch",Glenorchy
1842546,7614,Greenstone Street,Rolleston,
3027187,,Greenstone Track,"Elfin Bay,Fiordland National Park,Greenstone,Lake McKellar","Fiordland National Park,Glenorchy"
1813661,3112,Greenstone Way,Hairini,Tauranga
1793050,5011,Green Street,Epuni,Lower Hutt
1807227,3204,Green Street,Frankton,Hamilton
1775944,9710,Green Street,Gore,
1772803,9024,Green Street,Mosgiel,
1794066,6021,Green Street,Newtown,Wellington
1827807,2110,Green Street,Papakura,
1785330,7400,Green Street,Rangiora,
1824074,1011,Green Street,Saint Marys Bay,Auckland
1788158,7011,Green Street,Tahunanui,Nelson
3082162,3876,Greens Way,Te Awamutu,
3073299,7198,Green Tree Road,Riwaka,Motueka
1838181,3283,Greenvale Close,Tamahere,Hamilton
1837880,3112,Greenvale Place,Welcome Bay,Tauranga
1774300,9775,Greenvale Road,"Crossans Corner,Greenvale,Kelso,Waikaka","Gore,Tapanui"
1781550,7991,Greenvale Road,Geraldine,
1774136,9775,Greenvale School Road,"Greenvale,Wendon Valley",Gore
1822418,0629,Greenvalley Rise,Glenfield,Auckland
1833330,0505,Greenview Drive,Mangawhai Heads,Mangawhai
3084326,0230,Greenview Heights,Kerikeri,
1830252,0932,Greenview Lane,Red Beach,
1838666,3579,Greenview Road,Pauanui,
1794053,6022,Greenview Way,Miramar,Wellington
1830073,0112,Greenview Way,Te Kamo,Whangarei
1831663,1041,Greenville Avenue,Wesley,Auckland
1836615,7091,Greenvine Lane,Wakefield,
3081675,7020,Greenway Crescent,Hope,Richmond
1820255,0230,Greenway Drive,Kerikeri,
3083750,0814,Greenway Lane,Westgate,Auckland
1831456,1072,Greenway Place,Glen Innes,Auckland
1832570,0930,Greenway Rise,Gulf Harbour,Whangaparaoa
1830657,0573,Greenway Road,Kaiwaka,
3083405,4410,Greenwich Grove,Fitzherbert,Palmerston North
1800106,5019,Greenwich Grove,Stokes Valley,Lower Hutt
1814047,3210,Greenwich Place,Rototuna,Hamilton
1842297,8025,Greenwich Street,Halswell,Christchurch
3081791,3187,Greenwich Street,Papamoa,
1812494,3330,Greenwich Street,Richmond Heights,Taupo
3069540,9073,Greenwich Street,Waihola,Milton
1836079,0632,Greenwich Way,Unsworth Heights,Auckland
1792065,5512,Greenwood Boulevard,Otaki,
1782599,8013,Greenwood Close,Mairehau,Christchurch
1778952,7610,Greenwood Close,Woodend,
3081013,9305,Greenwood Lane,Wanaka,
1813486,3112,Greenwood Park Lane,Hairini,Tauranga
3081566,7410,Greenwood Place,Amberley,
1799693,4410,Greenwood Place,Fitzherbert,Palmerston North
1796033,5032,Greenwood Place,Paraparaumu,
1789439,7020,Greenwood Place,Richmond,
1788123,7825,Greenwood Place,Westport,
1805498,4130,Greenwood Road,Havelock North,
1828591,2022,Greenwood Road,Mangere,Auckland
3037154,4374,Greenwood Road,"Pitone,Tataraimaka",New Plymouth
1797114,4574,Greenwood Road,Westmere,Whanganui
1830165,0604,Greenwoods Close,Titirangi,Auckland
3071471,3204,Greenwood Street,Frankton,Hamilton
1802072,4010,Greenwood Street,Mangapapa,Gisborne
1788747,7120,Greenwood Street,Motueka,
3035024,4481,Greer Court,Bunnythorpe,Palmerston North
1793557,5028,Greer Crescent,Tawa,Wellington
1771034,9398,Greer Road,Patearoa,
3008741,,Greers Road,"Bishopdale,Bryndwr,Burnside,Ilam",Christchurch
1788726,7096,Greers Road,"Kohatu,Spooners Range",Wakefield
1827698,2103,Greers Road,Weymouth,Auckland
3032225,3112,Greerton Road,"Gate Pa,Greerton",Tauranga
1840389,5574,Grefor Lane,Waitarere,Levin
1784613,8053,Gregan Crescent,Burnside,Christchurch
1773768,9584,Gregan Road,Waiwera South,Clinton
1823192,0612,Gregg Place,Sunnyvale,Auckland
1770897,9320,Gregg Street,Alexandra,
1804801,4930,Gregg Street,Dannevirke,
1787473,8042,Gregory Avenue,Islington,Christchurch
1791750,4414,Gregory Close,Palmerston North,
1842113,4102,Gregory Grove,Clive,
3083958,9391,Gregory Lane,Clyde,
1806150,3691,Gregory Lane,Whangamata,
1825200,1041,Gregory Place,Mount Roskill,Auckland
1817813,4312,Gregory Place,Waiwhakaiho,New Plymouth
1777254,9875,Gregory Road,Fortrose,Tokanui
1817305,4681,Gregory Road,Rahotu,Opunake
1776103,9775,Gregory Road,Waikaka,Gore
1831004,0782,Gregory Road,Waitakere,Auckland
1776258,9814,Gregory Street,Bluff,
1793052,5011,Gregory Street,Naenae,Lower Hutt
1818006,4377,Gregory Street,Waiiti,Urenui
1841006,5794,Gregs Lane,Papawai,Greytown
1838184,3700,Gregson Drive,Huntly,
1789341,7096,Gregs Road,Golden Downs,Wakefield
1785853,7520,Grehan Valley Road,Akaroa,
3084480,7410,Greig Crescent,Amberley,
1791667,7178,Greig Lane,Canvastown,Havelock
1835698,2120,Greig Place,Pukekohe,
3006300,3194,Greig Road,"Edgecumbe,Matata",
1776716,9879,Greig Road,"New River Ferry,West Plains",Invercargill
1806348,7691,Greigs Road,Clarkville,Kaiapoi
1772311,9014,Greig Street,Broad Bay,Dunedin
1786524,7999,Greig Street,Lake Tekapo,
1781548,7903,Greig Street,Pleasant Point,
1838379,3210,Grenache Place,Rototuna,Hamilton
3078628,0892,Grenache Way,Kumeu,
1822414,0620,Grenada Avenue,Forrest Hill,Auckland
1840508,6037,Grenada Drive,"Glenside,Grenada Village,Woodridge",Wellington
3001422,,Grenada Street,"Mount Maunganui,Papamoa Beach","Mount Maunganui,Papamoa"
1987367,3610,Grenadier Lane,Waihi,
1818576,0632,Grenadine Place,Unsworth Heights,Auckland
1823185,0604,Grendon Road,Titirangi,Auckland
1772295,9010,Grendon Street,Maori Hill,Dunedin
1787800,7482,Greney's Lane,Glasnevin,Amberley
1794068,6012,Grenfell Drive,Karori,Wellington
3083959,9391,Grenfell Lane,Clyde,
3080237,4120,Grenside Lane,Mahora,Hastings
1780555,7600,Grenville Road,Burnham,
1798418,5510,Grenville Street,Levin,
1816828,4310,Grenville Street,Marfell,New Plymouth
1793043,5010,Grenville Street,Waiwhetu,Lower Hutt
1782621,8011,Grenville Street,Waltham,Christchurch
1788160,7011,Grenville Terrace,Moana,Nelson
1799779,6037,Gresford Place,Churton Park,Wellington
1782591,8013,Gresford Street,Edgeware,Christchurch
1815730,3210,Gresham Place,Rototuna North,Hamilton
1804973,4112,Gresham Place,Taradale,Napier
1781545,7991,Gresham Road,Hilton,Geraldine
1778204,7930,Gresham Street,Geraldine,
1772299,9013,Gresham Street,Tainui,Dunedin
1782610,8083,Gresham Terrace,New Brighton,Christchurch
1782611,8011,Gressons Lane,Christchurch Central,Christchurch
1787086,7473,Gressons Road,Waikuku,
1790187,7805,Gresson Street,Greymouth,
1835291,2103,Greta Banks Place,Wattle Downs,Auckland
1786635,8025,Greta Place,Hoon Hay,Christchurch
1829819,0932,Greta Place,Stanmore Bay,Whangaparaoa
3085516,7483,Greta Road,Greta Valley,Greta Valley
3029333,7387,Greta Road,"Greta Valley,Lowry Hills Range","Cheviot,Greta Valley"
1807229,3206,Greta Street,Glenview,Hamilton
3072282,9400,Greta Street,"Oamaru,South Hill",Oamaru
1785468,7483,Greta Valley Walkway Road,Greta Valley,
1822411,0627,Gretel Place,Hillcrest,Auckland
1830044,0630,Gretna Green,Browns Bay,Auckland
1772800,9024,Gretna Place,Mosgiel,
1776508,9812,Gretna Street,Heidelberg,Invercargill
1839880,3112,Gretna Way,Pyes Pa,Tauranga
1832930,2019,Gretton Court,Flat Bush,Auckland
1775701,9371,Gretton Way,Lower Shotover,Queenstown
3069571,2105,Grevillea Court,Totara Heights,Auckland
1816049,3206,Grevillea Place,Melville,Hamilton
1813313,3116,Grevillea Place,Mount Maunganui,
3039516,7193,Greville Harbour,"Owhai Bay,Rangitoto ki te Tonga / D'Urville Island",Marlborough Sounds
3006264,7193,Greville Harbour Road,Rangitoto ki te Tonga / D'Urville Island,Marlborough Sounds
1822415,0632,Greville Road,"Albany,Pinehill",Auckland
1806151,3508,Grey Avenue,Tairua,
1842381,0622,Greydene Place,Takapuna,Auckland
3081460,7481,Greyfern Lane,Sefton,
1842254,0932,Greyfort Road,Silverdale,
1793555,5028,Greyfriars Crescent,Tawa,Wellington
3078332,3330,Grey Ghost Lane,Nukuhau,Taupo
3082417,0573,Grey Heron Close,Mangawhai Heads,Mangawhai
1836033,7882,Greyhound Road,Arahura Valley,Hokitika
1790649,7872,Greymouth-Kotuku Road,Arnold Valley,
3017607,7875,Greymouth-Kumara Tramway,Kumara Junction,Greymouth
3014399,9682,Grey Road,"Eastern Bush,Otahu Flat",Otautau
3014403,3886,Grey Road,Hauturu,Oparau
3014404,3285,Grey Road,"Pirongia,Te Pahu",
3014401,7830,Grey Road,Reefton,
1787390,7910,Grey Road,Timaru,
1804794,4971,Grey Road,Weber,
1824086,1010,Greys Avenue,Auckland Central,Auckland
1819668,0200,Greys Lane,Paihia,
1779787,7385,Greys Road,MacDonald Downs,Hawarden
1784601,8042,Greystoke Lane,Avonhead,Christchurch
1840239,3114,Greystone Place,Omokoroa,
1790771,7871,Grey Street,Ahaura,
1801697,4996,Grey Street,Alfredton,Eketahuna
1773106,9092,Grey Street,Allanton,Mosgiel
1780823,7700,Grey Street,"Ashburton,Hampstead",Ashburton
3009363,4010,Grey Street,"Awapuni,Gisborne",Gisborne
1803849,4104,Grey Street,Bay View,Napier
1812743,3434,Grey Street,Cambridge,
1803683,4102,Grey Street,Clive,
3009353,,Grey Street,"College Estate,Springvale",Whanganui
1804800,4930,Grey Street,Dannevirke,
3009377,0310,Grey Street,Dargaville,
1797260,4702,Grey Street,Feilding,
1797979,4814,Grey Street,Foxton,
1802516,4193,Grey Street,Frasertown,Wairoa
3009326,9810,Grey Street,Gladstone,Invercargill
1795399,5884,Grey Street,Gladstone,
1810226,3010,Grey Street,Glenholme,Rotorua
1807230,3216,Grey Street,Hamilton East,Hamilton
1817490,4610,Grey Street,Hawera,
1819667,0210,Grey Street,Kawakawa,
1809819,3127,Grey Street,Kawerau,
1813062,3800,Grey Street,Kihikihi,Te Awamutu
1770741,9435,Grey Street,Kurow,
1798419,5510,Grey Street,Levin,
1795754,4472,Grey Street,Linton,Palmerston North
1795685,5711,Grey Street,Martinborough,
1801428,4710,Grey Street,Marton,
1800601,5810,Grey Street,Masterton,
1789697,7120,Grey Street,Motueka,
1789897,7007,Grey Street,Murchison,
1790112,7872,Grey Street,Ngahere,
1818271,4614,Grey Street,Normanby,Hawera
1772301,9010,Grey Street,North East Valley,Dunedin
1825468,1061,Grey Street,Onehunga,Auckland
1802886,3122,Grey Street,Opotiki,
1777891,9610,Grey Street,Otautau,
1814319,3600,Grey Street,Paeroa,
3009348,,Grey Street,"Palmerston North,Roslyn",Palmerston North
1817674,4520,Grey Street,Patea,
1772870,9023,Grey Street,Port Chalmers,Dunedin
1815166,3411,Grey Street,Putaruru,
1796629,4632,Grey Street,Raetihi,
1826111,0112,Grey Street,Regent,Whangarei
1786320,7891,Grey Street,Seddonville,Westport
1801679,4821,Grey Street,Shannon,
1789277,7891,Grey Street,Stockton,Westport
1814653,3110,Grey Street,Tauranga,
1809919,3910,Grey Street,Te Kuiti,
1814210,3500,Grey Street,Thames,
1806894,3610,Grey Street,Waihi,
1805727,4108,Grey Street,Wairoa,
1817123,4320,Grey Street,Waitara,
1794150,6011,Grey Street,Wellington Central,Wellington
1805468,4920,Grey Street,Woodville,
1820537,0420,Grey Street East,Mangonui,
3078796,7400,Grey View Grove,Rangiora,
1784595,8051,Greywacke Road,Harewood,Christchurch
3077635,0616,Grey Warbler Road,Hobsonville,Auckland
3079862,8042,Grey Way Road,Russley,Christchurch
1809920,4376,Gribbin Street,Awakino,Mokau
1793049,5019,Gribble Grove,Stokes Valley,Lower Hutt
1824931,1025,Gribblehirst Road,Sandringham,Auckland
1809921,3978,Gribbon Road,Mahoenui,
1807892,3972,Grice Road,Maihiihi,Otorohanga
1813065,3495,Grice Road,Rotoorangi,Cambridge
3037633,0973,Grice Road,Wharehine,Wellsford
1841076,2023,Gridco Road,Otara,Auckland
1808598,3188,Gridley Road,Rangiuru,Te Puke
1779792,7481,Grierson Avenue,Amberley,
1806152,3591,Grierson Close,Hahei,Whitianga
1801881,9305,Grierson Lane,Albert Town,Wanaka
1827483,2120,Grierson Place,Pukekohe,
1800602,5810,Grierson Street,Masterton,
1793047,5011,Grierson Street,Naenae,Lower Hutt
3021649,3193,Grieve Road,"Otakiri,Putauaki,Te Teko","Kawerau,Whakatane"
1789569,7830,Grieve Road,Reefton,
1825206,1041,Griffen Park Road,Mount Roskill,Auckland
1825563,1023,Griffin Avenue,Epsom,Auckland
1781557,7986,Griffin Lane,Orari,Temuka
1819444,,Griffin Road,Maungaturoto,
1808613,3171,Griffin Road,Omanawa,
1791927,4788,Griffins Road,Marton,
1804164,4110,Griffin Street,Marewa,Napier
1788728,7020,Griffin Street,Richmond,
1826106,0112,Griffin Street,Te Kamo,Whangarei
1813063,3877,Griffith Access Road,Parawera,
1782618,8062,Griffiths Avenue,Linwood,Christchurch
3083996,7610,Griffiths Close,Woodend,
1794147,6037,Griffiths Grove,Newlands,Wellington
1807231,3214,Griffiths Place,Claudelands,Hamilton
1823193,0610,Griffiths Place,Te Atatu South,Auckland
3027374,7774,Griffiths Road,"Huntingdon,Willowby",Ashburton
1802625,4083,Griffiths Road,Ruatoria,
1812102,3411,Griffiths Street,Putaruru,
3080626,2010,Griffstan Lane,Howick,Auckland
1842732,7274,Grigg Drive,Witherlea,Blenheim
1782600,8025,Grigg Place,Hillmorton,Christchurch
1780877,7781,Griggs Road,Dorie,
3042486,,Griggs Road,"East Tamaki Heights,Whitford","Auckland,Whitford"
1813060,3495,Griggs Road,Rotoorangi,Cambridge
3015874,7700,Grigg Street,Ashburton,
1780869,7772,Grigg Street,Dromore,Ashburton
1830787,0410,Grigg Street,Kaitaia,
1772304,9011,Grigor Street,Brockville,Dunedin
1782205,7924,Grigson Street,Waimate,
1834712,0981,Grimmer Road,Dome Forest,Warkworth
1790698,7812,Grimmond Avenue,Ross,
1773054,9471,Grimness Street,Karitane,Waikouaiti
1791795,5014,Grimsby Grove,Wainuiomata,Lower Hutt
1786961,8051,Grimseys Road,"Mairehau,Redwood",Christchurch
1822836,0612,Grimshaw Place,Henderson,Auckland
3081578,7610,Grimwood Street,Woodend,
3039422,7096,Grindle Road,"Kohatu,Spooners Range",Wakefield
1774034,9593,Grindon Street,Waitahuna,Lawrence
3082261,8025,Griselinia Crescent,Wigram,Christchurch
1838200,0810,Grivelle Street,Kumeu,
1790151,7805,Grogan Lane,Greymouth,
3079596,4130,Grooby Place,Havelock North,
1838532,7196,Grooby Road,Ngatimoti,Motueka
1803005,4172,Groome Place,Whakatu,Hastings
1779665,7392,Groome Road,Balmoral,
1804539,4281,Groome Road,Hatuma,Waipukurau
1814868,3073,Groome Street,Kaingaroa Forest,Murupara
3084777,0582,Groom Rise,Waipu,Waipu
3050262,9883,Gropers Bush Thornbury Road,"Gropers Bush,Thornbury,Waimatuku",Riverton/Aparima
1808977,3110,Grosmont Terrace,Brookfield,Tauranga
3008026,4410,Grosvenor Court,West End,Palmerston North
1815915,3400,Grosvenor Drive,Matamata,
1805829,3210,Grosvenor Gardens,Flagstaff,Hamilton
1945392,7910,Grosvenor Grange,Gleniti,Timaru
1835982,7400,Grosvenor Lane,Rangiora,
1813746,3129,Grosvenor Place,Katikati,
1813988,3210,Grosvenor Place,Rototuna,Hamilton
1812803,3434,Grosvenor Street,Cambridge,
1824079,1021,Grosvenor Street,Grey Lynn,Auckland
1774974,,Grosvenor Street,Kensington,Dunedin
1787493,8051,Grosvenor Street,Redwood,Christchurch
3055169,6012,Grosvenor Terrace,"Thorndon,Wadestown",Wellington
1831712,1061,Grotto Street,Onehunga,Auckland
1820062,0491,Grounds Road,Broadwood,Kohukohu
1801513,5010,Grounsell Crescent,Belmont,Lower Hutt
1815297,3285,Grove Access Road,Karamu,
1808880,3116,Grove Avenue,Mount Maunganui,
1770739,9401,Grove Avenue,Weston,Oamaru
1777894,,Grove Burn Road,"Grove Burn,Rowallan,Tuatapere",Tuatapere
3013414,9876,Grove Bush Woodlands Road,"Grove Bush,Mabel Bush,Woodlands",Invercargill
3081351,5014,Grovedale Square,Wainuiomata,Lower Hutt
1787360,7774,Grove Farm Road,"Tinwald,Willowby",Ashburton
1823181,0604,Grovelands Way,Titirangi,Auckland
1771558,9300,Grove Lane,Kelvin Heights,Queenstown
3082058,3114,Grove Lane,Omokoroa,
1828598,2010,Grove Lane,Pakuranga,Auckland
1832964,0110,Grove Lane,Raumanga,Whangarei
1818659,0931,Grovenor Drive,Orewa,
1814377,3204,Grove Place,Dinsdale,Hamilton
1785329,7400,Grove Place,Rangiora,
1786305,7700,Grove Place,Tinwald,Ashburton
1782620,,Grove Road,Addington,Christchurch
1796344,4470,Grove Road,Ashhurst,
3069476,0624,Grove Road,"Devonport,Narrow Neck",Auckland
1805730,4102,Grove Road,Haumoana,
1812858,3285,Grove Road,"Karamu,Te Pahu",
1794144,6012,Grove Road,Kelburn,Wellington
1815608,0505,Grove Road,Mangawhai Heads,Mangawhai
1803354,4122,Grove Road,Mayfair,Hastings
3069468,7201,Grove Road,Mayfield,Blenheim
1818669,2110,Grove Road,"Papakura,Takanini","Auckland,Papakura"
1824935,1025,Grove Road,Sandringham,Auckland
3069478,0476,Grove Road,Umawera,Okaihau
1774181,9500,Grover's Hill Road,Roxburgh,
1944704,0931,Grover Street,Orewa,
1796035,5032,Groves Road,Raumati Beach,Paraparaumu
1775532,9372,Groves Street,Glenorchy,
1790148,7871,Grove Street,Ahaura,
1772914,9012,Grove Street,"Saint Kilda,South Dunedin",Dunedin
1788161,7010,Grove Street,The Wood,Nelson
1780820,7700,Grove Street,Tinwald,Ashburton
1983884,0892,Grove Way,Riverhead,
1828596,2024,Growers Lane,Mangere East,Auckland
3078591,8023,Growers Lane,Woolston,Christchurch
1787522,8051,Groynes Drive,Northwood,Christchurch
1950634,6037,Grumman Lane,Newlands,Wellington
1829713,0972,Grumpy Road,Wellsford,
1828597,2023,Grundy Place,Otara,Auckland
1797797,4900,Grundy Street,Eketahuna,
1802069,4010,Grundy Street,Mangapapa,Gisborne
3033601,0932,Grut Greens,Silverdale,
1794139,6037,Guadeloupe Crescent,Grenada Village,Wellington
1781547,7991,Gualter Road,"Hilton,Kakahu",Geraldine
3079939,9310,Guano Crescent,Cromwell,
1840747,1072,Guard Crescent,Stonefields,Auckland
1840431,7604,Guardsman Place,Prebbleton,
1831613,1025,Guardwell Terrace,Mount Albert,Auckland
1828585,2023,Gubb Place,Otara,Auckland
1807232,3200,Gudex Court,St Andrews,Hamilton
1814184,3496,Gudex Road,"Karapiro,Te Miro",Cambridge
1781976,7987,Gudex Road,Middle Valley,Fairlie
3052706,1011,Gudgeon Street,"Auckland Central,Freemans Bay",Auckland
1786565,7984,Guerins Road,Hunters Hills,Southburn
1820206,0405,Guerin Street,Kaikohe,
1773766,9273,Guernsey Hill Road,Waitepeka,Balclutha
3021626,9371,Guernsey Lane,Jacks Point,Queenstown
1799487,4410,Guernsey Place,Fitzherbert,Palmerston North
1813679,3200,Guernsey Place,Grandview Heights,Hamilton
1791531,7271,Guernsey Road,Renwick,
1782609,8061,Guernsey Street,Aranui,Christchurch
1833397,0492,Guest Road,Panguru,
3028669,0391,Guest Road,Te Kopuru,
1770376,9482,Guffie Road,Palmerston,
1832422,2025,Guide Place,Papatoetoe,Auckland
3044331,7604,Guilder Drive,Prebbleton,
3009412,5032,Guildford Drive,"Paraparaumu,Paraparaumu Beach",Paraparaumu
1813682,3110,Guildford Place,Bethlehem,Tauranga
1824758,1072,Guildford Place,Glen Innes,Auckland
1774198,9024,Guildford Place,Mosgiel,
1814097,3210,Guildford Place,Rototuna North,Hamilton
1796345,4810,Guildford Street,Ashhurst,
1784614,8053,Guildford Street,Burnside,Christchurch
1780879,7772,Guildford Street,Chertsey,Ashburton
1801146,5510,Guildford Street,Levin,
1804166,4112,Guildford Street,Tamatea,Napier
3047214,6011,Guildford Terrace,"Pipitea,Thorndon",Wellington
1779222,,Guild Road,"Milford,Temuka",Temuka
1779223,8013,Guild Street,"Edgeware,Richmond",Christchurch
1781555,7991,Guilford Road,"Geraldine,Geraldine Downs",Geraldine
3079732,3210,Guillaume Street,Chartwell,Hamilton
1804795,4930,Guinane Street,Dannevirke,
1939554,7604,Guinea Drive,Prebbleton,
1793044,5011,Guiness Street,Avalon,Lower Hutt
3083039,7608,Guinevere Drive,Lincoln,
1822410,0622,Guiniven Avenue,Bayswater,Auckland
1786964,8041,Guinness Crescent,Ilam,Christchurch
1803641,0614,Guinness Place,Massey,Auckland
1790657,7872,Guinness Street,Dunganville,Arnold Valley
1790156,7805,Guinness Street,Greymouth,
1781764,7910,Guinness Street,Highfield,Timaru
1786634,8025,Guise Lane,Hillmorton,Christchurch
3045737,9689,Guise Road,"Aparima,Waikoura",Otautau
1786468,7920,Guise Street,Temuka,
1781681,7920,Guise Street North,Temuka,
3084601,8051,Gulati Lane,Mairehau,Christchurch
3079497,3300,Gulati Lane,Morrinsville,
1791242,7285,Gulch Road,Ward,
1832256,2012,Gulf Crest,Bucklands Beach,Auckland
1821521,0930,Gulf Harbour Drive,"Army Bay,Gulf Harbour",Whangaparaoa
1825617,1081,Gulf Place,Oneroa,Waiheke Island
3079679,0931,Gulfstream Drive,Orewa,
1822058,0630,Gulf View Road,"Murrays Bay,Rothesay Bay",Auckland
1829874,2471,Gulland Road,Pokeno,
1803687,4171,Gull Flat Road,Kereru,Hastings
1832096,2112,Gulliver Place,Conifer Grove,Takanini
1808600,3186,Gulliver Road,Paengaroa,
1786181,7683,Gullivers Road,Southbridge,
3045046,0630,Gull Lane,Mairangi Bay,Auckland
1773462,9073,Gull Street,Waihola,Milton
1781552,7991,Gully Bush Road,Kakahu,Geraldine
3083816,3330,Gully Lane,Richmond Heights,Taupo
3083063,0185,Gully Lane,Te Kamo,Whangarei
1795755,4471,Gully Road,Aokautere,
1771331,9384,Gully Road,Bannockburn,Cromwell
1811027,3771,Gully Road,Glen Afton,Huntly
1788736,7095,Gully Road,Golden Downs,Wakefield
1777837,9691,Gully Road,"Happy Valley,Piko Piko",Tuatapere
1780878,7775,Gumbrells Road,Mayfield,Ashburton
1833201,0110,Gumdigger Place,Raumanga,Whangarei
1842880,0932,Gumdigger Rise,Silverdale,
1838692,0573,Gumdiggers Lane,Mangawhai Heads,Mangawhai
1821510,0820,Gumdiggers Lane,Riverhead,
1841690,0230,Gum Diggers Loop,Kerikeri,
1799237,0910,Gumfield Drive,Warkworth,
1820535,0481,Gumfields Road,"Ahipara,Herekino",Kaitaia
1774545,9300,Gum Lane,Queenstown,
1811648,3300,Gummer Place,Morrinsville,
1842573,4130,Gummer Road,Havelock North,
1823183,0612,Gum Road,Henderson Valley,Auckland
3079133,2112,Gum Spear Road,Takanini,Auckland
1821516,0977,Gum Store Road,Tapora,
1826656,0185,Gumtown Road,Te Kamo,Whangarei
1814297,3574,Gumtown Road,Turua,Ngatea
1782209,7979,Gum Tree Flat Road,"Ikawai,Morven",Waimate
2005904,3114,Gumtree Lane,Omokoroa,
1833032,0973,Gumtree Lane,Wellsford,
1800029,4500,Gumtree Rise,Otamatea,Whanganui
3080713,0573,Gumtree Way,Kaiwaka,
1813505,3175,Gunbar Drive,Welcome Bay,Tauranga
1826884,2676,Gun Club Road,Pukekohe,
1804798,4974,Gundersen Street,Norsewood,
1804797,4974,Gundries Road,Norsewood,
1780876,7771,Gundrys Road,Staveley,Mount Somers
1824751,1010,Gundry Street,Auckland Central,Auckland
1820060,0473,Gundry Street,Rawene,Kaikohe
1813854,3171,Gunga Lane,Omanawa,
1832838,0610,Gunner Drive,Te Atatu Peninsula,Auckland
1839951,4820,Gunners Lane,Linton,Palmerston North
1771795,9305,Gunn Road,Albert Town,Wanaka
3037189,9273,Gunn Road,"Lochindorb,Waitepeka,Warepa",Balclutha
3037193,3474,Gunn Road,"Matamata,Waharoa",
1774046,9591,Gunn Road,Tuapeka Flat,Lawrence
1790395,7886,Gunn Road,Whataroa,
1782210,7978,Gunns Bush Road,Hunter,Waimate
1786853,8022,Gunns Crescent,Cashmere,Christchurch
1780557,7571,Gunns Road,Darfield,
3046302,7978,Gunns Road,"Makikihi,Waimate",Waimate
1796860,4501,Gunn Street,Gonville,Whanganui
1777834,9600,Gunn Street,Te Anau,
3078400,0616,Gunn Way,Hobsonville,Auckland
1778397,9814,Gunpit Road,Bluff,
1825791,1060,Gunson Road,Mount Wellington,Auckland
1826658,0193,Gunson Road,Waiotira,
1831580,1011,Gunson Street,Freemans Bay,Auckland
3073560,0814,Gunton Drive,Westgate,Auckland
1785947,8083,Gunwelloe Lane,Burwood,Christchurch
3062993,4112,Guppy Road,"Greenmeadows,Taradale",Napier
1794149,6035,Gurkha Crescent,Khandallah,Wellington
3013067,0993,Gurnard Road,Stillwater,Silverdale
2015087,7608,Gurners Lane,Lincoln,
1793048,5010,Gurney Road,Kelson,Lower Hutt
1796857,4500,Gurr Place,Aramoho,Whanganui
1820536,0481,Gurr Road,Herekino,Kaitaia
3077975,2019,Gurtin Road,Flat Bush,Auckland
1785921,7972,Guscott Road,Pareora West,Timaru
1805445,4974,Gustavus Street,Norsewood,
3082816,8025,Gusto Lane,Halswell,Christchurch
1841262,7802,Gutberlet Road,Coal Creek,Greymouth
1828590,2023,Guthrey Place,Otara,Auckland
1841703,4818,Guthrie Court,Bulls,
1795194,5889,Guthrie Crescent,Castlepoint,Tinui
1776509,9810,Guthrie Lane,Avenal,Invercargill
1803501,4130,Guthrie Road,Havelock North,
1781553,7991,Guthrie Road,Pleasant Valley,Geraldine
1810227,3081,Guthrie Road,Reporoa,
1830759,0473,Guthrie Road,Taheke,Kaikohe
3048864,8051,Guthries Road,"Belfast,Ouruhia",Christchurch
3082508,9382,Guthrie Street,Lake Hawea,
1772302,9010,Guthrie Street,North East Valley,Dunedin
3044694,5011,Guthrie Street,Waterloo,Lower Hutt
1781767,7910,Guthrie Street,West End,Timaru
1798420,5510,Guy Avenue,Levin,
1799484,4410,Guy Avenue,"Palmerston North,Takaro",Palmerston North
3081868,3700,Guy King Place,Huntly,
1836698,4472,Guyland Drive,Turitea,Palmerston North
3084984,7334,Guyon Place,Hanmer Springs,Hanmer Springs
3077569,8083,Guyon Street,Marshland,Christchurch
1835360,1072,Guyon Street,Stonefields,Auckland
1807233,3206,Guy Place,Melville,Hamilton
3026424,0405,Guy Road,Kaikohe,
1831005,0981,Guy Road,Kaipara Flats,Warkworth
1775133,9092,Guy Road,Mosgiel,
1819221,0391,Guy Road,Te Kopuru,
1804162,4110,Guys Hill Road,Hospital Hill,Napier
1828588,2013,Guys Road,East Tamaki,Auckland
1784054,7676,Guys Road,Yaldhurst,Christchurch
1805684,4930,Guy Street,Dannevirke,
1805001,4210,Guy Street,Waipawa,
1800880,4500,Guyton Street,"Gonville,Whanganui",Whanganui
1805485,4274,Gwavas Road,Tikokino,
1818824,2010,Gwenand Place,Botany Downs,Auckland
3084046,3120,Gwenda Ruegg Way,Whakatane,
1831293,0610,Gwendoline Avenue,Te Atatu Peninsula,Auckland
1814378,3206,Gwendoline Place,Glenview,Hamilton
1810228,3010,Gwendoline Street,Glenholme,Rotorua
1837768,8051,Gwen Place,Redwood,Christchurch
1824756,1011,Gwilliam Place,Freemans Bay,Auckland
1840901,4010,Gwyneth Place,Lytton West,Gisborne
1783891,8022,Gwynfa Avenue,Cashmere,Christchurch
1807234,3200,Gwynne Place,Whitiora,Hamilton
1772292,9014,Gwyn Street,Broad Bay,Dunedin
1801398,5024,Gybe Place,Whitby,Porirua
1817798,9330,Gye Street,Clyde,
1836707,3112,Gyle Place,Pyes Pa,Tauranga
1827778,2113,Gypsy Moth Place,Rosehill,Papakura
