road_id,postcode,name,locality,city
3081276,2105,Jabal Crescent,Totara Park,Auckland
3083543,0602,Jabuka Street,Glen Eden,Auckland
1822576,0632,Jacanas Place,Unsworth Heights,Auckland
1821724,0626,Jacaranda Avenue,Beach Haven,Auckland
1805136,3110,Jacaranda Close,Brookfield,Tauranga
1830368,2120,Jacaranda Court,Pukekohe,
1814031,3510,Jacaranda Drive,Whitianga,
1793283,5010,Jacaranda Grove,Maungaraki,Lower Hutt
1804933,4112,Jacaranda Place,Greenmeadows,Napier
1830480,0230,Jacaranda Place,Kerikeri,
1784699,8083,Jacaranda Place,Parklands,Christchurch
1820364,0482,Jacentho Road,Peria,Kaitaia
1813780,3112,Jacinda Close,Pyes Pa,Tauranga
1829743,0612,Jacinta Grove,Swanson,Auckland
3080756,7901,Jack Adamson Drive,Twizel,
1829693,0794,Jack Barry Road,Waitoki,
1832739,0573,Jack Boyd Drive,Mangawhai Heads,Mangawhai
1825876,1062,Jack Browne Place,Otahuhu,Auckland
3014606,9371,Jackby Court,Jacks Point,Queenstown
1830414,1042,Jack Christie Drive,Hillsborough,Auckland
1829163,2104,Jack Conway Avenue,Manukau,Auckland
1931223,9371,Jack Dagg Lane,Arrowtown,
3021098,7173,Jackett Island,"Jackett Island,Moutere Inlet,Tasman Bay / Te Tai-o-Aorere",Motueka
3023824,4477,Jackeytown Road,Tiakitahuna,Palmerston North
1827871,2110,Jack Farrell Place,Papakura,
1830494,0993,Jack French Way,Stillwater,Silverdale
3078256,9371,Jack Hanley Drive,Jacks Point,Queenstown
1833196,0932,Jack Hawken Lane,Silverdale,
1806287,,Jack Henry Road,"Kinleith,Tokoroa",Tokoroa
1785971,8024,Jack Hinton Drive,Addington,Christchurch
3012707,0632,Jack Hinton Drive,"Albany,Rosedale",Auckland
1838014,2120,Jackies Place,Pukekohe,
1829152,2571,Jack Lachlan Drive,Beachlands,Auckland
1781995,7987,Jack Lovelock Track,Coal Stream,Fairlie
1806205,3510,Jackman Avenue,Whitianga,
1798658,4078,Jackman Road,Tiniroto,Manutuke
1773799,9271,Jackmans Creek Road,Glenomaru Valley,Kaka Point
1841000,8083,Jackmin Lane,Burwood,Christchurch
1983069,8023,Jacko Lane,Sydenham,Christchurch
1827625,2584,Jack Paterson Road,Opaheke,Papakura
1838998,2019,Jack Place,Flat Bush,Auckland
1842330,3289,Jack Rise,Grandview Heights,Hamilton
1826496,0172,Jack Road,Parakao,Whangarei
3083733,8025,Jack Rogers Road,Halswell,Christchurch
1812889,3800,Jack Russell Drive,Te Awamutu,
1773802,9586,Jacks Bay Road,Hinahina,Owaka
1837323,0272,Jacks Bay Road,Russell,
3035709,5391,Jacks Bush Road,Waikanae,
1842709,4071,Jacks Crescent,Lytton West,Gisborne
1841824,7618,Jacks Drive,West Melton,
1936308,0616,Jack Seabrook Road,Hobsonville,Auckland
1775276,9273,Jacks Hill Road,"Te Houka,Warepa",Balclutha
3056962,9875,Jacks Hill Road,"Tokanui,Waimahaka",Tokanui
3081913,3204,Jacks Landing Drive,Hamilton Lake,Hamilton
1808531,3173,Jacks Lane,Oropi,
3084584,0985,Jacks Lane,Warkworth,
1799497,4412,Jackson Avenue,Highbury,Palmerston North
1821182,0982,Jackson Crescent,Mahurangi East,Warkworth
1770888,9320,Jackson Place,Alexandra,
1837982,3591,Jackson Place,Hahei,Whitianga
1852664,7882,Jackson Place,Kumara Junction,Greymouth
1829649,2120,Jackson Place,Pukekohe,
3078025,9383,Jackson Rise,Luggate,Wanaka
1790423,7886,Jackson River Road,Jackson Bay,Haast
1802522,4195,Jackson Road,Frasertown,Wairoa
1810297,3096,Jackson Road,Hamurana,
1813441,3700,Jackson Road,Huntly,
1815110,3674,Jackson Road,Karangahake,
1805692,4997,Jackson Road,Kumeroa,
1826490,0179,Jackson Road,Maungatapere,Whangarei
1796381,3197,Jackson Road,Tirohanga,Opotiki
1798657,4071,Jackson Road,Waerengaahika,Gisborne
1770663,9493,Jackson Road,Waitaki Bridge,
1798716,4587,Jackson Road,Waitotara,Whanganui
3025469,0473,Jackson Road,Whirinaki,
3005649,7282,Jacksons Bay,"Arapaoa Island,Jacksons Bay",Marlborough Sounds
1782247,7971,Jacksons Bush Road,Hunter,Waimate
1806206,3579,Jacksons Claim,Pauanui,
1791508,7275,Jacksons Creek Road,North Bank,Wairau Valley
3084059,5381,Jacksons Creek Road,Paekakariki Hill,Porirua
3021620,5882,Jacksons Line,"Kopuaranga,Mauriceville","Masterton,Mauriceville"
3028213,8014,Jacksons Road,"Fendalton,Merivale",Christchurch
1820263,0476,Jacksons Road,"Kaeo,Mangamuka,Omahuta Forest","Kaeo,Northland Conservation Park,Okaihau"
1801125,5575,Jacksons Road,Koputaroa,Shannon
1779948,8082,Jacksons Road,Lyttelton,
1787015,7692,Jacksons Road,Ohoka,
1796618,4632,Jacksons Road,Raetihi,
1791592,7273,Jacksons Road,"Rapaura,Springlands",Blenheim
1780934,7771,Jacksons Road,Westerfield,Ashburton
1801042,4996,Jacksons Terrace,Alfredton,Eketahuna
1796923,4500,Jackson Street,"College Estate,Gonville",Whanganui
1780427,7510,Jackson Street,Darfield,
1797783,4900,Jackson Street,Eketahuna,
1794519,6023,Jackson Street,Island Bay,Wellington
1802027,4010,Jackson Street,Kaiti,Gisborne
1788189,7010,Jackson Street,Marybank,Nelson
1801433,5810,Jackson Street,Masterton,
1786324,7730,Jackson Street,Methven,
1811212,3720,Jackson Street,Ngaruawahia,
1825500,1061,Jackson Street,Onehunga,Auckland
1793368,5012,Jackson Street,Petone,Lower Hutt
1776487,9810,Jackson Street,"Richmond,Turnbull Thomson Park",Invercargill
1772923,9012,Jackson Street,Saint Kilda,Dunedin
3063881,7910,Jackson Street,"Seaview,West End",Timaru
1810298,3015,Jackson Street,Springfield,Rotorua
1778246,9600,Jackson Street,Te Anau,
1815140,3320,Jackson Street,Te Aroha,
1812890,3800,Jackson Street,Te Awamutu,
1817146,4320,Jackson Street,Waitara,
3022099,5024,Jackson Terrace,Ranui,Porirua
1821180,0993,Jackson Way,Stillwater,Silverdale
1787316,7334,Jacks Pass Road,Hanmer Springs,
3083689,7924,Jacks Place,Waimate,
3041072,9371,Jacks Point Rise,Jacks Point,Queenstown
1784939,7472,Jacks Road,Loburn,
1770396,9482,Jacks Road,Palmerston,
3030482,7805,Jacks Road,Paroa,Greymouth
1791475,7204,Jacks Road,Renwick,
3080581,2577,Jack Stevenson Road,Drury,
1782249,7980,Jack Street,Morven,Waimate
1776477,9812,Jack Street,Newfield,Invercargill
1826278,0112,Jack Street,Otangarei,Whangarei
2009558,5014,Jack Vaughan Grove,Wainuiomata,Lower Hutt
1838213,7882,Jack Ward Road,Arahura Valley,Hokitika
1834656,3710,Jackway Rise,Te Kauwhata,
3079763,4200,Jack Williams Lane,Waipukurau,
1841393,9382,Jack Young Place,Albert Town,Wanaka
1802696,4010,Jacob Lane,Riverdale,Gisborne
3083939,7674,Jacob Lane,Rolleston,
1794510,6035,Jacobsen Lane,Ngaio,Wellington
1805011,7608,Jacobsens Place,Lincoln,
1772390,9012,Jacobs Ladder,Saint Clair,Dunedin
1811286,3791,Jacobs Lane,Ngaruawahia,
1788065,7830,Jacobson Street,Reefton,
1810990,3794,Jacobs Road,Pepepe,Huntly
1783193,8014,Jacobs Street,St Albans,Christchurch
1812888,3800,Jacobs Street,Te Awamutu,
1841904,3110,Jacob Street,Brookfield,Tauranga
1776024,9710,Jacob Street,Gore,
1839712,2018,Jacobs Way,Maraetai,Auckland
1841818,7671,Jacqueline Drive,West Melton,
1832373,2024,Jacqueline Place,Mangere East,Auckland
3081671,3214,Jacques Terrace,Chartwell,Hamilton
1839737,8042,Jacques Way,Yaldhurst,Christchurch
1832372,2010,Jade Avenue,Pakuranga Heights,Auckland
1842991,7614,Jade Court,Rolleston,
1830114,0632,Jade Court,Rosedale,Auckland
1839395,5018,Jade Crescent,Timberlea,Upper Hutt
3079177,9305,Jade Drive,Wanaka,
3083664,9300,Jade Lake Crescent,Fernhill,Queenstown
1821671,5032,Jade Lane,Paraparaumu,
1816810,4312,Jade Place,Bell Block,New Plymouth
1784703,8083,Jade Place,Parklands,Christchurch
1810299,3015,Jade Place,Pukehangi,Rotorua
1839975,0910,Jade River Place,Warkworth,
1809371,3118,Jade Way,Papamoa Beach,Papamoa
1830361,0614,Jadewynn Drive,Massey,Auckland
1785594,8025,Jadewynn Place,Halswell,Christchurch
1832821,2112,Jadon Close,Takanini,Auckland
3077976,2014,JaeDee Court,Howick,Auckland
1823445,0610,Jaemont Avenue,Te Atatu South,Auckland
1833837,3210,Jaemont Court,Huntington,Hamilton
1770037,9024,Jaffray Drive,East Taieri,Mosgiel
3016080,9777,Jaffray Road,"Chatton,Otamita",Gore
3010799,3474,Jagger Road,Waharoa,
3081522,0614,Jagoda Road,Westgate,Auckland
1803016,4188,Jago Road,Kotemaori,
1976748,7700,Jag Way,Tinwald,Ashburton
1839387,8022,Jahan Lane,Cashmere,Christchurch
1786325,7775,Jaines Road,"Carew,Ruapuna",Ashburton
3080611,3882,Jakes Place,Te Kowhai,Hamilton
1794501,6035,Jalna Avenue,Khandallah,Wellington
1794500,5028,Jamaica Drive,"Grenada North,Takapu Valley",Wellington
1831491,0600,Jamaica Place,Blockhouse Bay,Auckland
3083988,9310,Jamal Lane,Levels,Timaru
1784695,8042,Jamell Place,Avonhead,Christchurch
1784938,7481,James Avenue,Leithfield,
1835735,3472,James Avenue,Matamata,
1811113,3771,James Avenue,Pukemiro,Ngaruawahia
1836627,2123,James Bright Lane,Waiuku,
3063641,8025,James Caird Lane,Wigram,Christchurch
1818587,0272,James Clendon Place,Okiato,Russell
1784692,8051,James Condon Place,Redwood,Christchurch
1832502,1050,James Cook Crescent,Remuera,Auckland
1809329,3112,James Cook Drive,Welcome Bay,Tauranga
1792194,5024,James Cook Drive,Whitby,Porirua
3078934,7173,James Cook Lane,Tasman,Upper Moutere
1802965,4130,James Cook Street,Havelock North,
1789297,7005,James Cross Place,Mapua,
1791855,4810,Jamesdale Court,Ashhurst,
1835000,4312,James Drive,Bell Block,New Plymouth
1780014,8971,James Drive,Diamond Harbour,
1785426,7610,James Drive,Woodend,
3078600,2402,James Elliot Way,Pokeno,
1822128,0627,James Evans Drive,Northcote,Auckland
1832371,2024,James Fletcher Drive,Favona,Auckland
1805544,4112,James Foley Avenue,Pirimai,Napier
1801536,5019,James Grove,Stokes Valley,Lower Hutt
1813488,3118,James Henry Avenue,Papamoa Beach,Papamoa
1810895,3700,James Henry Crescent,Huntly,
1813396,8025,James Hight Drive,Halswell,Christchurch
3078904,0985,James Joseph Lane,Matakana,
1783187,8024,James K Baxter Place,"Addington,Spreydon",Christchurch
1818458,0230,James Kemp Place,Kerikeri,
3077559,5712,James Kidd Place,Greytown,
1816811,4310,James Lane,New Plymouth,
3079528,3800,James Lane,Te Awamutu,
1822802,0612,James Laurie Street,"Glendene,Henderson",Auckland
3026357,4470,James Line,"Kelvin Grove,Whakarongo",Palmerston North
3082818,8025,James Mackenzie Drive,Halswell,Christchurch
1821183,0875,James Mackie Road,Helensville,
1838043,0476,James McKenzie Way,Okaihau,
1821206,0874,James McLeod Road,Shelly Beach,South Head
2018546,0932,James McLeod Way,Silverdale,
1801811,5018,James Nairn Grove,Riverstone Terraces,Upper Hutt
1810301,3010,Jameson Avenue,Fenton Park,Rotorua
1782922,8052,Jameson Avenue,St Albans,Christchurch
3025759,0204,Jameson Esplanade,Haruru,
3080123,9822,Jameson Lane,Riverton/Aparima,
1786097,7391,Jamesons Road,Rotherham,
1833349,0793,James Paige Lane,Riverhead,
1827758,2113,James Place,Opaheke,Papakura
1788878,7020,James Place,Richmond,
3079663,7604,James Prebble Drive,Prebbleton,
1825330,1041,James Preston Avenue,Mount Roskill,Auckland
1788507,7073,James Road,Bainham,Collingwood
1836581,9382,James Road,Cardrona,Wanaka
1777784,9883,James Road,Gropers Bush,Riverton/Aparima
1801473,4779,James Road,Halcombe,
1775500,9495,James Road,Herbert,
1801246,4782,James Road,Hunterville,
1811285,3771,James Road,Huntly,
1829173,2102,James Road,Manurewa,Auckland
1819446,0587,James Road,Maungaturoto,
1797925,4982,James Road,Pahiatua,
1801407,5871,James Road,Rangitumau,Masterton
1826492,0185,James Road,Te Kamo,Whangarei
1808121,3176,James Road,Te Puna,Tauranga
1789267,7073,James Road Right Branch,Bainham,Collingwood
1805037,4175,James Rochfort Place,Twyford,Hastings
1823448,0602,James Scott Place,Te Atatu South,Auckland
1780801,7700,James Street,Allenton,Ashburton
1773379,9230,James Street,Balclutha,
3047618,0629,James Street,"Bayview,Glenfield,Totara Vale",Auckland
1815290,3434,James Street,Cambridge,
1780424,7673,James Street,Coalgate,
1806207,3506,James Street,Coromandel,
1804772,4930,James Street,Dannevirke,
1777317,9791,James Street,Dipton West,
1797782,4900,James Street,Eketahuna,
1774777,9572,James Street,Ettrick,Roxburgh
1776479,9810,James Street,"Glengarry,Richmond",Invercargill
3047611,3010,James Street,"Glenholme,Victoria",Rotorua
1807299,3216,James Street,Hamilton East,Hamilton
1780933,7773,James Street,Hinds,Ashburton
1818011,4330,James Street,Inglewood,
1781798,7910,James Street,Kensington,Timaru
1780255,7608,James Street,Lincoln,
1795766,4472,James Street,Linton,Palmerston North
1830950,0982,James Street,Mahurangi East,Warkworth
1802025,4010,James Street,Mangapapa,Gisborne
1829180,2024,James Street,Mangere East,Auckland
1772403,9010,James Street,North East Valley,Dunedin
1778668,9635,James Street,Ohai,
1792195,5026,James Street,Plimmerton,Porirua
1811116,3225,James Street,Raglan,
1783208,8081,James Street,Redcliffs,Christchurch
1778669,9822,James Street,Riverton/Aparima,
1819894,0202,James Street,Russell,
1821201,0982,James Street,Snells Beach,
1795950,5573,James Street,Waikawa Beach,Manakau
1787212,7980,James Street,Waimate,
1804476,4200,James Street,Waipukurau,
1804099,4110,James Street,Westshore,Napier
1809449,3120,James Street,Whakatane,
1826274,0110,James Street,Whangarei,
1825328,1042,James Tyler Crescent,"Lynfield,Mount Roskill",Auckland
1825875,1060,James Walter Place,Mount Wellington,Auckland
1841920,0981,Jamie Lane,Warkworth,
1807300,3200,Jamieson Crescent,St Andrews,Hamilton
1779661,7392,Jamieson Road,Balmoral,
1826859,2677,Jamieson Road,Buckland,Pukekohe
1820266,0410,Jamieson Road,Kaitaia,
1790002,7805,Jamieson Road,"Karoro,Marsden",Greymouth
1830948,0983,Jamieson Road,Mahurangi West,Warkworth
3008689,0473,Jamieson Road,"Omanaia,Oue",Kaikohe
1811290,3781,Jamieson Road,Waerenga,Te Kauwhata
3016460,7772,Jamiesons Road,"Chertsey,Mitcham",Ashburton
1789514,7891,Jamieson Street,Denniston,Westport
1808675,3119,Jamieson Street,Te Puke,
1840369,0910,Jamish Drive,Warkworth,
1840478,0614,Jammen Drive,Massey,Auckland
1837967,8051,Janal Place,Northwood,Christchurch
1829667,1041,Jana Place,Mount Roskill,Auckland
1829178,2014,Jandell Crescent,Bucklands Beach,Auckland
1811418,3285,Jane Cave Lane North,Whatawhata,Hamilton
1815592,3290,Jane Cave Lane South,Whatawhata,Hamilton
1825872,1062,Jane Cowie Avenue,Otahuhu,Auckland
1785698,8011,Jane Deans Close,Riccarton,Christchurch
1829700,2014,Jane Eyre Drive,Somerville,Auckland
1829175,2012,Jane Gifford Place,Half Moon Bay,Auckland
1821197,0986,Jane Gifford Place,Omaha,
3079380,5011,Jane Grace Way,Avalon,Lower Hutt
1794524,6037,Jane Grove,Paparangi,Wellington
1787089,7400,Janelle Place,Rangiora,
3083312,5371,Jane Mander Rise,Blue Mountains,Upper Hutt
3077861,0810,Jane Maree Road,Kumeu,
1826270,0112,Jane Nelson Place,Otangarei,Whangarei
1818543,2103,Janese Place,Weymouth,Auckland
3049880,9014,Jane Street,Macandrew Bay,Dunedin
1780802,7700,Jane Street,Tinwald,Ashburton
1798284,5036,Jane Street,Waikanae Beach,Waikanae
1776223,9720,Jane Street,Winton,
1822757,0602,Janet Clews Place,Glen Eden,Auckland
1799755,5371,Janet Frame Way,Whitemans Valley,Upper Hutt
1823451,0604,Janet Place,Laingholm,Auckland
1810302,3010,Janet Place,Lynmore,Rotorua
1770395,9482,Janets Peak Road,Palmerston,
1778430,9812,Janet Street,"Appleby,Strathern",Invercargill
1829156,2010,Janet Street,Sunnyhills,Auckland
1784691,8041,Janet Street,Upper Riccarton,Christchurch
1842188,3112,Jane Way,Hairini,Tauranga
1840536,3210,Jane Way,Huntington,Hamilton
1833892,9371,Jane Williams Place,Lake Hayes,Queenstown
1825667,1010,Jane York Place,Rakino Island,Auckland
1829662,2013,Jan Higgins Place,Golflands,Auckland
1782905,8081,Janice Place,Mount Pleasant,Christchurch
3013734,8083,Janie Parkhouse Drive,North New Brighton,Christchurch
1829162,2014,Janine Place,Bucklands Beach,Auckland
1829161,2014,Janome Place,Bucklands Beach,Auckland
1829177,2010,Jan Place,Pakuranga,Auckland
1817147,4314,Jans Terrace,Oakura,
3078929,7173,Janszoon Lane,Tasman,Upper Moutere
1839008,2016,Janway Avenue,Flat Bush,Auckland
3058624,5024,Japonica Crescent,Ranui,Porirua
1821673,0626,Japonica Drive,Beach Haven,Auckland
1794520,6035,Jarden Mile,Ngauranga,Wellington
1838951,3330,Jarden Mile,Nukuhau,Taupo
1981445,0932,Jardin Court,Silverdale,
3079374,7025,Jardine Lane,Wakefield,
3082684,8051,Jardine Place,Marshland,Christchurch
3069440,9494,Jardine Road,Awamoko,Oamaru
1831792,1060,Jarman Road,Mount Wellington,Auckland
1814879,3015,Jarmey Place,Mangakakahi,Rotorua
1839789,8042,Jarnac Boulevard,Yaldhurst,Christchurch
1837999,3112,Jarrah Park Drive,Pyes Pa,Tauranga
1823447,0614,Jarrah Place,Massey,Auckland
1799909,4414,Jarrett Court,Roslyn,Palmerston North
1841988,3495,Jarrett Terrace,Leamington,Cambridge
1784118,8025,Jarrow Place,Halswell,Christchurch
1770659,9495,Jarrow Street,Maheno,Oamaru
1794516,6037,Jarvie Grove,Churton Park,Wellington
1837721,3210,Jarvis Court,Huntington,Hamilton
1804100,4112,Jarvis Place,Taradale,Napier
1780160,7674,Jarvis Road,Motukarara,Tai Tapu
1803736,4175,Jarvis Road,Twyford,Hastings
1836647,2019,Jarvis Way,Otara,Auckland
1813015,3881,Jary Road,Ohaupo,
3082190,0814,Jashi Lane,Westgate,Auckland
1807302,3204,Jasmine Avenue,Dinsdale,Hamilton
3084536,7614,Jasmine Close,Rolleston,
1791748,5010,Jasmine Grove,Maungaraki,Lower Hutt
1836959,0632,Jasmine Knoll,Fairview Heights,Auckland
3080380,9305,Jasmine Lane,Albert Town,Wanaka
1824610,0600,Jasmine Place,Blockhouse Bay,Auckland
1835253,3434,Jasmine Place,Cambridge,
1799692,4410,Jasmine Place,Fitzherbert,Palmerston North
1809889,3116,Jasmine Place,Mount Maunganui,
1787656,8042,Jasmine Place,Wigram,Christchurch
1819900,0474,Jasmine Road,Awarua,Kaikohe
3081576,7610,Jasmine Street,Woodend,
1824973,1041,Jason Avenue,Sandringham,Auckland
3038099,3210,Jason Lane,Flagstaff,Hamilton
1839149,3112,Jason Place,Pyes Pa,Tauranga
3043275,0482,Jason Road,Peria,Kaitaia
1794509,6037,Jasons Place,Churton Park,Wellington
3042512,9010,Jason Street,"Helensburgh,Wakari",Dunedin
1825327,1041,Jasper Avenue,Mount Roskill,Auckland
1842996,7614,Jasper Court,Rolleston,
1792673,5018,Jasper Grove,Birchville,Upper Hutt
3002996,4414,Jasper Place,"Cloverlea,Milson",Palmerston North
1787694,8051,Jasper Place,Northwood,Christchurch
3081988,9305,Jasper Place,Wanaka,
3078073,3210,Jaspers Way,Huntington,Hamilton
1809338,3118,Jasper Way,Papamoa Beach,Papamoa
1789486,7010,Jasper Way,Washington Valley,Nelson
1800503,6035,Jaunpur Crescent,Broadmeadows,Wellington
3060402,9782,Java Road,"Centre Bush,Otapiri",Winton
1829991,0930,Javelin Close,Gulf Harbour,Whangaparaoa
1823450,0618,Javelin Place,West Harbour,Auckland
1818621,2675,Jayar Heights,Bombay,
1818691,2010,Jay Court,Botany Downs,Auckland
1837783,2022,Jaylo Place,Mangere,Auckland
1821922,0630,Jayne Place,Torbay,Auckland
1810305,3083,Jay Road,Reporoa,
1820645,0295,Jay Road,Waipapa,
1823453,0604,Jays Road,Titirangi,Auckland
1800501,6037,Jay Street,Paparangi,Wellington
3031561,7772,JB Cullen Drive,"Fairton,Netherby,Newland",Ashburton
3020272,0478,JB Smith Way,Matauri Bay,Kaeo
3080138,2103,Jean Alma Lane,Wattle Downs,Auckland
3078771,7614,Jean Archie Drive,Rolleston,
1808861,3116,Jean Batten Drive,Mount Maunganui,
3080405,7615,Jean Batten Lane,Rolleston,
1824609,1010,Jean Batten Place,Auckland Central,Auckland
1787430,8061,Jean Batten Place,Burwood,Christchurch
1837813,6022,Jean Batten Street,Rongotai,Wellington
3080325,6023,Jean Caldwell Way,Island Bay,Wellington
1826868,2682,Jean Davis Road,Otaua,
3078749,0110,Jean Edwards Place,Raumanga,Whangarei
1821924,0630,Jeanette Place,Mairangi Bay,Auckland
1807303,3206,Jeanette Street,Glenview,Hamilton
1839437,5512,Jean Hing Place,Otaki,
1830271,0794,Jean Mackay Place,Dairy Flat,
1954469,0179,Jean Millington Lane,Maunu,Whangarei
1837220,5036,Jeannie Way,Waikanae Beach,Waikanae
1805067,3200,Jean Place,Pukete,Hamilton
1818698,0932,Jean Place,Stanmore Bay,Whangaparaoa
1814216,3575,Jean Road,Te Mata,Thames
1806803,9371,Jean Robins Drive,Lake Hayes,Queenstown
1795047,5810,Jeans Street,Masterton,
1817141,4373,Jean Street,Lepperton,New Plymouth
1834508,5032,Jean Wright Way,Raumati Beach,Paraparaumu
1816301,3995,Jebb Road,Matiere,
1782911,8013,Jebson Street,"Mairehau,Shirley",Christchurch
1782913,8061,Jecks Place,Avonside,Christchurch
1771205,9500,Jedburgh Street,Roxburgh,
1815186,3420,Jedburgh Street,Tokoroa,
1782912,8052,Jed Lane,St Albans,Christchurch
1776488,9810,Jed Street,"Invercargill,Queens Park",Invercargill
1796207,5032,Jeep Road,Raumati South,Paraparaumu
1826272,0112,Jeeves Place,Tikipunga,Whangarei
3019988,7987,Jefcoates Road,Middle Valley,Fairlie
1782248,7972,Jefcoates Road,Southburn,
1805311,4112,Jeffares Place,Taradale,Napier
1774579,9076,Jeffcoates Road,"Fairfield,Westwood",Dunedin
3083314,3194,Jefferis Lane,Pikowai,Matata
1773012,9472,Jefferis Road,Flag Swamp,Waikouaiti
1811288,3781,Jefferis Road,Waerenga,Te Kauwhata
1842298,8025,Jefferson Close,Halswell,Christchurch
1791812,4414,Jefferson Crescent,Milson,Palmerston North
1814009,3200,Jefferson Heights,Western Heights,Hamilton
1809330,3110,Jefferson Place,Brookfield,Tauranga
1791943,4788,Jeffersons Line,Marton,
1794507,6021,Jefferson Street,Brooklyn,Wellington
1824615,1071,Jefferson Street,Glendowie,Auckland
1818306,4312,Jeffery Lane,Bell Block,New Plymouth
1833299,0612,Jeffery Reeve Crescent,Ranui,Auckland
1771610,9371,Jeffery Road,Arrow Junction,Queenstown
1772392,9013,Jeffery Street,Andersons Bay,Dunedin
1775344,9772,Jeff Farm Road,"Kaiwera,Otaraia","Gore,Mataura"
1827955,2014,Jeff Place,Howick,Auckland
3055369,8052,Jeffreys Road,"Burnside,Fendalton,Strowan",Christchurch
1789692,7091,Jeffries Road,Brightwater,
1791038,7273,Jeffries Road,Rapaura,Blenheim
3015679,9772,Jeff Road,"Kaiwera,Slopedown","Clinton,Gore"
1784908,7692,Jeffs Drain Road,"Clarkville,Ohoka","Kaiapoi,Ohoka"
1821186,0794,Jeffs Road,Dairy Flat,
1829155,2016,Jeffs Road,Flat Bush,Auckland
1830547,2471,Jeffs Road,Mangatawhiri,
2008801,3118,Jeffs Way,Papamoa Beach,Papamoa
1842679,0820,Jelas Drive,Riverhead,
1821188,0932,Jelas Road,Red Beach,
1785337,7691,Jelfs Road,Woodend Beach,Woodend
1829749,0612,Jelicich Court,Henderson,Auckland
3034747,7096,Jelineks Road,"Glenhope,Tapawera","St. Arnaud,Wakefield"
1835682,9310,Jelley Place,Cromwell,
1826501,0181,Jellick Road,Hikurangi,
1788190,7011,Jellicoe Avenue,Stoke,Nelson
1827500,2121,Jellicoe Avenue,Tuakau,
1803056,4108,Jellicoe Avenue,Wairoa,
1809831,3127,Jellicoe Court,Kawerau,
1772405,9010,Jellicoe Crescent,Kaikorai,Dunedin
3049438,3500,Jellicoe Crescent,Thames,
1807305,3216,Jellicoe Drive,Hamilton East,Hamilton
1815481,3500,Jellicoe Lane,Thames,
1825665,1081,Jellicoe Parade,Surfdale,Waiheke Island
1795048,5810,Jellicoe Place,Solway,Masterton
1804103,4112,Jellicoe Place,Tamatea,Napier
1829170,2102,Jellicoe Road,Manurewa,Auckland
1811562,3400,Jellicoe Road,Matamata,
1821920,0630,Jellicoe Road,Murrays Bay,Auckland
1831791,1072,Jellicoe Road,Panmure,Auckland
1827489,2120,Jellicoe Road,Pukekohe,
3050298,0530,Jellicoe Road,Ruawai,
1824606,1010,Jellicoe Street,Auckland Central,Auckland
1793478,5712,Jellicoe Street,Greytown,
1805665,4122,Jellicoe Street,"Karamu,Mayfair",Hastings
1802029,4010,Jellicoe Street,Mangapapa,Gisborne
1795668,5711,Jellicoe Street,Martinborough,
3066520,0110,Jellicoe Street,Morningside,Whangarei
1786492,7910,Jellicoe Street,Oceanview,Timaru
1825871,1062,Jellicoe Street,Otahuhu,Auckland
1800049,5022,Jellicoe Street,Porirua City Centre,Porirua
1782920,8062,Jellicoe Street,South New Brighton,Christchurch
1808677,3119,Jellicoe Street,Te Puke,
1804479,4200,Jellicoe Street,Waipukurau,
1800890,4500,Jellicoe Street,Whanganui East,Whanganui
1790948,7201,Jellyman Place,Springlands,Blenheim
1831182,0629,Jenanne Place,Totara Vale,Auckland
1823444,0602,Jenelin Road,Glendene,Auckland
1831953,2676,Jenkin Road,Pukekohe,
1784700,8051,Jenkins Avenue,Redwood,Christchurch
1814539,3611,Jenkinson Street,Waihi Beach,
1771461,9302,Jenkins Place,Arrowtown,
1829157,2102,Jenkins Place,Manurewa East,Auckland
1817140,4320,Jenkins Place,Waitara,
1789492,7011,Jenkins Place,Wakatu,Nelson
1777785,9691,Jenkins Road,Tuatapere,
1772735,9018,Jenkins Street,Green Island,Dunedin
1785427,7630,Jenkins Street,Kaiapoi,
3069195,7201,Jenkins Street,Witherlea,Blenheim
1776481,9812,Jenkin Street,Strathern,Invercargill
1797983,4814,Jenks Street,Foxton,
1841488,8025,Jennabelle Lane,Halswell,Christchurch
1824611,0600,Jenner Place,Avondale,Auckland
1788191,7010,Jenner Road,Toi Toi,Nelson
1800278,5010,Jenness Grove,Harbour View,Lower Hutt
3077919,3210,Jennian Avenue,Rototuna North,Hamilton
1807306,3210,Jennifer Place,Chartwell,Hamilton
1829415,2025,Jennifer Place,Papatoetoe,Auckland
1782915,8053,Jennifer Street,"Bryndwr,Papanui",Christchurch
1785176,7400,Jennings Place,Rangiora,
1817982,3995,Jennings Road,Matiere,
1785164,7495,Jennings Road,Starvation Hill,Oxford
1819896,0295,Jennings Road,Waipapa,
1784907,7475,Jennings Road,West Eyreton,
1831619,1025,Jennings Street,Mount Albert,Auckland
1809932,3910,Jennings Street,Te Kuiti,
1839669,9391,Jennings Way,Earnscleugh,Alexandra
1832752,2123,Jenny Lane,Waiuku,
1789411,7096,Jenny Road,Golden Downs,Wakefield
1804793,4974,Jens Andersen Road,Norsewood,
1799506,4410,Jensen Court,Hokowhitu,Palmerston North
3084288,4282,Jensen Drive,Waipukurau,
1818060,4310,Jensen Place,Frankleigh Park,New Plymouth
1773524,9291,Jensen Road,Circle Hill,Milton
1789437,7096,Jensen Road,Golden Downs,Wakefield
1808126,3171,Jensen Road,Omanawa,
1815759,3186,Jensen Road,Pongakawa,
1772739,9018,Jensen Street,Green Island,Dunedin
1778623,9818,Jensen Street,Halfmoon Bay / Oban,Stewart Island
1799505,4410,Jensen Street,Hokowhitu,Palmerston North
3029155,4779,Jens Road,Waituna West,Feilding
1781494,7010,Jenville Way,The Wood,Nelson
1805224,4182,Jeph Everett Road,Te Haroto,Napier
1792678,5018,Jepsen Grove,Wallaceville,Upper Hutt
1819102,0372,Jerebine Road,Tangowahine,Dargaville
1785517,8042,Jerez Place,Hei Hei,Christchurch
1778229,9679,Jericho Road,Blackmount,Otautau
3037124,2677,Jericho Road,"Buckland,Pukekohe East",Pukekohe
1788192,7011,Jerningham Street,Enner Glynn,Nelson
3013630,2012,Jern Place,"Bucklands Beach,Eastern Beach",Auckland
3078633,0892,Jeroboam Loop,Kumeu,
3081878,3210,Jerome Street,Chartwell,Hamilton
1794513,6035,Jerome Way,Crofton Downs,Wellington
1838708,2019,Jerpoint Drive,Flat Bush,Auckland
1824975,1025,Jerram Street,Mount Albert,Auckland
1782909,8024,Jerrold Street North,Addington,Christchurch
3026369,8024,Jerrold Street South,Addington,Christchurch
1841285,2104,Jerry Green Street,Wiri,Auckland
1824976,1025,Jersey Avenue,Mount Albert,Auckland
3078305,0170,Jersey Lane,"Maungatapere,Otaika",Whangarei
1816815,4312,Jersey Place,Bell Block,New Plymouth
1813681,3200,Jersey Place,Grandview Heights,Hamilton
3081838,3187,Jersey Way,Papamoa,
1832451,0994,Jervis Road,Waiwera,Orewa
1810306,3015,Jervis Street,"Hillcrest,Utuhina",Rotorua
1787183,8972,Jervois Close,Diamond Harbour,
1805140,4122,Jervois Place,Mayfair,Hastings
1794511,6011,Jervois Quay,"Te Aro,Wellington Central",Wellington
1795439,5791,Jervois Road,Dalefield,Carterton
3009686,1011,Jervois Road,"Herne Bay,Ponsonby",Auckland
1805628,4112,Jervois Road,Jervoistown,Napier
3009684,4820,Jervois Road,Linton,Palmerston North
3049790,,Jervois Street,Dargaville,
1774979,9016,Jervois Street,Dunedin Central,Dunedin
1779780,7385,Jervois Street,Hawarden,
1809832,3127,Jervois Street,Kawerau,
1807918,3889,Jervois Street,Kawhia,
1801661,4472,Jervois Street,Linton,Palmerston North
3049785,4472,Jervois Street,Linton,Palmerston North
1803411,4122,Jervois Street,Mayfair,Hastings
1782919,8061,Jervois Street,New Brighton,Christchurch
1797926,4910,Jervois Street,Pahiatua,
1804878,4920,Jervois Street,Woodville,
1798289,5570,Jervois Terrace,Ohau,
1826860,2578,Jesmond Road,Karaka,Papakura
1810907,3720,Jesmond Street,Ngaruawahia,
1818849,1025,Jesmond Terrace,Mount Albert,Auckland
1824614,1021,Jessel Street,Grey Lynn,Auckland
1805240,4183,Jessep Road,Meeanee,Napier
3077721,7614,Jessica Close,Rolleston,
1813824,3204,Jessica Court,Dinsdale,Hamilton
3080215,9492,Jessicas Lane,Weston,Oamaru
3079707,5011,Jessie Donald Way,Avalon,Lower Hutt
1842683,0820,Jessie Rise,Riverhead,
1837209,9305,Jessies Crescent,Wanaka,
1772317,9022,Jessie Street,Maia,Dunedin
1819449,0505,Jessie Street,Mangawhai Heads,Mangawhai
1789257,7005,Jessie Street,Mapua,
1826273,0112,Jessie Street,Parahaki,Whangarei
1801578,5012,Jessie Street,Petone,Lower Hutt
1794522,6011,Jessie Street,Te Aro,Wellington
1832102,2112,Jessika Place,Conifer Grove,Takanini
1822581,0627,Jessmae Place,Hillcrest,Auckland
3013330,8051,Jessons Road,"Christchurch Airport,Harewood,McLeans Island",Christchurch
1770280,9400,Jessop Street,South Hill,Oamaru
1825332,1041,Jessop Street,Wesley,Auckland
1833211,0176,Jess Place,Ruatangata West,Whangarei
1808120,3172,Jess Road,Whakamarama,
1834801,8051,Jet Place,Harewood,Christchurch
1810307,3015,Jet Place,Pukehangi,Rotorua
1795248,5889,Jetty Road,Castlepoint,Tinui
1780015,8971,Jetty Road,"Governors Bay,Lyttelton Harbour/Whakaraupo",Governors Bay
1775198,9230,Jetty Street,Balclutha,
1772322,9016,Jetty Street,Dunedin Central,Dunedin
1774837,9372,Jetty Street,Glenorchy,
1775840,9793,Jetty Street,Kingston,
1778670,9822,Jetty Street,Riverton/Aparima,
1781997,7999,Jeune Street,Lake Tekapo,
1803576,0614,Jever Place,Massey,Auckland
3079266,3187,Jewels Lane,Papamoa,
3001579,9782,Jewitt Road,"Hedgehope,Hokonui","Invercargill,Winton"
1811155,3791,Jew Road,Ngaruawahia,
1800504,6023,Jeypore Street,Berhampore,Wellington
1841196,0614,Jezero Drive,Massey,Auckland
1821204,0984,J Farmer Road,Tauhoa,Wellsford
1821198,0985,J Greenwood Road,Leigh,
3058598,4281,JG Wilson Drive,Waipukurau,
1826866,2684,J Hull Road,Manukau Heads,Awhitu
1799502,4410,Jickell Street,Hokowhitu,Palmerston North
1787805,7771,Jig Road,Mount Somers,
3069922,5022,Jillett Street,Titahi Bay,Porirua
1823449,0612,Jillian Drive,Ranui,Auckland
3083189,7615,Jillian Lane,Rolleston,
1829151,2102,Jill Place,Hillpark,Auckland
3077411,0272,Jills Bay Lane,Russell,
1829154,2012,Jillteresa Crescent,Half Moon Bay,Auckland
3080741,7615,Jimbo Lane,Rolleston,
1829992,2472,Jimeda Road,Pokeno,
3081633,7614,Jim Hickey Way,Rolleston,
1981293,7608,Jimmy Adams Terrace,Lincoln,
3079840,7999,Jimmys Lane,Lake Tekapo,
1805396,2022,Jimmy Ward Crescent,"Auckland Airport,Mangere",Auckland
1832107,2113,Jim Rhind Place,Pahurehure,Papakura
1819753,5512,Jim Spiers Lane,Otaki,
1771582,9371,Jims Way,Lower Shotover,Queenstown
1818705,0624,Jim Titchener Parade,"Devonport,Stanley Point",Auckland
1784120,8042,Jipcho Road,Wigram,Christchurch
1826862,2684,J Irwin Road,Awhitu,
1821205,0984,J Mason Road,Mangakura,Warkworth
1785117,7891,Joachim Street,Denniston,Westport
1838874,5810,Joan Allen Lane,Masterton,
1838457,3510,Joan Gaskell Drive,Whitianga,
1838320,0875,Joanna Lee Lane,Helensville,
1807307,3206,Joanna Place,Deanwell,Hamilton
1814880,3015,Joanne Crescent,"Mangakakahi,Pukehangi",Rotorua
1827760,2113,Joanne Place,Rosehill,Papakura
1836055,4010,Joanne Street,Lytton West,Gisborne
1831551,1022,Joan Street,Point Chevalier,Auckland
1829536,0600,Joan Stumbles Avenue,Blockhouse Bay,Auckland
1801852,5032,Joan Wallace Drive,Paraparaumu,
3066543,3210,Jobe Road,Chartwell,Hamilton
1826500,0178,Jobe Road,Maungakaramea,
1821193,0994,Joblin Road,Wainui,
1798288,5571,Joblins Road,Levin,
3084758,7571,Joblin Street,Darfield,Darfield
1839049,3112,Joblin Way,Ohauiti,Tauranga
1798659,4078,Jobson Road,Muriwai,Manutuke
1788702,7120,Jocelyn Avenue,Motueka,
1792674,5019,Jocelyn Crescent,Pinehaven,Upper Hutt
1771295,9384,Jocelyn Road,Bannockburn,Cromwell
1784702,8051,Jocelyn Street,Casebrook,Christchurch
1808132,3129,Jocelyn Street,Katikati,
1808676,3119,Jocelyn Street,Te Puke,
3080002,9024,Jocelyn Way,Mosgiel,
1838679,9300,Jock Boyd Place,Frankton,Queenstown
1832969,0230,Jock Graveson Place,Kerikeri,
3079278,7901,Jocks Terrace,Twizel,
1803800,4182,Jock Sutton Road,Te Haroto,Napier
1818614,2023,Jodie Place,Flat Bush,Auckland
1774162,9024,Joe Brown Avenue,Mosgiel,
3080374,9305,Joe Brown Drive,"Albert Town,Wanaka",Wanaka
1806126,8042,Joe Burns Place,Wigram,Christchurch
1771560,1062,Joe F Stanley Place,Otahuhu,Auckland
1785086,7891,Joel Street,Denniston,Westport
1774509,9300,Joe O'Connell Drive,Frankton,Queenstown
1807308,3204,Joffre Street,Frankton,Hamilton
1782917,8061,Johanna Lane,Dallington,Christchurch
1807309,3200,Johannes Court,Nawton,Hamilton
1840366,0910,John Andrew Drive,Warkworth,
1842407,8025,John Annan Street,Halswell,Christchurch
1811111,3771,John Avenue,Pukemiro,Ngaruawahia
1808127,3188,John Bird Road,Te Puke,
1818697,0626,John Bracken Way,"Beach Haven,Waitemata Harbour",Auckland
1835701,0794,John Brian Drive,Redvale,Auckland
3080278,8011,John Britten Lane,Riccarton,Christchurch
1841609,2019,John Broad Place,Flat Bush,Auckland
3080658,3378,Johnbrook Crescent,Wharewaka,Taupo
1832749,2016,John Brooke Crescent,East Tamaki Heights,Auckland
1840297,7920,John Bull Place,Temuka,
1841996,5024,John Burke Drive,Aotea,Porirua
3081062,2110,John Burn Road,"Papakura,Takanini","Auckland,Papakura"
1840011,8024,John Campbell Crescent,Hillmorton,Christchurch
1805922,3674,John Cotter Road,Paeroa,
1776482,9812,John Court,Heidelberg,Invercargill
1821674,0626,John Court Street,Birkenhead,Auckland
1818412,1041,John Davis Road,"Mount Roskill,New Windsor",Auckland
1821184,0932,John Dee Crescent,Red Beach,
1821925,0630,John Downs Drive,Browns Bay,Auckland
3080256,0932,John Fair Drive,"Dairy Flat,Silverdale,Wainui",
3017474,4414,John F Kennedy Drive,"Cloverlea,Milson",Palmerston North
1831215,0602,John F Kennedy Place,Glen Eden,Auckland
3051947,2014,John Gill Road,"Cockle Bay,Shelly Park",Auckland
1830107,0632,John Glenn Avenue,Rosedale,Auckland
1837282,2022,John Goulter Drive,Auckland Airport,Auckland
3079583,2110,John Gray Street,Papakura,
1816805,4312,John Guthrie Place,Merrilands,New Plymouth
3083434,5018,John Harris Way,Te Marua,Upper Hutt
1818850,2583,John Hill Road,Hunua,
1829900,2580,John Hindmarsh Road,Karaka,Papakura
3081072,8025,John Holmes Road,Halswell,Christchurch
3083585,8022,John Jameson Lane,Cracroft,Christchurch
1830428,0632,John Jennings Drive,Oteha,Auckland
1809766,3120,John Laughton Place,Whakatane,
1798366,7481,John Leith Place,Leithfield,
1829661,2013,John Lister Close,Golflands,Auckland
3083867,9371,John Macs Way,Arrowtown,
3080548,2579,John Main Drive,"Drury,Ramarama",Drury
1982166,4310,John Mana Way,Marfell,New Plymouth
1817737,3910,John Mandeno Drive,Te Kuiti,
1978378,5810,John McDonald Mews,Masterton,
1799980,3989,John McDonald Road,Tongariro Forest Park,
1841701,0112,John McGill Place,Whau Valley,Whangarei
1785965,8081,John Monck Lane,Redcliffs,Christchurch
1787593,8083,John Morel Place,Parklands,Christchurch
3078658,7614,John Morten Place,Rolleston,
1779655,7392,Johnnie Road,Balmoral,
1839042,3382,John Norrie Place,Motuoapa,
1809026,3210,Johnnybro Place,Rototuna North,Hamilton
1840972,9471,Johnny Jones Drive,Karitane,Waikouaiti
1774521,9771,John O'Groats Road,"Rankleburn,Rongahere","Clydevale,Gore"
1787722,8025,John Olliver Terrace,Halswell,Christchurch
1837239,8025,John Paterson Drive,Halswell,Christchurch
1776472,9812,John Place,Heidelberg,Invercargill
2006798,7610,John Raven Lane,Woodend,
3081174,5010,John Reynolds Square,Hutt Central,Lower Hutt
1810308,3015,John Road,Fairy Springs,Rotorua
1797360,4777,John Road,Kimbolton,
1821199,0932,John Road,Stanmore Bay,Whangaparaoa
1978665,0932,John Robey Road,Silverdale,
3019263,4295,John Ross Place,Kairakau,Elsthorpe
1832488,1071,John Rymer Place,Kohimarama,Auckland
3077496,0932,Johns Creek Crescent,Silverdale,
1841240,5022,John Seddon Drive,Elsdon,Porirua
1814081,3210,Johnsfield Place,Rototuna,Hamilton
3060876,1072,John Shaw Drive,Saint Johns,Auckland
3035327,,John Sims Drive,"Broadmeadows,Johnsonville",Wellington
1832775,0900,John Sinclair Avenue,Wellsford,
1829166,2010,Johns Lane,Pakuranga,Auckland
1785928,7410,Johnson Avenue,Amberley,
1813431,3225,Johnson Drive,Raglan,
1829543,0204,Johnson Lane,Haruru,
1775533,9300,Johnson Place,Queenstown,
3081703,0993,Johnson Place,Stillwater,Silverdale
1826499,0582,Johnson Point Road,Waipu,
1813259,3481,Johnson Road,Arapuni,Putaruru
1784909,7476,Johnson Road,Eyrewell,West Eyreton
1826497,0182,Johnson Road,Hukerenui,Hikurangi
3084151,2580,Johnson Road,Karaka,Papakura
1816469,4377,Johnson Road,Mimi,Urenui
1815024,3784,Johnson Road,"Ohinewai,Waiterimu","Huntly,Waiterimu"
1809765,3192,Johnson Road,Otakiri,Whakatane
1808133,3186,Johnson Road,"Pongakawa,Pukehina",
1773013,9074,Johnson Road,Shannon,Middlemarch
1812990,3876,Johnson Road,Te Awamutu,
1830594,0391,Johnson Road,Te Kopuru,
1804474,4973,Johnson Road,Te Uri,Dannevirke
1786274,7675,Johnson Road,West Melton,
3054374,5371,Johnsons Road,"Blue Mountains,Whitemans Valley",Upper Hutt
1795438,5792,Johnsons Road,Parkvale,Carterton
1799031,4818,Johnson Street,Bulls,
1807311,3204,Johnson Street,Dinsdale,Hamilton
1946726,7630,Johnson Street,Kaiapoi,
1773520,9220,Johnson Street,Milton,
1826277,0110,Johnson Street,Onerahi,Whangarei
1805443,4977,Johnson Street,Ormondville,
1786685,8023,Johnson Street,Sydenham,Christchurch
1784271,2121,Johnson Street,Tuakau,
1804387,4210,Johnson Street,Waipawa,
3043593,5028,Johnsonville Porirua Motorway,"Aotea,Churton Park,Glenside,Grenada North,Grenada Village,Johnsonville,Kenepuru,Paparangi,Porirua City Centre,Ranui,Takapu Valley,Tawa","Porirua,Wellington"
3072054,6037,Johnsonville Road,Johnsonville,Wellington
1806209,3591,John Spear Avenue,Hahei,Whitianga
3080447,3282,John Spencer Way,"Ohaupo,Rukuhia","Hamilton,Ohaupo"
3072423,8051,Johns Road,"Belfast,Harewood,Northwood",Christchurch
3072424,,Johns Road,"Fernside,Rangiora",Rangiora
1803847,4112,Johns Road,Jervoistown,Napier
1826498,0171,Johns Road,Mata,Whangarei
1790001,7872,Johns Road,Moana,
1809762,3192,Johns Road,Rotoma,Whakatane
1816531,4388,Johns Road,Tariki,Stratford
3038772,2679,Johns Street,Patumahoe,Pukekohe
1829892,1050,John Stokes Terrace,Remuera,Auckland
3084285,9872,Johnston Close,Waihopai,Invercargill
1790426,7886,Johnston Crescent,Haast,
1810309,3015,Johnston Crescent,Hillcrest,Rotorua
1838553,4410,Johnstone Drive,Fitzherbert,Palmerston North
3003218,7175,Johnstone Loop,Tasman,Upper Moutere
1777783,9683,Johnstone Road,Drummond,Winton
1804877,4920,Johnstone Road,Woodville,
3072148,7081,Johnstones Road,Aniseed Valley,Richmond
1829150,2023,Johnstones Road,Otara,Auckland
1780926,7773,Johnstone Street,Hinds,Ashburton
1795139,5810,Johnstone Street,"Homebush,Masterton",Masterton
1824607,1022,Johnstone Street,Point Chevalier,Auckland
1780786,,Johnstone Street,Tinwald,Ashburton
1792996,5011,Johnston Grove,Taita,Lower Hutt
1809331,3112,Johnston Place,Welcome Bay,Tauranga
1837138,9230,Johnston Road,Balclutha,
1777315,9893,Johnston Road,Edendale,
1837137,9593,Johnston Road,Johnston,Lawrence
1819899,0210,Johnston Road,Kawakawa,
1790428,7881,Johnston Road,Kokatahi,
1801245,4788,Johnston Road,Marton,
1825877,1060,Johnston Road,Mount Wellington,Auckland
3036188,9630,Johnston Road,Nightcaps,
1774388,9398,Johnston Road,Patearoa,
1780931,7784,Johnston Road,Rakaia,
1813806,3981,Johnston Road,Te Kuiti,
1801485,4592,Johnston Road,Waverley,
3050445,9491,Johnstons Road,Fuchsia Creek,Oamaru
1780163,7683,Johnstons Road,Leeston,
1817144,4382,Johnston Street,Brixton,Waitara
1795494,5710,Johnston Street,Featherston,
3059847,4814,Johnston Street,Foxton,
1776022,9710,Johnston Street,Gore,
1790272,7805,Johnston Street,Greymouth,
1808128,3129,Johnston Street,Katikati,
1780161,7632,Johnston Street,Leeston,
1798185,4474,Johnston Street,Shannon,
1807046,3610,Johnston Street,Waihi,
1779781,7483,Johnston Street,Waipara,
1794514,6011,Johnston Street,Wellington Central,Wellington
1804934,4172,Johnston Way,Whakatu,Hastings
1775063,9018,John Street,Abbotsford,Dunedin
1773388,9230,John Street,Balclutha,
1790946,7201,John Street,Blenheim,
1780516,7673,John Street,Coalgate,
1777310,9791,John Street,Dipton West,
1807310,3214,John Street,Enderley,Hamilton
1774500,9679,John Street,Fiordland National Park,
1824613,1011,John Street,"Grey Lynn,Herne Bay,Ponsonby",Auckland
3008355,9812,John Street,"Heidelberg,Strathern",Invercargill
1780929,7773,John Street,Hinds,Ashburton
1798382,5510,John Street,Levin,
1821203,0982,John Street,Mahurangi East,Warkworth
1802033,4010,John Street,Mangapapa,Gisborne
1818851,2024,John Street,Mangere East,Auckland
3008372,6021,John Street,"Mount Cook,Newtown",Wellington
1780798,7700,John Street,Netherby,Ashburton
3008359,9035,John Street,Ocean View,Dunedin
1776722,9879,John Street,Otatara,Invercargill
1816970,9481,John Street,Palmerston,
1793367,5012,John Street,Petone,Lower Hutt
1827490,2120,John Street,Pukekohe,
1797086,4500,John Street,Putiki,Whanganui
1811112,3225,John Street,Raglan,
1771066,9332,John Street,Ranfurly,
1777779,9822,John Street,Riverton/Aparima,
1780162,7614,John Street,Rolleston,
1792498,5019,John Street,Stokes Valley,Lower Hutt
1812658,3330,John Street,Tauhara,Taupo
1814815,3910,John Street,Te Kuiti,
1787181,7920,John Street,Temuka,
3008376,5022,John Street,Titahi Bay,Porirua
1812298,3420,John Street,Tokoroa,
1792677,5018,John Street,Trentham,Upper Hutt
1787408,7924,John Street,Waimate,
1826276,0110,John Street,Whangarei,
1778057,9720,John Street,Winton,
1785924,7920,John Street Lane,Temuka,
1781695,7920,John Street North,Temuka,
1841620,7020,John Sutton Place,Richmond,
3025068,3216,Johnsview Terrace,"Hillcrest,Riverlea",Hamilton
3026577,5784,Johns Way,Martinborough,
1792676,5018,Johnswood Grove,Clouston Park,Upper Hutt
3084165,8051,Johnswoods Avenue,Belfast,Christchurch
1787373,7985,John Talbot Road,Temuka,
1829182,2102,John Walker Drive,Manurewa,Auckland
1813296,3206,John Webb Drive,Glenview,Hamilton
1829622,0602,John Webster Place,Glen Eden,Auckland
1789227,7020,John Wesley Lane,Richmond,
1770161,9013,John Wilson Ocean Drive,"Lawyers Head,Saint Kilda",Dunedin
1819141,0381,John Wilson Road,Tangiteroria,
1794505,6035,John Witton Drive,Crofton Downs,Wellington
1841750,8052,Joiners Lane,Northcote,Christchurch
3081670,3214,Joint Avenue,Chartwell,Hamilton
3081441,3076,Jojos Way,Lynmore,Rotorua
1770905,9320,Jolendale Road,Bridge Hill,Alexandra
3082022,9024,Jollie Lane,East Taieri,Mosgiel
1831952,2583,Jollie Road,Hunua,
1781998,7901,Jollie Road,Twizel,
1779660,7334,Jollies Pass Road,"Hanmer Forest,Hanmer Springs,Saint James Range",Hanmer Springs
1785739,7683,Jollies Road,Southbridge,
1786326,7774,Jollie Street,Eiffelton,Ashburton
1781249,7930,Jollie Street,Geraldine,
1790688,7810,Jollie Street,Hokitika,
1782916,8062,Jollie Street,Linwood,Christchurch
1788193,7010,Jollie Street,Marybank,Nelson
1781332,7992,Jollie Street,Rangitata,Geraldine
1779662,7334,Jolliffe Road,Hanmer Springs,
1805158,4130,Joll Road,Havelock North,
3048651,4598,Joll Road,"Hurleyville,Kakaramea",Patea
1794506,6012,Joll Street,Karori,Wellington
1816468,4320,Joll Street,Waitara,
1809764,3079,Jolly Road,Galatea,Murupara
1771294,9383,Jolly Road,Tarras,Cromwell
1770945,9310,Jollys Road,Cromwell,
1807313,3204,Jolly Street,Frankton,Hamilton
1825873,1062,Jolson Road,Mount Wellington,Auckland
1827957,2014,Jolyn Place,Cockle Bay,Auckland
1841037,1026,Jomac Place,Avondale,Auckland
1839065,0632,Jomard Terrace,Northcross,Auckland
3077836,2676,Jonah Lomu Drive,"Karaka,Paerata","Papakura,Pukekohe"
1817672,4598,Jonas Street,Kakaramea,Patea
1786473,7910,Jonas Street,Waimataitai,Timaru
1815170,3411,Jonathan Place,Putaruru,
1933720,7020,Jonathan Place,Richmond,
1822575,0620,Jonathan Place,Sunnynook,Auckland
1794499,6037,Jonathan Way,Paparangi,Wellington
1809327,3110,Jonathon Street,"Brookfield,Judea",Tauranga
1815094,3472,Jondor Road,Matamata,
3033968,9304,Jones Avenue,"Lake Hayes,Lower Shotover",Queenstown
3044069,7891,Jones Creek Road,Birchfield,Westport
1807314,3206,Jones Crescent,Melville,Hamilton
3037008,5381,Jones Deviation,Pauatahanui,Porirua
1813260,3481,Jones Landing Road,Arapuni,Putaruru
1790270,7805,Jones Lane,Greymouth,
1799503,4412,Jones Place,Highbury,Palmerston North
1795136,5810,Jones Place,Masterton,
1791576,7201,Jones Place,Springlands,Blenheim
1809760,3191,Jones Road,"Awakeri,Coastlands",Whakatane
3002336,7591,Jones Road,"Birdlings Flat,Prices Valley",Little River
1818620,2583,Jones Road,"Clevedon,Hunua",
1830593,0376,Jones Road,Donnellys Crossing,
1780927,7773,Jones Road,Ealing,Ashburton
1775122,9471,Jones Road,Evansdale,Waikouaiti
1770394,9483,Jones Road,Glenpark,Palmerston
1788695,7095,Jones Road,Golden Downs,Wakefield
1791040,7273,Jones Road,Grovetown,Blenheim
1811961,3482,Jones Road,Lichfield,Putaruru
1771296,9387,Jones Road,"Moa Creek,Poolburn","Moa Creek,Oturehua"
3002347,0986,Jones Road,"Point Wells,Tawharanui Peninsula","Matakana,Point Wells"
1804475,4293,Jones Road,Porangahau,
3002337,,Jones Road,"Rolleston,Templeton","Christchurch,Rolleston"
1773010,9074,Jones Road,Shannon,Middlemarch
1799033,4795,Jones Road,Taihape,
1788696,7096,Jones Road,Tapawera,Wakefield
1815368,3998,Jones Road,Waimiha,
1772320,9016,Jones Street,Dunedin Central,Dunedin
1797771,4900,Jones Street,Eketahuna,
1809328,3112,Jones Street,Gate Pa,Tauranga
1785034,7630,Jones Street,Kaiapoi,
1804478,4293,Jones Street,Porangahau,
1812518,4394,Jones Street,Tariki,Stratford
1811570,3401,Jones Street,Waharoa,
1775123,9510,Jones Street,Waikouaiti,
1796925,4500,Jones Street,Whanganui East,Whanganui
1817388,3114,Jones Way,Omokoroa,
1821190,0782,Jonkers Road,Waitakere,Auckland
1789349,7096,Jonny Road,Spooners Range,Wakefield
1839300,4702,Jono Court,Feilding,
3073387,7883,Jon Olson Road,Totara River,Ross
1815938,3285,Jon Roe Drive,Whatawhata,Hamilton
3044755,7991,Jonsen Road,"Kakahu,Woodbury",Geraldine
1829172,2019,Jontue Place,Clover Park,Auckland
1829950,1051,Jopard Place,Ellerslie,Auckland
1817002,9302,Jopp Street,Arrowtown,
1831706,1061,Jordan Avenue,Onehunga,Auckland
1780799,7700,Jordan Avenue,Tinwald,Ashburton
1815143,3410,Jordan Place,Tirau,
1819893,0473,Jordan Road,"Kaikohe,Taheke",Kaikohe
1821191,0984,Jordan Road,Kaukapakapa,
1829167,2022,Jordan Road,Mangere,Auckland
1840501,5791,Jordan Road,Waingawa,Carterton
1825956,0114,Jordan Street,Hikurangi,
3029652,6023,Jordan Street,Island Bay,Wellington
1841415,7630,Jordan Street,Kaiapoi,
1836878,0505,Jordan Street,Mangawhai Heads,Mangawhai
1810908,3720,Jordan Street,Ngaruawahia,
1782906,8023,Jordan Street,Sydenham,Christchurch
1809336,3110,Jordan Street,Tauranga,
1795137,5810,Jordan Terrace,Lansdowne,Masterton
1825957,0185,Jordan Valley Road,"Hikurangi,Ruatangata West","Hikurangi,Whangarei"
1801834,4414,Jordan Way,Kelvin Grove,Palmerston North
1792062,5024,Joseph Banks Drive,Whitby,Porirua
1829828,1050,Joseph Banks Terrace,Remuera,Auckland
1832634,0782,Joseph Dunstan Drive,Taupaki,
1792680,5018,Joseph Grove,Elderslea,Upper Hutt
3025133,2022,Joseph Hammond Road,"Auckland Airport,Mangere",Auckland
1842018,8025,Josephine Crescent,Aidanfield,Christchurch
3079588,3114,Josephine Place,Omokoroa,
1833844,3782,Josephine Place,Te Kauwhata,
1772313,9012,Josephine Street,Caversham,Dunedin
1790271,7805,Josephine Street,Greymouth,
3077815,0614,Joseph Kokich Avenue,Swanson,Auckland
1816874,3210,Joseph Lovett Lane,Flagstaff,Hamilton
3056307,0618,Joseph McDonald Drive,Whenuapai,Auckland
1806211,3592,Joseph Road,Wharekaho,Whitianga
1789980,7005,Joseph Senior Way,Ruby Bay,Mapua
1841616,2019,Joseph Street,Flat Bush,Auckland
1778351,9710,Joseph Street,Gore,
1804832,4970,Joseph Street,Herbertville,
3060986,4412,Joseph Street,"Palmerston North,West End",Palmerston North
1811119,3771,Joseph Street,Pukemiro,Ngaruawahia
1791043,7202,Joseph Street,Spring Creek,
1775225,9091,Joseph Street,Taieri Beach,Taieri Mouth
1776547,9810,Joseph Street,Waverley,Invercargill
1839563,9779,Josephville Glenure Road,"Glenure,Josephville",Balfour
1839556,9794,Josephville Glenure Road North,Josephville,Balfour
1839568,9779,Josephville Saint Patricks Road,"Josephville,St Patricks",Balfour
1945367,0810,Josh Road,Huapai,Kumeu
3078702,0616,Joshua Carder Drive,Hobsonville,Auckland
1813744,3216,Joshua Lane,Hamilton East,Hamilton
1786352,4010,Joshua Lane,Lytton West,Gisborne
1838099,4312,Joshua Place,Bell Block,New Plymouth
1838438,9010,Joshua Place,Helensburgh,Dunedin
1815724,3330,Joshua Place,Rangatira Park,Taupo
1837368,7675,Joshua Place,West Melton,
1829153,2103,Joshua Place,Weymouth,Auckland
1838448,2102,Josie Lane,Manurewa,Auckland
3081121,5018,Josland Lane,Wallaceville,Upper Hutt
3081312,7630,Joslen Way,Kaiapoi,
3004168,0185,Jounneaux Road,Te Kamo,Whangarei
3081729,3800,Jourdain Place,Kihikihi,Te Awamutu
1821200,0977,Journeys End,Tapora,
1829158,2104,Joval Place,Wiri,Auckland
1839856,7612,Jove Drive,Pegasus,
1780653,7676,Jowers Road,"Templeton,West Melton","Christchurch,West Melton"
1834713,0873,Jowsey Access Road,Tahekeroa,Warkworth
1832466,0883,Joyce Adams Place,Waimauku,
1772315,9012,Joyce Avenue,South Dunedin,Dunedin
1790679,7805,Joyce Crescent,Greymouth,
1784705,8041,Joyce Crescent,Ilam,Christchurch
3081531,3591,Joyce Harsant Place,Cooks Beach,Whitianga
1817387,3114,Joyce Place,Omokoroa,
3080936,3592,Joyce Place,Opito Bay,Whitianga
1840890,7020,Joyce Place,Richmond,
1819107,0376,Joyce Road,Donnellys Crossing,
1774691,9410,Joyce Road,Hampden,
1808129,3173,Joyce Road,Pyes Pa,Tauranga
1819895,0200,Joyces Road,Paihia,
1779979,8082,Joyce Street,Lyttelton,
1827757,2113,Joyce Street,Pahurehure,Papakura
1831009,0932,Joydon Place,Stanmore Bay,Whangaparaoa
1775646,9273,Joy Hill Road,Romahapa,Balclutha
1808124,3176,Joynt Road,Minden,Tauranga
3005835,7475,Joy Place,Ohoka,
1856044,7614,Joy Place,Rolleston,
1833007,0632,Joy Street,Albany Heights,Auckland
1840576,9400,Joy Street,Oamaru,
1782908,8061,Joy Street,Shirley,Christchurch
1785823,7614,Jozecom Place,Rolleston,
1826867,2684,J Renall Road,Pollok,
1820743,0981,J Tolhopf Road,"Makarau,Puhoi",Warkworth
1830951,0994,J Turnwald Road,Puhoi,Warkworth
1790371,7883,Juan Road,Ruatapu,
1830032,0610,Jubaea Place,Henderson,Auckland
1776213,9772,Jubilee Avenue,Charlton,Gore
1821872,0624,Jubilee Avenue,Devonport,Auckland
1825440,1061,Jubilee Avenue,Onehunga,Auckland
1811940,3320,Jubilee Avenue,Te Aroha,
1799787,4410,Jubilee Court,Palmerston North,
1791513,7275,Jubilee Creek Road,North Bank,Wairau Valley
1809761,3120,Jubilee Crescent,Whakatane,
1813334,3112,Jubilee Drive,Gate Pa,Tauranga
1806212,3579,Jubilee Drive,Pauanui,
1777780,9682,Jubilee Hill Road,"Bald Hill,Otautau","Otautau,Riverton/Aparima"
1786098,7395,Jubilee Road,Hanmer Forest,Hanmer Springs
3059251,0181,Jubilee Road,"Hikurangi,Opuawhanga",Hikurangi
1794521,6035,Jubilee Road,Khandallah,Wellington
1788698,7175,Jubilee Road,Lower Moutere,
1786031,7582,Jubilee Road,"Peraki,Wainui","French Farm,Little River"
1805913,3415,Jubilee Street,Arapuni,Putaruru
3039197,9011,Jubilee Street,"Belleknowes,Mornington",Dunedin
1803338,4122,Jubilee Street,Mayfair,Hastings
1782910,8023,Jubilee Street,Woolston,Christchurch
1779735,7011,Jubilee Way,Tahunanui,Nelson
3079427,9384,Judare Drive,Lowburn,Cromwell
1792998,5011,Judd Crescent,Naenae,Lower Hutt
1812829,3494,Judd Lane,Maungatautari,Cambridge
3083035,7614,Judd Lane,Rolleston,
1832518,0931,Judd Place,Orewa,
1830675,0520,Judd Road,Maungaturoto,
1798690,4072,Judd Road,Waituhi,Gisborne
1801443,5772,Judds Road,"Kahutara,Lake Wairarapa",Kahutara
1801436,5810,Judds Road,Solway,Masterton
1802028,4010,Judd Street,Te Hapara,Gisborne
3064191,3110,Judea Road,"Brookfield,Judea",Tauranga
1814393,3200,Judena Place,Pukete,Hamilton
1796315,3110,Jude Place,Brookfield,Tauranga
1829719,0573,Jude Road,Mangawhai,
1838036,9371,Judes Lane,Lower Shotover,Queenstown
1840447,3110,Jude Way,Brookfield,Tauranga
1841942,9304,Judge and Jury Drive,Lake Hayes,Queenstown
1838282,2584,Judge Richardson Drive,Opaheke,Papakura
1812986,3879,Judge Road,Rotoorangi,Cambridge
1776721,9812,Judge Road,Tisbury,Invercargill
1824608,1052,Judges Bay Road,Parnell,Auckland
1803057,4198,Judges Parade,Mahia,
1831552,1052,Judge Street,Parnell,Auckland
1782907,8023,Judge Street,Woolston,Christchurch
1840275,2120,Judith Anne Drive,Pukekohe,
1810310,3010,Judith Place,Owhata,Rotorua
1823443,0604,Judith Place,Titirangi,Auckland
1832141,2014,Judkins Crescent,Cockle Bay,Auckland
1805283,4112,Judson Place,Taradale,Napier
1785177,7691,Judsons Road,Woodend,
3084396,4581,Juji Nakada Rise,Ratana,Whanganui
1829160,2023,Jukes Place,Otara,Auckland
1835001,4312,Jules Crescent,Bell Block,New Plymouth
1809334,3110,Jules Way,Otumoetai,Tauranga
3077719,7614,Julia Close,Rolleston,
1799510,4412,Juliana Place,Awapuni,Palmerston North
1832943,0602,Juliana Way,Glendene,Auckland
1829183,2023,Julian Place,Otara,Auckland
1816817,4310,Julian Place,Westown,New Plymouth
3012114,0491,Julian Road,"Hokianga Harbour,Mangamuka",Okaihau
1809833,3127,Julian Road,Kawerau,
1815636,3691,Julian Road,Onemana,Whangamata
1817327,4381,Julian Road,Warea,
1817395,4322,Julian Street,Eltham,
1824616,1021,Julian Street,Grey Lynn,Auckland
1812551,4392,Julian Street,Huiroa,Stratford
1790947,7201,Julian Street,Redwoodtown,Blenheim
1809933,3910,Julian Street,Te Kuiti,
1793542,5028,Julia Place,Tawa,Wellington
1822577,0629,Julia Place,Totara Vale,Auckland
1797857,4910,Julia Street,Pahiatua,
1824171,2018,Julia Way,Beachlands,Auckland
3072915,3210,Julie Court,Chedworth,Hamilton
3081835,3118,Julie Lane,Papamoa,
1815384,3330,Julies Way,Rangatira Park,Taupo
1827956,2014,Juliet Avenue,Howick,Auckland
1822580,0620,Juliet Place,Forrest Hill,Auckland
1787816,7614,Juliet Place,Rolleston,
1817938,4332,Juliet Street,Stratford,
3082418,0573,Julie Wood Walk,Mangawhai Heads,Mangawhai
1779255,7520,Julius Place,Akaroa,
3078518,7020,Julius Place,Richmond,
1782921,8013,Julius Terrace,Richmond,Christchurch
1804480,4200,Jull Crescent,Waipukurau,
1781329,7992,Julloch Road,Orari,Temuka
1804006,4110,Jull Street,Napier South,Napier
1798191,4821,Julyan Street,Shannon,
1818567,0632,Jumento Place,Unsworth Heights,Auckland
1831393,0587,Jumna Road,Maungaturoto,
1774396,9310,Junction Court,Cromwell,
3084403,9382,Junction Road,"Albert Town,Wanaka",Wanaka
3073614,4371,Junction Road,"Burgess Park,Egmont Village,Inglewood,Mangorei,Welbourn","Egmont Village,Inglewood,New Plymouth"
1797632,4777,Junction Road,Halcombe,
1787250,7773,Junction Road,Hinds,Ashburton
3073613,4395,Junction Road,"Matau,Pohokura",Stratford
1808130,3176,Junction Road,Minden,Tauranga
3073617,1081,Junction Road,"Oneroa,Palm Beach",Waiheke Island
1806981,3600,Junction Road,Paeroa,
1797085,4578,Junction Road,Paparangi,Whanganui
1772312,9022,Junction Road,Ravensbourne,Dunedin
1780517,7681,Junction Road,Springfield,
1800966,4777,Junction Road North,Kimbolton,
1797633,4779,Junction Road West,Halcombe,
1800206,5011,Junction Street,Fairfield,Lower Hutt
3019155,,Junction Street,"Highlands Park,Vogeltown,Welbourn",New Plymouth
1812132,3411,Junction Street,Putaruru,
1788540,7110,Junction Street,Takaka,
1823446,0602,Juneau Place,Glendene,Auckland
1838597,8051,June Gardens,Northwood,Christchurch
1807315,3216,June Place,Hamilton East,Hamilton
1821921,0630,June Place,Torbay,Auckland
1781704,7910,June Street,Highfield,Timaru
1836681,9320,Juniper Close,Alexandra,
3082283,2113,Juniper Drive,Rosehill,Papakura
1832740,0484,Juniper Lane,Pukenui,
1784701,8053,Juniper Place,Burnside,Christchurch
1774350,9300,Juniper Place,Frankton,Queenstown
1822633,0620,Juniper Road,Sunnynook,Auckland
1835691,7020,Juniper Street,Richmond,
3082084,7630,Juniper Way,Kaiapoi,
1837161,7604,Juniper Way,Prebbleton,
1792200,5024,Juno Lane,Cannons Creek,Porirua
1837129,9305,Juno Place,Wanaka,
1778580,9793,Juno Street,Lumsden,
1792679,5018,Jupiter Grove,Trentham,Upper Hutt
1799501,4414,Jupiter Street,Milson,Palmerston North
1827759,2113,Jupiter Street,Rosehill,Papakura
1816467,4383,Jupp Street,Tikorangi,Waitara
1785538,8062,Jura Court,Woolston,Christchurch
1841932,0932,Jura Landing,Silverdale,
1782900,8062,Jura Place,Woolston,Christchurch
1773525,9073,Jura Road,Berwick Forest,Outram
1771578,9372,Jura Street,Kinloch,Glenorchy
1773523,9220,Jura Street,Milton,
1774978,9010,Jura Street,North East Valley,Dunedin
1805959,3994,Jurgen Road,Taringamotu,
1815865,3579,Jury Lane,Pauanui,
3081575,7610,Jury Lane,Woodend,
1832369,2024,Jury Place,Favona,Auckland
1833234,0479,Jury Road,Kaeo,
3043323,4392,Jury Road,"Makahu,Pohokura,Te Wera",Stratford
1810857,3290,Jury Road,Ngahinapouri,Ohaupo
1779783,7483,Jurys Road,"Omihi,Scargill","Waikari,Waipara"
1770946,9310,Jus Street,Cromwell,
1832370,2103,Justamere Place,Weymouth,Auckland
3072276,4820,Justice Place,Linton,Palmerston North
2016648,7678,Justine Drive,Rolleston,
1792201,5024,Justine Street,Cannons Creek,Porirua
1808860,3116,Justine Way,Mount Maunganui,
1831338,0610,Justin Place,Te Atatu Peninsula,Auckland
1802032,4010,Justin Street,Mangapapa,Gisborne
1805505,3579,Justintime,Pauanui,
3035351,4410,Just Place,West End,Palmerston North
1822627,0622,Jutland Road,"Hauraki,Shoal Bay",Auckland
1829165,2102,Jutland Road,Manurewa,Auckland
1832057,2120,Jutland Road,Pukekohe,
1772324,9016,Jutland Street,Dunedin Central,Dunedin
1821919,0630,Jutland Street,"Mairangi Bay,Murrays Bay",Auckland
3024902,8083,Jutland Street,North New Brighton,Christchurch
1792997,5011,Jutland Street,Waterloo,Lower Hutt
1832374,2019,Juvena Place,Clover Park,Auckland
3019001,0973,J V Grant Road,"Wellsford,Wharehine",Wellsford
