road_id,postcode,name,locality,city
1812666,3492,Kaahu Road,"Marotiri,Whakamaru","Mangakino,Taupo"
3078968,2113,Kaakahoa Road,Karaka,Papakura
3081900,3218,Kaakano Lane,Temple View,Hamilton
3079905,3434,Kaaka Street,Cambridge,
1827731,2103,Kaanapali Place,Wattle Downs,Auckland
3083197,2578,Kaapehu Street,Karaka,Papakura
3083529,2022,Kaaramuramu Lane,Mangere Bridge,Auckland
3082393,2578,Kaauka Close,Karaka,Papakura
1808163,3772,Kaawa School Road,Glen Murray,Onewhero
1849482,2113,Kabardin Street,Karaka,Papakura
1794518,6035,Kabul Street,Khandallah,Wellington
1781333,7903,Kabul Street,Pleasant Point,
1803058,4108,Kabul Street,Wairoa,
1837256,3800,Kacey Avenue,Te Awamutu,
1829164,2010,Kadina Place,Botany Downs,Auckland
1810272,3979,Kaeaea Road,Aria,
3080570,2578,Kaea Lane,Karaka,Papakura
1808321,0505,Kagan Avenue,Mangawhai,
3082362,0616,Kahakaha Lane,Hobsonville,Auckland
3083643,2113,Kahakaha Lane,Rosehill,Papakura
3080147,3791,Kahakaha Place,Ngaruawahia,
3080359,0612,Kaha Lane,Henderson,Auckland
1830049,0618,Kahala Place,West Harbour,Auckland
1830732,0272,Kaha Place,Russell,
1808125,3114,Kaharoa Avenue,Omokoroa,
3081146,2110,Kaha Road,"Papakura,Takanini","Auckland,Papakura"
3037069,3096,Kaharoa Road,"Hamurana,Okere Falls","Hamurana,Rotorua"
1817659,4597,Kaharoa Road,Patea,
1811120,3295,Kaharoa Road,Waitetuna,Raglan
1796620,4691,Kaha Street,Rangataua,Ohakune
3080700,3173,Kahawai Close,Pyes Pa,Tauranga
3079510,3114,Kahawai Place,Omokoroa,
1844115,2571,Kahawairahi Drive,Beachlands,Auckland
1803059,4198,Kahawai Street,Mahia,
1834248,0792,Kahia Lane,Redvale,Auckland
1792202,5022,Kahika Grove,"Elsdon,Takapuwahia",Porirua
3073303,0810,Kahika Grove,Huapai,Kumeu
3081969,8025,Kahika Lane,Westmorland,Christchurch
3028085,0626,Kahika Road,"Birkdale,Waitemata Harbour",Auckland
3028084,4181,Kahika Road,"Putorino,Tutira","Kotemaori,Napier"
1773011,9082,Kahika Street,Aramoana,Port Chalmers
3069515,7281,Kahikatea Bay,"Curious Cove,Kahikatea Bay,Whatamango Bay",Picton
1837802,0630,Kahikatea Close,Campbells Bay,Auckland
3082397,2578,Kahikatea Court,Karaka,Papakura
1811556,3400,Kahikatea Crescent,Matamata,
3036604,,Kahikatea Drive,"Dinsdale,Frankton,Hamilton Lake,Melville",Hamilton
3083723,9710,Kahikatea Drive,East Gore,Gore
3078278,3377,Kahikatea Drive,Kinloch,Taupo
1833016,0179,Kahikatea Drive,Poroti,Whangarei
3001933,0871,Kahikatea Flat Road,"Dairy Flat,Kaukapakapa,Waitoki",
1794503,6037,Kahikatea Grove,Paparangi,Wellington
1842337,4625,Kahikatea Lane,Ohakune,
1839845,7612,Kahikatea Lane,Pegasus,
1787591,8011,Kahikatea Lane,Riccarton,Christchurch
3008710,7875,Kahikatea Place,Kumara Junction,Greymouth
1791783,5512,Kahikatea Place,Otaki,
1823452,0612,Kahikatea Place,Ranui,Auckland
1788697,7096,Kahikatea Road,Tapawera,Wakefield
1795170,5886,Kahikatea Road,Te Ore Ore,Masterton
1838911,0230,Kahikatearoa Lane,Waipapa,
1810311,3010,Kahikatea Street,Glenholme,Rotorua
1816529,4330,Kahikatea Street,Inglewood,
1809400,3025,Kahikatea Street,Murupara,
3079811,0510,Kahikatea Tree Lane,Waipu,
3080886,7020,Kahikatea Way,Appleby,Richmond
3084421,3112,Kahikatea Way,Gate Pa,Tauranga
1813935,3382,Kahikatoa Lane,Hatepe,Turangi
3063101,0476,Kahikatoa Road,Umawera,Okaihau
1815626,3118,Kahira Crescent,Papamoa Beach,Papamoa
3082801,9304,Kahiwi Drive,Lower Shotover,Queenstown
2013412,0618,Kahiwi Lane,Whenuapai,Auckland
3082972,8025,Kahiwi Place,Kennedys Bush,Christchurch
1826271,0110,Kahiwi Street,Raumanga,Whangarei
1807919,3877,Kahorekau Road,Wharepapa South,Te Awamutu
1812663,3382,Kahotea Drive,Motuoapa,
3078043,3118,Kahotea Place,Papamoa Beach,Papamoa
1814508,3973,Kahotea Road,Otorohanga,
1812553,4394,Kahouri Road,Midhirst,Stratford
1933737,7197,Kahu Close,Kaiteriteri,Motueka
1951571,0931,Kahu Close,Orewa,
1841334,9305,Kahu Close,Wanaka,
1842038,3200,Kahu Crescent,Te Rapa Park,Hamilton
3083945,3510,Kahu Crescent,Whitianga,
1840957,0505,Kahu Drive,Mangawhai,
1976900,3074,Kahuera Road,Okere Falls,Rotorua
1811154,3287,Kahui Avenue,Tauwhare,Hamilton
3008267,9586,Kahuika School Road,"Maclennan,Tahakopa",Owaka
3079615,2578,Kahui Parade,Karaka,Papakura
3079228,0118,Kahukaka Road,One Tree Point,Whangarei
1798182,5510,Kahukura Avenue,Waitarere Beach,Levin
3080140,8042,Kahukura Road,"Broomfield,Hei Hei",Christchurch
1802813,4087,Kahukura Street,Te Araroa,
3081427,3176,Kahu Lane,Minden,Tauranga
3082814,9393,Kahu Lane,Springvale,Alexandra
3009501,3173,Kahuparere Crescent,Pyes Pa,Tauranga
1839860,7612,Kahuraki Drive,Pegasus,
3045852,,Kahuranaki Road,"Elsthorpe,Kahuranaki,Tuki Tuki","Elsthorpe,Havelock North,Kahuranaki"
1810313,3010,Kahurangi Drive,Lynmore,Rotorua
1812668,3330,Kahurangi Drive,Rangatira Park,Taupo
1798203,5024,Kahurangi Heights,Aotea,Porirua
3082428,4130,Kahurangi Lane,Havelock North,
1984786,0573,Kahurangi Lane,Mangawhai,
1829176,2102,Kahurangi Place,Hillpark,Auckland
1821561,0920,Kahurangi Place,Snells Beach,
3082819,8025,Kahurangi Road,Halswell,Christchurch
3077409,3110,Kahurangi Way,Bethlehem,Tauranga
1842590,3334,Kahurau Drive,Turangi,
3083415,9091,Kahu Ridge Road,Taieri Beach,Taieri Mouth
1784706,8041,Kahu Road,"Fendalton,Riccarton",Christchurch
1800766,5036,Kahu Road,Otaihanga,Paraparaumu
1825874,1072,Kahu Road,Panmure,Auckland
1800051,5024,Kahu Road,Paremata,Porirua
1831997,2683,Kahu Road,Pollok,
1786249,7600,Kahu Street,Burnham,
1829169,2024,Kahu Street,Favona,Auckland
1812669,3421,Kahu Street,Mangakino,
1816300,3995,Kahu Street,Matiere,
1816299,3926,Kahu Street,Ohura,
1839850,7612,Kahu Street,Pegasus,
1781328,7920,Kahu Street,Temuka,
1812299,3420,Kahu Street,Tokoroa,
1810312,3015,Kahu Street,Utuhina,Rotorua
3043395,,Kahutara Road,"Kahutara,Pirinoa,Tauwharenikau","Kahutara,Pirinoa,Tauherenikau"
3010049,5022,Kahutea Terrace,Titahi Bay,Porirua
1795970,4472,Kahuterawa Road,"Linton,Turitea",Palmerston North
1802031,4010,Kahutia Street,Gisborne,
1799238,7272,Kahu Way,Hawkesbury,Renwick
1830730,0281,Kahuwera Road,Motatau,Kawakawa
1812984,3879,Kahuwera Road,Parawera,
1809934,3981,Kahuwera Road,"Piopio,Te Mapara","Piopio,Te Kuiti"
3080862,5024,Kaiaho Close,Aotea,Porirua
3071199,7282,Kaiaho Point,"Kaiaho Point,Take in Bay",Marlborough Sounds
3084832,3218,Kaiako Lane,Temple View,Hamilton
1836100,4104,Kaiangaroa Place,Bay View,Napier
3085070,2577,Kaiao Loop,Drury,Drury
3084860,0792,Kaiao Place,Long Bay,Auckland
3066597,7473,Kaiapoi Pa Road,"Pegasus,Waikuku,Waikuku Beach",
1812574,4394,Kaiapoi Road,Midhirst,Stratford
1812654,3385,Kaiapo Road,Acacia Bay,Taupo
1805044,4120,Kaiapo Road,Camberley,Hastings
3012496,0991,Kaiaraara Bay Road,Great Barrier Island (Aotea Island),
1840594,7805,Kaiata Park Drive,Kaiata,Greymouth
1789999,7805,Kaiata Road,Kaiata,Greymouth
3068864,0173,Kaiatea Road,"Matapouri,Ngunguru",Whangarei
1837477,3175,Kaiate Falls Road,Waitao,Tauranga
1830452,0112,Kaiaua Lane,Te Kamo,Whangarei
1802707,4077,Kaiaua Road,"Anaura Bay,Tolaga Bay","Tokomaru Bay,Tolaga Bay"
3032295,2473,Kaiaua Road,"Kaiaua,Mangatangi","Kaiaua,Mangatawhiri"
1954641,2571,Kaiawa Street,Beachlands,Auckland
1820562,0481,Kaiawe Road,Kaitaia,
1837413,3173,Kaiawha Road,Oropi,
1802320,4079,Kaiawha Road,Tokomaru Bay,
3083344,2579,Kaihaukai Lane,Ramarama,Drury
1827143,2683,Kaihau Road,Karioitahi,Waiuku
3052588,,Kaihere Road,"Kaihere,Ngatea",Ngatea
1817826,4381,Kaihihi Road Lower,Okato,
1817827,4335,Kaihihi Road Upper,Okato,
1773760,9271,Kaihika Street,Kaka Point,
3060129,9273,Kaihiku Church Road,"Kaihiku,Waiwera South","Balclutha,Clinton"
3072924,9273,Kaihiku Road,"Kaihiku,Waiwera South","Balclutha,Clinton"
1798190,4474,Kaihinau Road,Shannon,
3079283,1062,Kaihoe Lane,Mount Wellington,Auckland
1788539,7073,Kaihoka Lakes Road,"Kahurangi National Park,Kaihoka","Collingwood,Kahurangi National Park"
1812653,3330,Kaihua Road,Nukuhau,Taupo
2005286,2022,Kaihua Terrace,Mangere Bridge,Auckland
1803060,4198,Kaihue Street,Nuhaka,
1837470,5571,Kaihuia Grove,Levin,
3081204,2582,Kaihuia Lane,Clevedon,
3081919,0604,Kaihuia Lane,Oratia,Auckland
1794498,6012,Kaihuia Street,Northland,Wellington
1800502,6012,Kaihuia Terrace,Northland,Wellington
1819104,0379,Kaihu Station Road,Kaihu,
1822173,0627,Kaihu Street,Northcote,Auckland
1819139,0379,Kaihu Wood Road,Kaihu,
3073319,0181,Kaiikanui Road,"Helena Bay,Opuawhanga",Hikurangi
3080830,3710,Kai Ika Street,Te Kauwhata,
1819101,0373,Kai Iwi Lakes Road,Omamari,Dargaville
1797081,4574,Kai Iwi Valley Road,Kai Iwi,Whanganui
3036961,3671,Kaikahu Road,Kerepehi,Paeroa
1806796,3671,Kaikahu Road North,Kerepehi,Paeroa
1836399,8051,Kaikainui Lane,Northwood,Christchurch
1785038,7630,Kaikanui Street,Kaiapoi,
3083274,2019,Kaikape Lane,Flat Bush,Auckland
3017759,3991,Kaikara Road,"Aukopae,Tokirima","Ohura,Taumarunui"
3077600,7020,Kaikari Lane,Richmond,
1770668,9482,Kaika Road,Moeraki,
3063503,0484,Kaikatia Road,"Houhora,Pukenui",Pukenui
3080019,0600,Kaikawaka Lane,New Lynn,Auckland
3082842,3289,Kaikeri Way,Baverstock,Hamilton
3038660,3997,Kaikimotu Road,"Ongarue,Pureora Forest Park,Waimiha",
3035265,0376,Kaikohe Road,Donnellys Crossing,
3050028,,Kaikokopu Road,"Aramoho,Brunswick","Brunswick,Whanganui"
3050029,3074,Kaikokopu Road,"Okere Falls,Pongakawa","Pongakawa,Rotorua"
1808131,3189,Kaikokopu Road,Pongakawa,
3083143,3771,Kaikomako Drive,Ngaruawahia,
1785422,8082,Kaikomako Place,Cass Bay,Lyttelton
1798179,5036,Kaikomako Road,Waikanae,
3025941,,Kaikorai Valley Road,"Bradford,Burnside,Glenross,Kaikorai,Kenmure",Dunedin
3049761,0991,Kaikoura Island,"Bradshaw Cove,Hauraki Gulf / Tikapa Moana,Kaikoura Island / Selwyn Island,Port Abercrombie,Port Fitzroy",
1801540,5013,Kaikoura Path,Lowry Bay,Lower Hutt
1809381,4392,Kaikoura Road,Huiroa,Stratford
1826494,0172,Kaikoura Road,Pakotai,Whangarei
1831337,0612,Kaikoura Street,Henderson,Auckland
1794502,6022,Kaikoura Street,Maupuia,Wellington
1785519,8081,Kaikoura View,Mount Pleasant,Christchurch
1770667,9493,Kaik Road,Waitaki Bridge,
3081589,2585,Kaimahi Rise,Clevedon,
1822629,0627,Kaimahi Road,Wairau Valley,Auckland
3080066,0614,Kaimai Avenue,Massey,Auckland
1811561,3400,Kaimai Drive,Matamata,
3083028,7924,Kaimai Lane,Waimate,
1840354,5024,Kaimai Place,Aotea,Porirua
1809332,3112,Kaimai Place,Hairini,Tauranga
3042650,0172,Kaimai Road,"Kaihu,Kaihu Forest,Pakotai","Kaihu,Northland Conservation Park,Whangarei"
1813925,3112,Kaimai View Drive,Ohauiti,Tauranga
1806895,3674,Kaimanawa Road,"Hikutaia,Komata",Paeroa
3062356,3382,Kaimanawa Road,"Kaimanawa Forest Park,Rangipo",Turangi
1930777,2113,Kaimanawa Road,Karaka,Papakura
1799131,4414,Kaimanawa Street,Kelvin Grove,Palmerston North
1808832,3116,Kaimanawa Street,Mount Maunganui,
1795825,3381,Kaimanawa Street,Omori,Turangi
1796206,5032,Kaimanawa Street,Paraparaumu,
1812665,3330,Kaimanawa Street,Taupo,
3030157,3886,Kaimango Road,"Hauturu,Honikiwi,Pirongia Forest Park,Te Rauamoa","Oparau,Otorohanga,Pirongia Forest Park"
3053032,4588,Kaimanuka Road,"Mangawhio,Ngamatapouri","Waverley,Whanganui"
3040614,3591,Kaimarama Road,"Coromandel Forest Park,Kaimarama","Coromandel Forest Park,Whitianga"
1826495,0172,Kaimaro Road,Pakotai,Whangarei
1797532,4473,Kaimatarau Road,Rongotea,
1803846,4182,Kaimata Road,Bay View,Napier
1772321,9077,Kaimata Road,Cape Saunders,Dunedin
3070212,4388,Kaimata Road North,"Kaimata,Waitui",Inglewood
3013607,4390,Kaimata Road South,"Kaimata,Ratapiko","Inglewood,Ratapiko"
1818061,4310,Kaimata Street,Brooklands,New Plymouth
1824612,1071,Kaimata Street,Saint Heliers,Auckland
3047089,4791,Kaimatawi Road,"Rangiwaea,Taihape",Taihape
1797084,4582,Kaimatira Road,Okoia,Whanganui
3044333,0486,Kaimaumau Road,"Kaimaumau,Waiharara",Awanui
1797308,4702,Kaimera Court,Feilding,
1838757,7193,Kaimiko Place,Okiwi Bay,
1813282,3200,Kaimiro Street,Pukete,Hamilton
1803062,4108,Kaimoana Road,Wairoa,
1803061,4198,Kaimoana Street,Nuhaka,
1830257,2103,Kaimoana Street,Weymouth,Auckland
1801942,4072,Kaimoe Road,Patutahi,Gisborne
1804386,4275,Kaimotu Road,Waipukurau,
1810314,3010,Kain Avenue,Fenton Park,Rotorua
1782914,8052,Kain Avenue,Strowan,Christchurch
3081960,3118,Kainga Lane,Papamoa Beach,Papamoa
1981415,0618,Kainga Lane,Whenuapai,Auckland
3061527,8083,Kainga Road,"Brooklands,Kainga",Christchurch
3047702,8016,Kaingaroa Road,Chatham Island,Chatham Islands
3023504,8016,Kaingaroa Settlement Road,Chatham Island,Chatham Islands
1840810,4120,Kain Place,Frimley,Hastings
1825147,1024,Kain Street,Mount Eden,Auckland
1785179,7630,Kain Street,The Pines Beach,
3078933,0112,Kainui Heights,Te Kamo,Whangarei
1794504,6021,Kainui Road,Hataitai,Wellington
1797083,4585,Kainui Road,Kakatahi,Whanganui
1800767,5032,Kainui Road,Raumati South,Paraparaumu
1811153,3791,Kainui Road,Taupiri,
1819555,0505,Kainui Street,Mangawhai,
1772875,9023,Kaio Lane,Port Chalmers,Dunedin
3081127,3118,Kaiora Drive,Papamoa Beach,Papamoa
3009964,8971,Kaioruru Lane,Charteris Bay,Governors Bay
3023214,7871,Kaipakati Point Road,Fox River,Punakaiki
3000107,3881,Kaipaki Road,"Cambridge,Leamington,Ohaupo","Cambridge,Ohaupo"
1817145,4373,Kaipakopako Road,Paraite,New Plymouth
1839214,3582,Kaipapaka Row,Te Rerenga,Coromandel
3007739,,Kaipara Coast Highway,"Glorit,Helensville,Kaukapakapa,Makarau,Mangakura,Tauhoa,Wellsford","Helensville,Kaukapakapa,Warkworth,Wellsford"
1842510,4412,Kaipara Court,Highbury,Palmerston North
1820704,0800,Kaipara Crescent,Helensville,
3029817,0981,Kaipara Flats Road,"Dome Forest,Kaipara Flats",Warkworth
3028702,0984,Kaipara Hills Road,"Glorit,Kaipara Flats",Warkworth
1830712,0874,Kaipara Lake Road,South Head,
1821557,0820,Kaipara Portage Road,Riverhead,
1818671,2582,Kaipara Road,Papakura,
1833351,0875,Kaipara View Road,Helensville,
1819552,0593,Kaipara View Road,Tinopai,
3042075,4994,Kaiparoro Road,"Eketahuna,Tararua Forest Park",
1838607,0204,Kaipatiki Rise,Haruru,
1831192,0629,Kaipatiki Road,"Birkdale,Glenfield",Auckland
1829738,0204,Kaipatiki Roadway,Paihia,
3080062,4320,Kaipeke Lane,Waitara,
1937561,0632,Kaipiho Lane,Albany,Auckland
1817847,4375,Kaipikari Road Lower,Urenui,
1817848,4375,Kaipikari Road Upper,Urenui,
3084709,2113,Kaipikopiko Place,Rosehill,Papakura
3060370,9818,Kaipipi Road,Stewart Island/Rakiura,Stewart Island
3064501,4372,Kaipi Road,"Egmont Village,Hillsborough","Egmont Village,New Plymouth"
1817760,4612,Kaipi Street,Manaia,
3038310,9679,Kaipo Bay Walk,"Fiordland National Park,Jamestown","Fiordland National Park,Haast"
1840798,9600,Kaipo Drive,Te Anau,
1808162,2697,Kaipo Flats Road,Onewhero,
1837217,2697,Kaipo Flats Road Loop,Onewhero,
3083005,2697,Kaipo Heights Drive,Onewhero,
1798652,4588,Kaipo Street,Waitotara,Whanganui
1949029,0930,Kaipuke Crescent,Gulf Harbour,Whangaparaoa
3084708,2113,Kaipuupuu Road,Rosehill,Papakura
1804990,4295,Kairakau Beach Road,Kairakau,Elsthorpe
3039225,4295,Kairakau Road,"Elsthorpe,Kairakau",Elsthorpe
3081063,2110,Kairakau Street,"Papakura,Takanini","Auckland,Papakura"
3029677,4475,Kairanga Bunnythorpe Road,"Bunnythorpe,Kairanga,Milson,Newbury,Tiakitahuna","Feilding,Kairanga,Palmerston North"
1793425,5014,Kairanga Crescent,Wainuiomata,Lower Hutt
1839924,4820,Kairanga Drive,Linton,Palmerston North
1829179,2024,Kairanga Street,Mangere East,Auckland
1812988,3495,Kairangi Road,Rotoorangi,Cambridge
1830674,0573,Kaira Road,Kaiwaka,
1772876,9023,Kaira Street,Sawyers Bay,Dunedin
3082863,5010,Kairaumati Crescent,Kelson,Lower Hutt
1817844,4373,Kairau Road East,Brixton,Waitara
1817845,4373,Kairau Road West,Sentry Hill,New Plymouth
1990006,0478,Kairawaru Way,Kaeo,
1809935,3985,Kairimu Road,Te Anga,Te Kuiti
1800207,5019,Kairimu Street,Stokes Valley,Lower Hutt
3080056,2121,Kairoa Court,Tuakau,
1799029,4791,Kai Road,Rangiwaea,Taihape
3084491,3282,Kairokiroki Drive,"Fitzroy,Hamilton East,Peacocke",Hamilton
1839389,8022,Kairos Street,Cashmere,Christchurch
3081080,8025,Kairua Road,Hornby,Christchurch
3012684,3175,Kairua Road,"Kairua,Papamoa Beach,Waitao","Papamoa,Tauranga"
3079857,8022,Kairuri Lane,Heathcote Valley,Christchurch
1802673,4079,Kaiser Road,Te Puia Springs,Tokomaru Bay
3023066,0481,Kaitaia-Awaroa Road,"Ahipara,Broadwood,Herekino,Herekino Forest,Kaitaia","Kaitaia,Kohukohu,Northland Conservation Park"
3079438,3187,Kaitaka Way,Papamoa,
1817143,4314,Kaitake Place,Oakura,
1817142,4374,Kaitake Road,"Egmont National Park,Kaitake","Egmont National Park,New Plymouth"
1792999,5010,Kaitangata Crescent,Kelson,Lower Hutt
3039401,,Kaitangata Highway,"Balclutha,Inch Clutha,Kaitangata,Stirling","Balclutha,Kaitangata,Stirling"
1838794,0573,Kaitara Lane,Kaiwaka,
1842092,0179,Kaitara Lane,Maungatapere,Whangarei
3083613,5794,Kaitara Park Lane,Morison Bush,Greytown
1802481,4094,Kaitara Road,Te Karaka,
1810304,3981,Kaitaringa Road,Aria,
1826491,0193,Kaitaringa Road,Waiotira,
1796210,5032,Kaitawa Crescent,Paraparaumu,
1801069,4981,Kaitawa Ridge Road,Pahiatua,
1795951,5582,Kaitawa Road,Hautere,Otaki
1797937,4981,Kaitawa Road,"Kaitawa,Pahiatua",Pahiatua
1802523,4195,Kaitawa Road,Tuai,Wairoa
1792883,5013,Kaitawa Road,York Bay,Lower Hutt
1799674,5018,Kaitawa Street,Haywards,Lower Hutt
1829171,2023,Kaitawa Street,Otara,Auckland
1798184,5036,Kaitawa Street,Waikanae Beach,Waikanae
1804618,,Kaitemako Road,Welcome Bay,Tauranga
1815528,3173,Kaitemako Road South,Ohauiti,Tauranga
1842723,5024,Kaiteriteri Close,Aotea,Porirua
1788700,7197,Kaiteriteri-Sandy Bay Road,Kaiteriteri,Motueka
3084029,0985,Kaitiaki Avenue,Warkworth,
3079909,2679,Kaitiaki Drive,Clarks Beach,
1802207,4010,Kaiti Beach Road,Kaiti,Gisborne
3021849,3990,Kaitieke Road,"Kaitieke,Raurimu",Owhango
1812587,4392,Kaitieke Road,Puniwhakau,Stratford
3083351,2113,Kaititiko Road,Rosehill,Papakura
3059794,0991,Kaitoke Lane,Great Barrier Island (Aotea Island),
1826865,5018,Kaitoke Loop Road,Kaitoke,Upper Hutt
3032858,4672,Kaitoke Road,"Ararata,Ohangai",Hawera
1801465,4572,Kaitoke Road,Kaitoke,Whanganui
1811110,3225,Kaitoke Street,"Raglan,Whaingaroa Harbour",Raglan
1792560,5018,Kaitoke Waterworks Road,Kaitoke,Upper Hutt
1805444,4975,Kaitoki River Road,Dannevirke,
3080087,7608,Kaitorete Drive,Lincoln,
1821558,0984,Kaitoto Road,Kaipara Flats,Warkworth
3082671,0793,Kaituhi Lane,Coatesville,
1835540,9383,Kaituki Ridge Lane,Queensberry,Cromwell
3078067,0112,Kaituna Lane,Te Kamo,Whangarei
1780075,7672,Kaituna Pass Road,Ataahua,Tai Tapu
1791461,7100,Kaituna Place,Havelock,
3079034,4110,Kaituna Place,Te Awa,Napier
1808123,3189,Kaituna River Road,Te Puke,
3042354,3189,Kaituna Road,"Maketu,Paengaroa,Papamoa Beach","Maketu,Paengaroa,Papamoa"
1797749,4992,Kaituna Road,Pongaroa,
3050678,7591,Kaituna Spur Road,"Ataahua,Little River,Prices Valley","Little River,Tai Tapu"
1801263,4414,Kaituna Street,Milson,Palmerston North
1792204,5024,Kaituna Street,Waitangirua,Porirua
3037712,7273,Kaituna-Tuamarina Road,"Kaituna,Tuamarina","Blenheim,Renwick"
1787330,7672,Kaituna Valley Road,Ataahua,Tai Tapu
1837573,2016,Kaitune Drive,Flat Bush,Auckland
1791044,,Kaiuma Bay Road,"Canvastown,Kaiuma Bay",Havelock
1791046,7194,Kaiuma Road,Rai Valley,
1795826,3381,Kaiuru Avenue,Pukawa Bay,Turangi
1812662,3330,Kaiuru Street,Nukuhau,Taupo
1803063,4198,Kaiwaitau Road,Mahia,
3034496,0975,Kaiwaka-Mangawhai Road,"Hakaru,Kaiwaka,Mangawhai","Kaiwaka,Mangawhai"
1831824,0110,Kaiwaka Road,Onerahi,Whangarei
3006172,4181,Kaiwaka Road,Tangoio,Napier
1832074,2123,Kaiwaka Road,Waiuku,
1795506,5782,Kaiwaka Road,White Rock,Martinborough
1795928,3381,Kaiwaka Street,Tokaanu,Turangi
1787110,7391,Kaiwara Homestead Road,Amuri Plain,Culverden
1779565,7382,Kaiwara Road,Lowry Hills Range,Cheviot
1782904,8025,Kaiwara Street,Hoon Hay,Christchurch
1782250,7977,Kaiwarua Road,Waihaorunga,Waimate
3081378,5036,Kaiwaru Place,Waikanae,
3081100,0616,Kaiwawao Lane,Hobsonville,Auckland
1776097,9772,Kaiwera Downs Road,Otaraia,Mataura
3068890,9772,Kaiwera Road,"Kaiwera,Otaraia,Pukerau","Gore,Mataura"
1797082,4575,Kaiwhaiki Road,"Kaiwhaiki,Upokongaro",
3002398,6035,Kaiwharawhara Road,"Kaiwharawhara,Ngaio",Wellington
1814712,3175,Kaiwha Road,Welcome Bay,Tauranga
3031021,8016,Kaiwhata Road,Chatham Island,Chatham Islands
3031022,5872,Kaiwhata Road,"Homewood,Kaiwhata,Te Wharau",Masterton
1795174,5872,Kaiwhata Valley Road,Kaiwhata,Masterton
3079408,1041,Kaiwhiria Lane,Mount Roskill,Auckland
1837163,7608,Kajens Court,Lincoln,
3018348,5871,Kaka Amu Road,"Mauriceville,Rangitumau","Masterton,Mauriceville"
3078650,2110,Kakabeak Way,Takanini,Auckland
1812302,3420,Kaka Crescent,Tokoroa,
3084425,2018,Kakahi Road,Beachlands,Auckland
3079077,7608,Kakahi Street,Lincoln,
1796473,3990,Kakahi Terrace,Owhango,
1816292,3980,Kakahi Valley Road,Ohura,
1800892,4501,Kakaho Drive,Tawhero,Whanganui
3079405,1041,Kakaho Road,Mount Roskill,Auckland
1798654,4588,Kakaho Road,Ngamatapouri,Whanganui
1812655,3492,Kakaho Road,Tihoi,Taupo
1813710,3120,Kakahoroa Drive,Whakatane,
3081200,2025,Kakaho Way,Papatoetoe,Auckland
1804791,4972,Kakahukura Road,Dannevirke,
1779026,7991,Kakahu River Road,Kakahu,Geraldine
3001861,3485,Kakahu Road,"Tapapa,Te Poi","Matamata,Tirau"
1781335,7992,Kakahu Street,Orari,Temuka
1807920,3900,Kakamutu Road,Otorohanga,
3079514,7020,Kakano Lane,Richmond,
1988171,0814,Kakano Road,Westgate,Auckland
3084953,2582,Kakano Street,Clevedon,Clevedon
1814394,3216,Kakanui Avenue,Hillcrest,Hamilton
1770658,9492,Kakanui River Road,Five Forks,Oamaru
1770657,9495,Kakanui Road,Kakanui,Oamaru
1770661,9491,Kakanui Street,Windsor,Oamaru
1770660,9492,Kakanui Valley Road,"Five Forks,Incholme,Kauru Hill,Maheno,Windsor",Oamaru
1817499,4672,Kakapirau Road,Ohangai,Hawera
1819046,0310,Kaka Place,Dargaville,
3082622,8025,Kaka Place,Halswell,Christchurch
1796922,4500,Kaka Place,Whanganui East,Whanganui
1799802,5032,Kakapo Court,Paraparaumu Beach,Paraparaumu
1841337,9305,Kakapo Court,Wanaka,
1774344,9271,Kaka Point Road,"Kaka Point,Otanomomo,Paretai","Balclutha,Kaka Point"
3084077,5022,Kakapo Lane,Kenepuru,Porirua
1840707,7120,Kakapo Lane,Motueka,
3084705,4410,Kakapo Lane,Palmerston North,Palmerston North
3084791,8051,Kakapo Lane,Redwood,Christchurch
1839909,0505,Kakapo Place,Mangawhai,
1832083,2025,Kakapo Place,Papatoetoe,Auckland
1795307,3112,Kakapo Place,Pyes Pa,Tauranga
3000835,7614,Kakapo Place,Rolleston,
1799085,4720,Kakapo Place,Taihape,
1833806,7220,Kakapo Rise,Picton,
1777782,9672,Kakapo Road,"Mount Prospect,Te Anau",Te Anau
1849698,0481,Kakapo Street,Ahipara,Kaitaia
1778325,9710,Kakapo Street,Gore,
1816293,3926,Kakapo Street,Ohura,
1861491,9022,Kakapo Street,Saint Leonards,Dunedin
1776546,9810,Kakapo Street,Waikiwi,Invercargill
1839693,7875,Kakapo Way,Moana,
1774340,9273,Kakapuaka Road,"Balclutha,Kakapuaka,Otanomomo",Balclutha
1819898,0272,Kakapu Road,Okiato,Russell
1821546,0977,Kakaraea Road,Tapora,
3084345,2578,Kakara Lane,Karaka,Papakura
3039441,4598,Kakaramea Road,Kakaramea,Patea
3039442,,Kakaramea Road,"Ngahinapouri,Pirongia,Whatawhata","Hamilton,Ohaupo,Pirongia"
3013019,3997,Kakara Road,"Aria,Otangiwai","Aria,Matiere"
1837375,9818,Kaka Ridge Road,Halfmoon Bay / Oban,Stewart Island
1831652,1024,Kakariki Avenue,Mount Eden,Auckland
3083699,5713,Kakariki Crescent,Carterton,
3079764,3120,Kakariki Drive,Coastlands,Whakatane
3085130,9371,Kākāriki Drive,Jacks Point,Queenstown
1803064,4188,Kakariki Farm Road,Kotemaori,
1798189,5036,Kakariki Grove,Waikanae,
1811230,8081,Kakariki Lane,Clifton,Christchurch
1842067,7120,Kakariki Lane,Motueka,
3079591,3112,Kakariki Lane,Ohauiti,Tauranga
3081445,3210,Kakariki Lane,Rototuna North,Hamilton
3079748,4312,Kakariki Lane,Waiwhakaiho,New Plymouth
1803065,4188,Kakariki Pit Road,Kotemaori,
1797770,4995,Kakariki Road,Eketahuna,
3036881,4787,Kakariki Road,"Halcombe,Marton",
1826742,0173,Kakariki Road,Ngunguru,Whangarei
1802319,4082,Kakariki Road,Ruatoria,
1793833,6022,Kakariki Road,Seatoun,Wellington
1800022,4791,Kakariki Road,Taihape,
1789476,7096,Kakariki Road,Tapawera,Wakefield
1799028,4797,Kakariki Street,Mangaweka,
1832523,0931,Kakariki Views,Orewa,
1841263,9879,Kakariki Way,Otatara,Invercargill
1836613,5371,Kakariki Way,Whitemans Valley,Upper Hutt
1797772,4995,Kakariki West Road,Eketahuna,
3083898,2577,Kaka Road,Drury,
1819897,0281,Kaka Road,Matawaia,Kawakawa
1816466,4375,Kaka Road,Okoki,Urenui
1796205,5032,Kaka Road,Raumati Beach,Paraparaumu
1772316,9022,Kaka Road,Saint Leonards,Dunedin
1791647,7300,Kaka Road,South Bay,Kaikoura
1801207,4720,Kaka Road,Taihape,
3041007,3784,Kaka Road,Waiterimu,
1791045,7285,Kaka Road,Ward,
1820569,0481,Kaka Street,Ahipara,Kaitaia
1803339,4120,Kaka Street,Camberley,Hastings
1818852,2024,Kaka Street,"Favona,Otahuhu",Auckland
1807317,3204,Kaka Street,Frankton,Hamilton
1778352,9710,Kaka Street,Gore,
1771802,9382,Kaka Street,Makarora,Wanaka
1795138,5810,Kaka Street,Masterton,
1818296,3995,Kaka Street,Matiere,
1826045,0110,Kaka Street,Morningside,Whangarei
1822174,0627,Kaka Street,Northcote,Auckland
1816294,3926,Kaka Street,Ohura,
1809936,3912,Kaka Street,Piopio,
1797685,4884,Kaka Street,Pohangina,Ashhurst
1788194,7011,Kaka Street,Stoke,Nelson
1812671,3330,Kaka Street,Taupo,
1809333,3112,Kaka Street,Tauranga South,Tauranga
1798187,5036,Kaka Street,Waikanae,
1810315,3015,Kaka Street,Western Heights,Rotorua
1806214,3620,Kaka Street,Whangamata,
3071573,1026,Kakatai Lane,Waterview,Auckland
3083743,2019,Kakau Lane,Flat Bush,Auckland
3080214,9495,Kakaunui Bay Road,Kakanui,Oamaru
1842712,3112,Kakemai Rise,Pyes Pa,Tauranga
1788195,7011,Kakenga Road,Stoke,Nelson
1812991,3873,Kakepuku Road,Pokuru,Te Awamutu
3078010,6011,Kake Tonu Way,"Kelburn,Te Aro",Wellington
3079415,5022,Kaki Drive,Kenepuru,Porirua
1842815,2112,Kaki Lane,Takanini,Auckland
1781330,7991,Kalaugher Road,Geraldine Downs,Geraldine
1819530,2016,Kalberry Place,East Tamaki,Auckland
1772732,9018,Kaler Street,Green Island,Dunedin
1829976,2013,Kalgan Place,Burswood,Auckland
1800052,5024,Kalingo Street,Waitangirua,Porirua
1829181,2010,Kallaroo Place,Botany Downs,Auckland
1821923,0630,Kallista Place,Browns Bay,Auckland
1825179,1041,Kallu Crescent,Mount Roskill,Auckland
1806855,3681,Kalma Road,Waihi,
1813309,3116,Kalmia Dell,Mount Maunganui,
1785036,7630,Kalmia Place,Kaiapoi,
1824887,1051,Kalmia Street,Ellerslie,Auckland
1838512,2016,Kalmore Place,Flat Bush,Auckland
1817500,4610,Kamahi Avenue,Hawera,
3040300,7886,Kamahi Crescent,Franz Josef/Waiau,
1842891,3118,Kamahi Crescent,Papamoa Beach,Papamoa
1784320,8051,Kamahi Place,Bishopdale,Christchurch
1816532,4330,Kamahi Place,Inglewood,
1839934,0118,Kamahi Place,One Tree Point,Whangarei
3084368,5032,Kamahi Place,Paraparaumu,
3014113,7805,Kamahi Place,Paroa,Greymouth
1810316,3015,Kamahi Place,Pukehangi,Rotorua
1777558,9818,Kamahi Road,Halfmoon Bay / Oban,Stewart Island
1791593,7195,Kamahi Road,Tennyson Inlet,Marlborough Sounds
1778148,9893,Kamahi Road East,"Edendale,Menzies Ferry","Edendale,Wyndham"
1778147,9893,Kamahi Road West,Edendale,
1796921,4501,Kamahi Street,Castlecliff,Whanganui
1835768,9271,Kamahi Street,Kaka Point,
1825146,1024,Kamahi Street,Mount Eden,Auckland
1800205,5019,Kamahi Street,Stokes Valley,Lower Hutt
1841441,9305,Kamahi Street,Wanaka,
1795827,3381,Kamahi Terrace,Omori,Turangi
1841394,4696,Kamahi Way,Horopito,Raetihi
1789321,7011,Kamahi Way,Tahunanui,Nelson
1770906,9320,Kamaka Crescent,Bridge Hill,Alexandra
1828577,2022,Kamaka Road,Mangere Bridge,Auckland
3078282,3378,Kamaka Street,Wharewaka,Taupo
3083481,3330,Kamana Grove,Richmond Heights,Taupo
3084979,9305,Kamana Rise,Wanaka,Wanaka
1956197,2019,Kamana Road,Flat Bush,Auckland
3079422,5022,Kamana Way,Kenepuru,Porirua
3080595,0616,Kaman Seasprite Road,Hobsonville,Auckland
1822624,0620,Kama Place,Sunnynook,Auckland
1829572,0602,Kamara Road,Glen Eden,Auckland
3082454,0992,Kamata Lane,Wainui,
1828570,2022,Kambalda Street,Mangere Bridge,Auckland
3080690,0587,Kamea Place,Maungaturoto,
1793839,6035,Kamla Way,Khandallah,Wellington
3078161,3173,Kamokore Glade,Pyes Pa,Tauranga
3022450,0112,Kamo Road,"Kensington,Regent,Te Kamo,Whau Valley",Whangarei
1804789,4930,Kamo Street,Dannevirke,
1812659,3332,Kamu Crescent,Wairakei,Taupo
1828549,2112,Kamulla Court,Conifer Grove,Takanini
1772984,9471,Kamura Road,Karitane,Waikouaiti
1772318,9013,Kamura Street,Tainui,Dunedin
3084424,2018,Kanae Drive,Beachlands,Auckland
3040425,,Kanakanaia Road,"Tauwhareparae,Te Karaka,Whatatutu","Te Karaka,Tolaga Bay"
1839803,7612,Kanakana Place,Pegasus,
3078797,3118,Kanapa Close,"Papamoa,Papamoa Beach",Papamoa
3084229,0632,Kanapa Road,Northcross,Auckland
3019527,9712,Kana Street,Mataura,
1798178,5036,Kanawa Street,Waikanae,
1781327,7903,Kandahar Street,Pleasant Point,
1786680,7614,Kandinsky Close,Rolleston,
1793823,6035,Kandy Crescent,Ngaio,Wellington
1833017,0185,Kanehiana Drive,Te Kamo,Whangarei
3078969,0602,Kaneke Place,Glen Eden,Auckland
1790227,7805,Kane Lane,Greymouth,
1818371,7988,Kane Lane,Saint Andrews,
3070417,9382,Kane Road,Hawea Flat,Lake Hawea
1809340,3118,Kane Road,Papamoa Beach,Papamoa
1780159,7682,Kanes Road,Dunsandel,
3000080,9491,Kanes Road,"Georgetown,Queens Flat",Oamaru
1772733,9018,Kane Street,Green Island,Dunedin
1787905,7891,Kane Street,Millerton,Westport
1819849,0200,Kane Street,Opua,
1812987,3802,Kane Street,Pirongia,
3079409,2102,Kanga Lane,Manurewa,Auckland
1860448,3493,Kaniera Terrace,Cambridge,
1838577,8042,Kaniere Avenue,Hei Hei,Christchurch
3071059,7881,Kaniere-Kowhitirangi Road,"Kaniere,Kokatahi","Hokitika,Kokatahi"
1828573,2012,Kaniere Place,Half Moon Bay,Auckland
1790370,7811,Kaniere Road,"Hokitika,Kaniere",Hokitika
1808834,3116,Kaniere Street,Mount Maunganui,
1821559,0873,Kanohi Road,"Kaukapakapa,Makarau","Kaukapakapa,Warkworth"
1828560,2022,Kanohi Terrace,Mangere Bridge,Auckland
3077796,0632,Kanona Way,Albany Heights,Auckland
1842895,3118,Kanono Close,Papamoa Beach,Papamoa
3078647,2110,Kanono Road,Takanini,Auckland
3081904,0875,Kanono Way,Helensville,
3079750,2022,Kanorau Place,Mangere,Auckland
3084924,0616,Kanorau Way,Hobsonville,Auckland
1793824,6012,Kano Street,Karori,Wellington
3077698,0616,Kano Way,Hobsonville,Auckland
1800387,6035,Kanpur Road,Broadmeadows,Wellington
1800117,5018,Kansas Grove,Totara Park,Upper Hutt
1795687,5711,Kansas Street,Martinborough,
1786687,8024,Kantara Lane,Somerfield,Christchurch
1833137,2013,Kanturk Close,East Tamaki,Auckland
3083548,3010,Kanuka Avenue,Owhata,Rotorua
1840956,5036,Kanuka Close,Waikanae,
1774363,9024,Kanuka Court,Mosgiel,
2014071,9310,Kanuka Drive,Cromwell,
3079636,4410,Kanuka Drive,Hokowhitu,Palmerston North
1840516,5510,Kanuka Drive,Waitarere,Levin
3078276,3377,Kanuka Grove,Kinloch,Taupo
3078309,0272,Kanuka Grove,Russell,
1840374,7371,Kanuka Lane,Hapuku,Kaikoura
3078547,3674,Kanuka Lane,Karangahake,
1842348,4625,Kanuka Lane,Ohakune,
3080499,0582,Kanuka Lane,Waipu,
1809763,3120,Kanuka Place,Edgecumbe,
1785037,7630,Kanuka Place,Kaiapoi,
1818602,0505,Kanuka Place,Mangawhai Heads,Mangawhai
1789463,7120,Kanuka Place,Motueka,
1815443,3112,Kanuka Place,Pyes Pa,Tauranga
1806284,7581,Kanuka Place,Robinsons Bay,
1804717,9305,Kanuka Rise,Albert Town,Wanaka
3084003,4182,Kanuka Rise,Eskdale,Napier
1816645,7334,Kanuka Rise,Hanmer Springs,
3083600,3578,Kanuka Rise,Kopu,Thames
1840891,7071,Kanuka Rise,Wakapuaka,Nelson
1827141,2675,Kanuka Road,Bombay,
1856686,0616,Kanuka Road,Hobsonville,Auckland
1811151,3281,Kanuka Road,Ngaruawahia,
1821563,0982,Kanuka Road,Sandspit,Warkworth
1805776,4274,Kanuka Road,Tikokino,
1831482,1022,Kanuka Street,Point Chevalier,Auckland
3079391,3225,Kanuka Street,Raglan,
1818498,0632,Kanuka Way,Albany,Auckland
1839446,5792,Kanuka Way,Martinborough,
1841911,4625,Kanuka Way,Ohakune,
1783868,8022,Kanuku Place,Cashmere,Christchurch
3080199,4702,Kanzan Grove,Feilding,
3082596,2022,Kaokao Lane,Mangere,Auckland
1809540,3194,Kaokaoroa Street,Matata,
1826744,0173,Kaone Point Road,Matapouri,Whangarei
1813877,3889,Kaora Street,Kawhia,
1815469,3889,Kaora Track,Kawhia,
1831064,0624,Kapai Road,Devonport,Auckland
3056125,4577,Kapakapa Road,"Fordell,Turakina","Fordell,Marton"
1813405,3691,Kapakapa Road,Opoutere,Whangamata
1806215,3506,Kapanga Road,Coromandel,
1801109,5036,Kapanui Road,Waikanae,
1821547,0910,Kapanui Street,Warkworth,
3080553,2019,Kapara Street,Flat Bush,Auckland
1791039,7285,Kaparu Road,Lake Grassmere,Seddon
1819554,0573,Kapawiti Road,Mangawhai,
3082966,0932,Kapehu Road,Silverdale,
1792205,5026,Kapekape Place,Pukerua Bay,Porirua
3080572,2578,Kapeta Lane,Karaka,Papakura
3080350,2112,Kapia Drive,Takanini,Auckland
3079230,0118,Kapiakauri Road,One Tree Point,Whangarei
3078815,0614,Kapia Road,Westgate,Auckland
1819045,0310,Kapia Street,Dargaville,
3078009,2120,Kapia Street,Pukekohe,
1793825,6035,Kapil Grove,Khandallah,Wellington
1819855,0294,Kapiro Road,"Kerikeri,Waipapa",
1842794,4702,Kapiti Court,Feilding,
1834479,5032,Kapiti Court,Raumati Beach,Paraparaumu
3057239,5022,Kapiti Crescent,Titahi Bay,Porirua
1841795,4112,Kapiti Drive,Poraiti,Napier
3082783,,Kapiti Expressway,"Hautere,Otaihanga,Otaki,Paekakariki,Paraparaumu,Peka Peka,Raumati Beach,Raumati South,Te Horo,Waikanae,Waikanae Beach","Otaki,Paekakariki,Paraparaumu,Waikanae"
3039723,,Kapiti Island,"Kapiti Island,Onepoto,Rangatira Bay,Waiorua Bay,Waterfall Bay,Wharekohu Bay",
1796242,5512,Kapiti Lane,Otaki Beach,Otaki
1817638,5032,Kapiti Lights,Paraparaumu,
1799127,4412,Kapiti Place,Awapuni,Palmerston North
1803002,4295,Kapiti Place,Kairakau,Elsthorpe
1822631,0620,Kapiti Place,Sunnynook,Auckland
1775714,9291,Kapiti Road,Milburn,Milton
3026524,5032,Kapiti Road,"Paraparaumu,Paraparaumu Beach",Paraparaumu
1835969,8083,Kapiti Street,Parklands,Christchurch
1796943,4501,Kapiti Terrace,Castlecliff,Whanganui
1799035,4797,Kapiti Terrace,Mangaweka,
3064204,8016,Kapito Road,Chatham Island,Chatham Islands
1784015,8042,Kaplan Avenue,Islington,Christchurch
3082445,3225,Kapokapowai Street,Raglan,
1822866,0600,Kaponga Crescent,New Lynn,Auckland
1841030,0981,Kaponga Lane,Kaipara Flats,Warkworth
1810317,3020,Kaponga Street,Mamaku,
1793396,5014,Kaponga Street,Wainuiomata,Lower Hutt
1791813,3989,Kapoors Road,Tongariro Forest Park,
3081079,2112,Kapowai Boulevard,Takanini,Auckland
1838790,0573,Kapowai Lane,Kaiwaka,
3083103,0185,Kapowai Place,Kauri,
1813408,3591,Kapowai Road,"Coroglen,Whenuakite",Whitianga
3084030,0985,Kapowai Way,Warkworth,
3009508,3210,Kapua Crescent,Rototuna North,Hamilton
1812660,3330,Kapua Place,Taupo,
3080298,2110,Kapuarangi Lane,Papakura,
3003739,7977,Kapua Road,"Ikawai,Waimate",Waimate
1782251,7977,Kapua School Road,Waimate,
1824217,1072,Kapua Street,Meadowbank,Auckland
1815260,3382,Kapua Street,Tauranga Taupo,Turangi
1809447,4310,Kapu Grove,Whalers Gate,New Plymouth
1809937,3982,Kapuhipuhi Road,Te Kuiti,
1817815,4320,Kapui Place,Waitara,
1955747,8025,Kapuka Lane,Kennedys Bush,Christchurch
1841605,7081,Kapuka Lane,Redwood Valley,Richmond
1841335,9305,Kapuka Lane,Wanaka,
3067857,9871,Kapuka North Road,"Kapuka,Oteramika","Invercargill,Wyndham"
1815259,3330,Kapuka Place,Wharewaka,Taupo
1810318,3096,Kapukapu Road,"Hamurana,Okere Falls","Hamurana,Rotorua"
1828559,2022,Kapuka Road,Mangere Bridge,Auckland
1778523,9875,Kapuka South Road,"Ashers,Kapuka",Invercargill
1842055,3118,Kapuka Street,Papamoa Beach,Papamoa
1800053,5022,Kapuni Grove,Kenepuru,Porirua
1817771,4671,Kapuni Road,Manaia,
1825924,1072,Kapuni Road,Panmure,Auckland
1817770,4612,Kapuni Street,Manaia,
1798762,4710,Kapuni Street,Marton,
3042211,3200,Kapuni Street,"Pukete,Te Rapa Park",Hamilton
1812297,3420,Kapuni Street,Tokoroa,
1793000,5019,Kapuranga Grove,Stokes Valley,Lower Hutt
3078129,7020,Kapurangi Avenue,Richmond,
1978574,4312,Kapurau Lane,Merrilands,New Plymouth
1784322,8051,Kaputone Place,Belfast,Christchurch
1793821,6035,Karachi Crescent,Khandallah,Wellington
1798651,4591,Karahaki Road,Waverley,
1818335,0179,Kara Heights Rise,Kokopu,Whangarei
3078515,0794,Karahiwi Lane,Dairy Flat,
3084956,2582,Karahui Road,Clevedon,Clevedon
1833219,0986,Karahu Lane,Omaha,
3081699,2124,Karaipiture Road,Karaka,Papakura
1803340,4120,Karaitiana Street,Frimley,Hastings
3036615,5872,Karaka Avenue,Riversdale Beach,Masterton
3058807,0991,Karaka Bay Road,Great Barrier Island (Aotea Island),
3058806,6022,Karaka Bay Road,"Karaka Bays,Seatoun",Wellington
1837850,4702,Karaka Court,Feilding,
1798404,5510,Karaka Crescent,Levin,
1837801,0295,Karaka Drive,Kerikeri,
1796208,5032,Karaka Grove,Raumati Beach,Paraparaumu
1798186,5036,Karaka Grove,Waikanae,
1815664,3120,Karaka Lane,Whakatane,
3079188,4180,Karaka Mews,Te Awanga,
1827139,2580,Karaka North Road,Karaka,Papakura
1819553,0593,Karakanui Road,Tinopai,
1824227,1071,Karaka Park Place,Glendowie,Auckland
3078279,3377,Karaka Place,Kinloch,Taupo
1806216,3592,Karaka Place,Matarangi,Whitianga
3048587,8024,Karaka Place,Somerfield,Christchurch
1812300,3420,Karaka Place,Tokoroa,
1811118,3289,Karakariki Road,Whatawhata,Hamilton
1811117,3289,Karakariki Valley Road,Whatawhata,Hamilton
1832251,2018,Karaka Road,Beachlands,Auckland
1805281,4110,Karaka Road,Bluff Hill,Napier
3063230,2578,Karaka Road,"Drury,Karaka","Drury,Papakura"
3063216,,Karaka Road,"Hurunui,Medbury,Waikari","Hawarden,Waikari"
1828551,2585,Karaka Road,Kawakawa Bay,
1830723,0476,Karaka Road,Okaihau,
1825708,1081,Karaka Road,Oneroa,Waiheke Island
1807921,3900,Karaka Road,Otorohanga,
1809260,3110,Karaka Road,Otumoetai,Tauranga
1837746,3673,Karaka Road,Paeroa,
1819105,0172,Karaka Road,"Parakao,Tangowahine","Dargaville,Whangarei"
1806217,3500,Karaka Road,Thames,
3063219,4383,Karaka Road,"Tikorangi,Waitara",Waitara
1823055,0618,Karaka Road,"Waitemata Harbour,Whenuapai",Auckland
3080625,2580,Karaka School Lane,Karaka,Papakura
1796951,4501,Karaka Street,Castlecliff,Whanganui
1792873,5013,Karaka Street,Eastbourne,Lower Hutt
1824213,1010,Karaka Street,Eden Terrace,Auckland
1802201,4010,Karaka Street,Elgin,Gisborne
1781703,7910,Karaka Street,Glenwood,Timaru
1817501,4610,Karaka Street,Hawera,
1820703,0800,Karaka Street,Helensville,
1801262,4410,Karaka Street,Hokowhitu,Palmerston North
1818016,4330,Karaka Street,Inglewood,
1810319,3010,Karaka Street,Koutu,Rotorua
1818280,4612,Karaka Street,Manaia,
1811496,3400,Karaka Street,Matamata,
1818063,4312,Karaka Street,Merrilands,New Plymouth
1807320,3200,Karaka Street,Nawton,Hamilton
1822865,0600,Karaka Street,New Lynn,Auckland
1796241,5512,Karaka Street,Otaki Beach,Otaki
1791042,7273,Karaka Street,Rarangi,Blenheim
1789597,7011,Karaka Street,Stoke,Nelson
1822630,0622,Karaka Street,Takapuna,Auckland
1801110,4474,Karaka Street,Tokomaru,Palmerston North
1801649,5014,Karaka Street,Wainuiomata,Lower Hutt
1803066,4108,Karaka Street,Wairoa,
1801183,4588,Karaka Street,Waitotara,Whanganui
3079692,0931,Karaka Tree Lane,Orewa,
1802318,4087,Karakatuwhero Road,Te Araroa,
3084259,2580,Karaka Village Parade,Karaka,Papakura
3080047,1042,Karakia Lane,Hillsborough,Auckland
1789343,7095,Karalus Road,Golden Downs,Wakefield
1799130,4414,Karamea Crescent,Kelvin Grove,Palmerston North
1793391,5014,Karamea Grove,Wainuiomata,Lower Hutt
3062637,,Karamea Highway,"Corbyvale,Karamea,Little Wanganui,Mokihinui","Karamea,Westport"
1830836,0420,Karamea Road,Mangonui,
1826739,0176,Karamea Road,Pipiwai,Whangarei
1809396,3025,Karamea Street,Murupara,
1816818,4310,Karamea Street,Whalers Gate,New Plymouth
3052622,4410,Karamu Avenue,"Palmerston North,Takaro",Palmerston North
1811495,3400,Karamu Crescent,Matamata,
1801580,5014,Karamu Crescent,Wainuiomata,Lower Hutt
1834622,3506,Karamu Lane,Coromandel,
3082237,3800,Karamu Lane,Kihikihi,Te Awamutu
3084747,0505,Karamu Lane,Mangawhai,Mangawhai
3077923,7081,Karamu Lane,Redwood Valley,Richmond
1796646,4625,Karamu Place,Ohakune,
3079719,3682,Karamu Place,Waihi,
1839280,4122,Karamu Road North,"Hastings,Mayfair",Hastings
1803344,,Karamu Road South,"Akina,Hastings,Raureka",Hastings
1792874,5013,Karamu Street,Eastbourne,Lower Hutt
1802203,4010,Karamu Street,Elgin,Gisborne
3084251,2019,Karamu Street,Flat Bush,Auckland
1810320,3020,Karamu Street,Mamaku,
1812667,3421,Karamu Street,Mangakino,
1793835,6035,Karamu Street,Ngaio,Wellington
1816822,4312,Karamu Street,Strandon,New Plymouth
1812664,3330,Karamu Street,Taupo,
1796947,4501,Karamu Street,Tawhero,Whanganui
1823066,0610,Karamu Street,Te Atatu Peninsula,Auckland
1784328,8041,Karamu Street,Upper Riccarton,Christchurch
1813727,3112,Karamu Terrace,Pyes Pa,Tauranga
3085166,5381,Karamu Way,Pauatahanui,Porirua
1803498,4130,Karanema Drive,Havelock North,
3081083,3120,Karanema Place,Coastlands,Whakatane
3071150,1010,Karangahape Road,"Auckland Central,Grafton,Grey Lynn",Auckland
1812335,3381,Karangahape Road,Kuratau,Turangi
3084707,2113,Karanga Manu Road,Rosehill,Papakura
1785525,7682,Karanga Road,Dunsandel,
1946008,0185,Karanui Road,Te Kamo,Whangarei
3083078,0932,Karapapa Road,Wainui,
1812835,3496,Karapiro Road,Karapiro,Cambridge
1828556,2023,Karapiro Street,Otara,Auckland
1796645,4691,Karapitangi Street,Tangiwai,Ohakune
1823053,0602,Karapiti Place,Glen Eden,Auckland
1815746,3377,Karapiti Road,Wairakei,Taupo
3078284,3378,Kara Place,Wharewaka,Taupo
3072337,5372,Karapoti Road,"Akatarawa Valley,Craigs Flat",Upper Hutt
1802317,4032,Kararaina Avenue,Ruatoria,
3078554,4310,Kararaina Close,Whalers Gate,New Plymouth
3056647,0179,Kara Road,"Kokopu,Maungatapere",Whangarei
3056646,4392,Kara Road,"Ngamatapouri,Whanganui National Park","Whanganui,Whanganui National Park"
1798192,4474,Kara Road,Shannon,
3054126,0376,Kararoa Road,Waipoua Forest,"Aranga,Northland Conservation Park"
1802202,4010,Kara Street,"Inner Kaiti,Outer Kaiti",Gisborne
1830051,0473,Karatia Roadway,Omanaia,Kaikohe
1801940,4072,Karaua Road,Manutuke,
1988322,0931,Karauria Lane,Orewa,
3077360,4294,Karauria Rise,Waimarama,
1826737,0116,Karawai Street,Ruakaka,
3056179,0481,Karawaka Street,Ahipara,Kaitaia
1828568,2585,Karawa Place,Kawakawa Bay,
1830731,0281,Karawhe Road,Matawaia,Kawakawa
1990961,7020,Kardia Terrace,Richmond,
3079331,6035,Kareao Way,Crofton Downs,Wellington
3079411,5022,Karearea Avenue,Kenepuru,Porirua
3083778,3010,Karearea Avenue,Owhata,Rotorua
3080084,5036,Karearea Avenue,Waikanae,
1797533,4816,Karearea Crescent,Ohakea,Bulls
3080588,3120,Karearea Drive,Coastlands,Whakatane
3078235,5010,Karearea Lane,Maungaraki,Lower Hutt
3082640,0118,Karearea Lane,One Tree Point,Whangarei
1841332,9305,Karearea Rise,Wanaka,
1799030,4797,Karearea Street,Mangaweka,
3083946,3592,Karearea Way,Matarangi,Whitianga
3079079,2120,Kare Ariki Place,Pukekohe,
3079626,0630,Karehu Place,Long Bay,Auckland
1811114,3225,Karekare Avenue,Raglan,
1823054,0772,Karekare Road,"Karekare,Piha","Auckland,Piha"
1796081,5032,Karekare Road,Raumati South,Paraparaumu
1833060,0610,Karemoana Drive,Te Atatu Peninsula,Auckland
1814395,3204,Karen Crescent,Dinsdale,Hamilton
1810321,3010,Karenga Street,Koutu,Rotorua
3078085,0630,Karengo Street,Long Bay,Auckland
1782903,8023,Karen Lane,Beckenham,Christchurch
1823074,0604,Karen Road,Laingholm,Auckland
1809767,3193,Karenza Lane,Awakeri,Whakatane
1840390,7193,Karepa Crescent,Okiwi Bay,
1793832,6021,Karepa Street,Brooklyn,Wellington
3083354,0810,Karepe Lane,Kumeu,
1829596,0932,Karepiro Drive,Stanmore Bay,Whangaparaoa
1823073,0612,Karepo Crescent,Ranui,Auckland
3082411,0571,Karepo Lane,Pahi,Paparoa
3084770,5024,Karera Grove,Cannons Creek,Porirua
3084364,2019,Karera Place,Flat Bush,Auckland
3078964,2113,Karera Road,Karaka,Papakura
3077900,8083,Karere Avenue,Marshland,Christchurch
1791676,7201,Karere Place,Springlands,Blenheim
1804792,4930,Karere Road,Dannevirke,
3023308,4477,Karere Road,"Kairanga,Tiakitahuna","Kairanga,Palmerston North"
2011878,2024,Karetai Crescent,Favona,Auckland
3073563,9077,Karetai Road,"Highcliff,Ocean Grove",Dunedin
1819238,7020,Kareti Drive,Richmond,
1815882,3384,Karetoto Road,Wairakei,Taupo
1779100,7472,Karetu Road,Ashley Forest,Loburn
1825595,1051,Karetu Road,Greenlane,Auckland
1799034,4782,Karetu Road,Papanui Junction,Hunterville
3081806,4120,Karewa Crescent,Mahora,Hastings
1808282,3118,Karewa Parade,Papamoa Beach,Papamoa
1826673,3200,Karewa Place,Pukete,Hamilton
1797369,4774,Karewarewa Road,Rangiwahia,Kimbolton
1797368,4774,Karewarewa Street,Rangiwahia,Kimbolton
3060540,4399,Karewa Road,"Matemateaonga,Puniwhakau","Eltham,Stratford"
1802316,4081,Karewa Road,Waipiro,Ruatoria
1796944,4501,Karewa Street,Castlecliff,Whanganui
1813793,3118,Karia Grove,Papamoa Beach,Papamoa
3080559,2578,Karihi Road,Karaka,Papakura
1841197,0614,Karika Place,Massey,Auckland
3083536,2112,Karikari Crescent,Takanini,Auckland
3079482,0810,Kari Lane,Kumeu,
1791565,7201,Karina Crescent,Redwoodtown,Blenheim
1822773,0602,Karina Place,Glen Eden,Auckland
1816819,4312,Karina Road,Merrilands,New Plymouth
1799125,4414,Karina Terrace,Roslyn,Palmerston North
1811115,3225,Karioi Crescent,Raglan,
1810862,3700,Karioi Place,Huntly,
1841506,3296,Karioi Road,Raglan,
1796643,4691,Karioi Station Road,Tangiwai,Ohakune
3026095,,Karioitahi Road,"Karioitahi,Lake Puketi,Waiuku",Waiuku
3082037,3300,Karira Street,Morrinsville,
1824223,1010,Kari Street,Grafton,Auckland
1783869,8022,Karitane Drive,Cashmere,Christchurch
1833599,9471,Karitane Reserve Road,Karitane,Waikouaiti
3082425,4130,Karituwhenua Drive,Havelock North,
1784321,8083,Karlaw Place,Parklands,Christchurch
1838093,3210,Karl Michael Crescent,Flagstaff,Hamilton
1834007,5510,Karlos Lane,Levin,
1812989,3881,Karl Road,Ohaupo,
1786917,8042,Karnak Crescent,Russley,Christchurch
1808279,3188,Karner Drive,Rangiuru,Te Puke
3082928,3118,Karo Close,Papamoa,
1838462,6011,Karo Drive,"Aro Valley,Te Aro",Wellington
1801097,3592,Karo Drive,Matarangi,Whitianga
3077752,2112,Karokaro Road,Takanini,Auckland
1839410,4130,Karoola Place,Havelock North,
1823057,0602,Karo Place,Glendene,Auckland
1787485,8041,Karo Place,Ilam,Christchurch
1811499,3400,Karo Place,Matamata,
1789464,7120,Karo Place,Motueka,
1817502,4671,Karora Street,Ohawe,Hawera
1824204,1071,Karori Crescent,Orakei,Auckland
1793826,6012,Karori Road,Karori,Wellington
3069183,6012,Karori Tunnel,Kelburn,Wellington
1999012,2571,Karo Road,Beachlands,Auckland
3083368,0616,Karoro Court,Hobsonville,Auckland
1832253,2104,Karoro Court,Manukau,Auckland
1773759,9271,Karoro Creek Road,Ahuriri Flat,Kaka Point
3084112,7632,Karoro Crescent,Leeston,
3081556,8023,Karoro Lane,Sydenham,Christchurch
1812047,7805,Karoro Place,Karoro,Greymouth
1792207,5024,Karoro Place,Paremata,Porirua
1796955,4501,Karoro Road,Castlecliff,Whanganui
2010165,2019,Karoro Road,Flat Bush,Auckland
3014621,0118,Karoro Road,One Tree Point,Whangarei
1986954,8051,Karos Lane,Northwood,Christchurch
1816528,4330,Karo Street,Inglewood,
1796644,4625,Karo Street,Ohakune,
1838126,0116,Karo Street,Ruakaka,
1841639,7410,Karo Way,Amberley,
1838300,2016,Karson Place,Flat Bush,Auckland
3081998,0810,Kartolina Crescent,Kumeu,
1798180,5036,Karu Crescent,Waikanae,
1830771,0473,Karuhiruhi Road,Oue,Kaikohe
3082754,5036,Karuhiruhi Street,Waikanae,
3084078,5022,Karure Way,Kenepuru,Porirua
1825711,1081,Karu Street,Oneroa,Waiheke Island
1800895,4501,Karyn Street,Castlecliff,Whanganui
1837167,2016,Kaseng Place,East Tamaki Heights,Auckland
1837950,3129,Kasey Josh Place,Katikati,
1792557,5018,Kashmir Avenue,Clouston Park,Upper Hutt
1804401,4286,Kashmir Road,Ashley Clinton,Takapau
1822774,0602,Kashmir Road,Glen Eden,Auckland
1830268,0614,Kasia Close,Massey,Auckland
1810322,3097,Kaska Road,Hamurana,
1821555,0910,Kasper Street,Warkworth,
1832559,0800,Kassa Rise,Helensville,
1839308,6022,Kastos Way,Strathmore Park,Wellington
3084878,3225,Katakata Street,Raglan,Raglan
3080458,0618,Kata Lane,Hobsonville,Auckland
1837728,2112,Katana Lane,Takanini,Auckland
1842287,7022,Katania Heights,Brightwater,
3083534,3210,Katapaki Rise,Flagstaff,Hamilton
1800334,5028,Katarina Grove,Tawa,Wellington
1813192,3920,Katarina Street,Taumarunui,
1795927,3334,Katarina Street,Turangi,
3080111,2024,Katatai Street,Favona,Auckland
3038969,4373,Katatore Lane,New Plymouth Airport,New Plymouth
1825180,1041,Katavich Place,Mount Roskill,Auckland
1820566,0484,Katavich Road,Waiharara,Awanui
1773762,9586,Katea Road,"Katea,Owaka",Owaka
1840044,5512,Katea Street,Otaki,
1837235,7901,Kate Cameron Drive,Twizel,
3082207,0614,Kate Duncan Drive,"Massey,Swanson",Auckland
1789798,7011,Kate Edger Place,Stoke,Nelson
3084502,3010,Kate Lane,Kawaha Point,Rotorua
1838945,3385,Katelyn Place,Kinloch,Taupo
1821560,0920,Katene Place,Snells Beach,
1818161,4675,Katene Road,Normanby,Hawera
1799133,4412,Katene Street,West End,Palmerston North
3082806,7615,Kate Place,Rolleston,
1816825,4312,Katere Road,Waiwhakaiho,New Plymouth
1815456,3118,Katerini Grove,Papamoa Beach,Papamoa
1829862,0630,Kate Sheppard Avenue,"Northcross,Torbay",Auckland
3080125,7615,Kate Sheppard Drive,Rolleston,
3003155,6011,Kate Sheppard Place,Thorndon,Wellington
1789333,7096,Kates Road,Stanley Brook,Wakefield
1817496,4614,Kate Street,Normanby,Hawera
1793822,6012,Kate Way,Karori,Wellington
1817494,4672,Katewheta Road,Ohangai,Hawera
1802204,4010,Kate Wyllie Place,Riverdale,Gisborne
1793831,6011,Katherine Avenue,Thorndon,Wellington
3015388,0991,Katherine Bay,"Great Barrier Island (Aotea Island),Katherine Bay",Great Barrier Island (Aotea Island)
1792563,5371,Katherine Mansfield Drive,"Blue Mountains,Whitemans Valley",Upper Hutt
1809262,3110,Katherine Place,Bellevue,Tauranga
1807321,3206,Katherine Place,Melville,Hamilton
1818492,2113,Kath Henry Lane,Drury,
1832774,0931,Kath Hopper Court,Orewa,
1830018,0931,Kath Hopper Drive,Orewa,
1784014,8042,Kathleen Crescent,Hornby,Christchurch
1812670,3330,Kathleen Place,Rainbow Point,Taupo
1838268,2123,Kathleen Reece Place,Waiuku,
1822628,0627,Kathleen Street,"Glenfield,Totara Vale",Auckland
1803345,4122,Kathleen Street,Parkvale,Hastings
3008171,1041,Kathryn Avenue,Mount Roskill,Auckland
1836059,7483,Kathryns Lane,Glasnevin,Amberley
1821550,0932,Kathy Terrace,Stanmore Bay,Whangaparaoa
1778263,8061,Katie Lane,Dallington,Christchurch
3034309,9382,Katies Way,Lake Hawea,
3082868,2102,Katikati Drive,Manurewa,Auckland
3083258,3720,Katipa Place,Ngaruawahia,
3080968,0975,Katipo Drive,Mangawhai,
3080872,2112,Katipo Road,Takanini,Auckland
1839867,7612,Katipo Way,Pegasus,
1824207,1022,Katoa Street,Point Chevalier,Auckland
1795929,3334,Katopu Street,Turangi,
1837480,3074,Katoro Drive,Owhata,Rotorua
1817497,4675,Katotauru Road,Okaiawa,Hawera
3082105,0614,Katote Avenue,Swanson,Auckland
1832255,2105,Katote Close,The Gardens,Auckland
3080543,3720,Katote Place,Ngaruawahia,
1989137,2120,Kato Way,Pukekohe,
1823069,0614,Katrina Place,Massey,Auckland
1955740,8083,Katrine Drive,"Burwood,Marshland",Christchurch
1778635,9610,Katrine Street,Otautau,
1803067,4198,Katrin Place,Mahia,
1808276,3129,Katterns Street,Katikati,
1819135,0379,Katui Road,"Aranga,Donnellys Crossing",
1819134,0376,Katui Road,"Aranga,Waipoua",Aranga
1822623,0620,Katui Street,Castor Bay,Auckland
1791948,4791,Kauaekeke Road,Papanui Junction,Hunterville
3055029,0491,Kauaepepe Road,Mangamuka,Okaihau
1815858,3010,Kauae Place,Ngongotaha,Rotorua
1806022,3577,Kauaeranga Valley Road,"Coromandel Forest Park,Thames",
1817772,4612,Kauae Street,Manaia,
3080247,2104,Kauai Avenue,Wiri,Auckland
3079600,5010,Kauamo Close,Waiwhetu,Lower Hutt
1777008,9782,Kauana Road,Benmore,Dipton
1800916,4577,Kauangaroa Road,Fordell,
1777601,9822,Kauango Street,Riverton/Aparima,
3044803,,Kauarapaoa Road,"Brunswick,Paparangi","Brunswick,Whanganui"
1820564,0484,Kauere Road,Houhora,Pukenui
1820568,0481,Kauhanga Road,Herekino,Kaitaia
3083568,3288,Kauhuri Road,Ngaruawahia,
1826050,0110,Kauika Road,"Avenues,Woodhill",Whangarei
1826044,0110,Kauika Road West,"Avenues,Woodhill",Whangarei
3080576,2578,Kauitara Lane,Karaka,Papakura
1804790,4972,Kaukahu Road,Dannevirke,
3083073,0932,Kauka Road,Wainui,
1797071,4582,Kaukatea Valley Road,Okoia,Whanganui
1793830,6035,Kau Kau Way,Ngaio,Wellington
1796642,4576,Kaukore Street,Pipiriki,Whanganui
3049001,0112,Kaumatua Crescent,Kensington,Whangarei
1784329,8051,Kaumatua Place,Redwood,Christchurch
1823060,0610,Kaumatua Place,Te Atatu Peninsula,Auckland
3082992,0931,Kaupeka Road,Orewa,
1818198,4678,Kaupokonui Heads Road,Kaupokonui,Hawera
3078816,0614,Kauri Amber Road,Westgate,Auckland
3080340,2571,Kauri Bush Rise,Whitford,
3080729,0478,Kauri Cliffs Drive,Matauri Bay,Kaeo
1809256,3112,Kauri Close,Hairini,Tauranga
1830587,0310,Kauri Court,Dargaville,
1817498,4610,Kauri Crescent,Hawera,
1811498,3400,Kauri Crescent,Matamata,
1814094,3592,Kauri Crescent,Matarangi,Whitianga
1809397,3025,Kauri Crescent,Murupara,
3081929,9400,Kauri Crescent,Oamaru,
1831010,0920,Kauri Crescent,Snells Beach,
1856088,3874,Kauri Crescent,Waikeria,Te Awamutu
1821562,0891,Kauri Crescent,Waimauku,
1821549,0982,Kauri Drive,Sandspit,Warkworth
1839661,2112,Kauri Drive,Takanini,Auckland
1812661,3332,Kauri Drive,Wairakei,Taupo
1827555,2123,Kauri Drive,Waiuku,
3082606,0505,Kauri Fields Way,Mangawhai,
3050276,0627,Kauri Glen Road,Northcote,Auckland
1814078,3506,Kauri Grove,Coromandel,
1795135,5810,Kauri Grove,Lansdowne,Masterton
1838783,0573,Kauri Grove,Mangawhai,
1835963,3600,Kauri Grove,Paeroa,
2004368,0810,Kauri Grove Drive,Kumeu,
3082210,0614,Kauri Gum Rise,Swanson,Auckland
2006664,2112,Kauri Heart Avenue,Takanini,Auckland
1835419,1072,Kauriki Terrace,Stonefields,Auckland
1823071,0604,Kaurilands Road,"Glen Eden,Titirangi",Auckland
1816126,3771,Kauri Lane,Huntly,
3082696,3114,Kauri Lane,Omokoroa,
1827593,2110,Kauri Lane,Red Hill,Papakura
1823062,0604,Kauri Loop Road,Oratia,Auckland
1826740,0192,Kauri Mountain Road,Taiharuru,Parua Bay
1823075,0604,Kaurimu Rise,Titirangi,Auckland
3079232,0118,Kaurinui Crescent,One Tree Point,Whangarei
3006234,0476,Kauri Pa Road,"Mangamuka,Omahuta Forest","Northland Conservation Park,Okaihau"
1820226,0405,Kauri Place,Kaikohe,
1803341,4120,Kauri Place,Mahora,Hastings
1808280,3189,Kauri Place,Maketu,
1801195,4910,Kauri Place,Pahiatua,
1826047,0112,Kauri Place,Parahaki,Whangarei
1806222,3508,Kauri Place,Tairua,
3081444,3210,Kauri Point Drive,Rototuna North,Hamilton
1823070,0604,Kauri Point Road,Laingholm,Auckland
1808277,3177,Kauri Point Road,Tahawai,
1841721,3793,Kauri Ridge Drive,Ngaruawahia,
1827144,2684,Kauri Road,Awhitu,
1821689,0626,Kauri Road,Birkenhead,Auckland
1841222,3491,Kauri Road,Kinleith,Tokoroa
1808191,2697,Kauri Road,Onewhero,
1827424,2120,Kauri Road,Pukekohe,
1821553,0932,Kauri Road,Stanmore Bay,Whangaparaoa
1811771,3373,Kauri Road,Tahuna,
3020480,5036,Kauri Road,"Waikanae,Waikanae Beach",Waikanae
1823063,0618,Kauri Road,"Waitemata Harbour,Whenuapai",Auckland
3037879,0476,Kauri Sanctuary Road,"Mangamuka,Omahuta Forest,Umawera","Northland Conservation Park,Okaihau"
1777605,9881,Kauri Street,Colac Bay/Oraka,Riverton/Aparima
1819069,0310,Kauri Street,Dargaville,
1800176,5013,Kauri Street,Eastbourne,Lower Hutt
1809562,3120,Kauri Street,Edgecumbe,
1802198,4010,Kauri Street,Elgin,Gisborne
1809259,3112,Kauri Street,Gate Pa,Tauranga
1800894,4501,Kauri Street,Gonville,Whanganui
1781705,7910,Kauri Street,Highfield,Timaru
3078901,7910,Kauri Street,Highfield,Timaru
1810323,3015,Kauri Street,Hillcrest,Rotorua
1818017,4330,Kauri Street,Inglewood,
1801480,5510,Kauri Street,Levin,
1803343,4120,Kauri Street,Mahora,Hastings
1812569,3421,Kauri Street,Mangakino,
1816826,4312,Kauri Street,Merrilands,New Plymouth
1793828,6022,Kauri Street,Miramar,Wellington
1796274,5512,Kauri Street,Otaki,
1786396,7903,Kauri Street,Pleasant Point,
1772319,9022,Kauri Street,Ravensbourne,Dunedin
1786689,8041,Kauri Street,Riccarton,Christchurch
1799128,4414,Kauri Street,Roslyn,Palmerston North
1788198,7011,Kauri Street,Stoke,Nelson
1804005,4112,Kauri Street,Taradale,Napier
1812301,3420,Kauri Street,Tokoroa,
1803068,4108,Kauri Street,Wairoa,
1800263,5011,Kauri Street,Woburn,Lower Hutt
1778440,9810,Kauri Terrace,Hargest,Invercargill
1818405,2584,Kauri View Road,Opaheke,Papakura
1841785,4625,Kauri Way,Ohakune,
3061222,9492,Kauru Hill Road,"Fuchsia Creek,Incholme,Kauru Hill",Oamaru
3085131,9371,Kauru Lane,Jacks Point,Queenstown
3082182,0992,Kauru Lane,Wainui,
1803678,4172,Kauru Road,Waipatu,Hastings
3081812,2113,Kauru Way,Karaka,Papakura
1827617,2025,Kautami Avenue,Papatoetoe,Auckland
3083182,0614,Kautawa Lane,Massey,Auckland
3084831,3218,Kauwhata Lane,Temple View,Hamilton
1797531,4891,Kauwhata Street,Himatangi Beach,
1839490,9371,Kavanagh Lane,Lake Hayes,Queenstown
1791123,7100,Kavanagh Place,Havelock,
1827832,2113,Kavanagh Place,Opaheke,Papakura
1804003,4110,Kavanagh Road,Hospital Hill,Napier
1956209,2019,Kawa Drive,Flat Bush,Auckland
3018353,,Kawaha Point Road,"Fairy Springs,Kawaha Point",Rotorua
1830210,0610,Kawai Rise,Te Atatu Peninsula,Auckland
1789598,7010,Kawai Street,Nelson South,Nelson
1788199,7010,Kawai Street South,"Bishopdale,Nelson South",Nelson
3060792,4598,Kawaiti Road,Hurleyville,Patea
1778077,9881,Kawakaputa Road,Ruahine,Riverton/Aparima
1825145,1024,Kawaka Street,Mount Eden,Auckland
1808833,3116,Kawaka Street,Mount Maunganui,
1784221,8041,Kawaka Street,Riccarton,Christchurch
1823065,0604,Kawaka Street,Titirangi,Auckland
3082388,2578,Kawakawa Avenue,Karaka,Papakura
1828571,2585,Kawakawa Bay Coast Road,Kawakawa Bay,
3084588,3800,Kawakawa Drive,Te Awamutu,
3078440,3110,Kawakawa Grove,Bethlehem,Tauranga
3081623,5011,Kawakawa Lane,Fairfield,Lower Hutt
1842459,4696,Kawakawa Lane,Horopito,Raetihi
3084353,0985,Kawakawa Lane,Warkworth,
3007167,2585,Kawakawa-Orere Road,"Kawakawa Bay,Orere Point",
3080998,3216,Kawakawa Place,Hillcrest,Hamilton
3007962,0814,Kawakawa Place,"Westgate,Whenuapai",Auckland
1797534,4775,Kawakawa Road,Feilding,
1812577,3377,Kawakawa Road,Marotiri,Taupo
1797748,4992,Kawakawa Road,"Pongaroa,Waione","Pongaroa,Weber"
1806223,3510,Kawakawa Road,Whitianga,
1801217,4797,Kawakawa Street,Mangaweka,
1839833,7612,Kawakawa Street,Pegasus,
1796953,4500,Kawakawa Street,Whanganui East,Whanganui
1797529,4891,Kawana Grove,Himatangi Beach,
1831117,0627,Kawana Street,Northcote,Auckland
1809938,3912,Kawana Street,Piopio,
3079481,0810,Kawapani Lane,Kumeu,
1817352,9310,Kawarau Court,Cromwell,
3020667,9384,Kawarau Gorge Road,"Cromwell,Kawarau Gorge,Roaring Meg",Cromwell
3082653,9304,Kawarau Heights Boulevard,Lake Hayes,Queenstown
1771514,9300,Kawarau Place,Frankton,Queenstown
3053695,9300,Kawarau Road,"Frankton,Kawarau Falls",Queenstown
1839843,7612,Kawari Drive,Pegasus,
3083226,9310,Kawariki Court,Cromwell,
3045997,3289,Kawariki Drive,Baverstock,Hamilton
3081323,0800,Kawariki Road,Helensville,
1817817,4310,Kawaroa Close,New Plymouth,
3046990,0991,Kawa Road,Great Barrier Island (Aotea Island),
1818243,4310,Kawaroa Lane,New Plymouth,
3080727,0474,Kawa Street,Kaikohe,
1800893,4501,Kawatiri Avenue,Gonville,Whanganui
1793395,5014,Kawatiri Grove,Wainuiomata,Lower Hutt
3050123,,Kawatiri-Murchison Highway,"Braeburn Range,Glenhope,Gowanbridge,Kahurangi National Park,Longford,Murchison,Owen River","Kahurangi National Park,Murchison,St. Arnaud"
1840183,7825,Kawatiri Place,Westport,
1802754,4071,Kawatiri Road,Makauri,Gisborne
3079686,0931,Kawau Close,Orewa,
1782948,8062,Kawau Crescent,Bromley,Christchurch
1798181,5036,Kawau Grove,Waikanae Beach,Waikanae
1821554,0930,Kawau Island Avenue,Manly,Whangaparaoa
3050751,5794,Kawau Lane,"Greytown,Woodside",Greytown
1831327,0505,Kawau Lane,Mangawhai Heads,Mangawhai
3048147,0875,Kawaupaka Road,Kaukapakapa,
1797068,4500,Kawau Place,Otamatea,Whanganui
1825596,1061,Kawau Road,Greenlane,Auckland
1799084,4720,Kawau Road,Taihape,
1816527,4387,Kawau Road,Tarata,
3021308,,Kawautahi Road,"Owhango,Retaruke",Owhango
1821552,0920,Kawau View Road,Snells Beach,
3081933,3118,Kawau Way,Papamoa Beach,Papamoa
1817495,4671,Kawei Road,Ohawe,Hawera
1833432,5024,Kaweka Close,Aotea,Porirua
1803499,4130,Kaweka Place,Havelock North,
1798866,4796,Kaweka Road,"Mangaweka,Taihape",
3044381,0372,Kaweka Road,"Pakotai,Tangowahine","Dargaville,Whangarei"
1822905,0600,Kaweka Street,New Lynn,Auckland
1814790,3191,Kawekawe Road,Tawera,Taneatua
3080521,2112,Kawe Marie Lane,Takanini,Auckland
1818135,4682,Kaweora Road,Opunake,
1797370,4797,Kawera Road,Mangaweka,
3004965,4179,Kawera Road,Pukehamoamoa,Hastings
1831057,0624,Kawerau Avenue,Devonport,Auckland
3012173,3192,Kawerau Road,"Kawerau,Putauaki",Kawerau
3062876,3192,Kawerau Road West,Rotoma,Whakatane
3080000,3171,Kaweroa Drive,"Omanawa,Tauriko","Omanawa,Tauranga"
3072090,0376,Kawerua Road,"Waipoua,Waipoua Forest","Aranga,Northland Conservation Park"
1847237,8083,Kawharu Street,Marshland,Christchurch
1797366,4774,Kawhatau Street,Rangiwahia,Kimbolton
1797367,4797,Kawhatau Valley Road,Mangaweka,
3057981,3592,Kawhero Drive,Kuaotunu,Whitianga
3057126,3592,Kawhero Street,Kuaotunu,Whitianga
3047291,7282,Kawhia Bay,Arapaoa Island,Marlborough Sounds
1805961,3988,Kawhia Harbour Road,"Kawhia Harbour,Taharoa",Taharoa
3028357,,Kawhia Road,"Hauturu,Honikiwi,Kawhia,Oparau,Otorohanga,Te Rauamoa,Tihiroa","Kawhia,Oparau,Otorohanga"
3028358,3895,Kawhia Road,"Kawhia,Makomako,Raglan","Kawhia,Raglan,Te Mata"
1807922,3889,Kawhia Street,Kawhia,
1837081,3592,Kawhina Lane,Kuaotunu,Whitianga
1831480,1072,Kawiti Avenue,Point England,Auckland
1810325,3074,Kawiti Street,Rotoiti Forest,Rotorua
1800692,,Kawiu Road,Levin,
1805908,3877,Kay Access Road,Parawera,
1787071,7630,Kay Avenue,The Pines Beach,
1824221,0600,Kay Drive,Blockhouse Bay,Auckland
3079004,7615,Kaye Lane,Rolleston,
1827960,2014,Kayeleen Place,Cockle Bay,Auckland
1814562,3114,Kayelene Place,Omokoroa,
1826735,0175,Kaye Road,Pataua North,Parua Bay
1806225,3584,Kayes Crescent,Waikawau,Coromandel
1799897,5032,Kaye's Place,Paraparaumu Beach,Paraparaumu
1832052,2120,Kayes Road,Pukekohe,
3000071,9035,Kayforce Road,Ocean View,Dunedin
3083497,9572,Kaylea Lane,Millers Flat,Roxburgh
1823067,0618,Kayle Glen,West Harbour,Auckland
2014297,0179,Kaymahr Lane,Maunu,Whangarei
3041512,3210,Kay Road,Flagstaff,Hamilton
1832252,2102,Kay Road,Manurewa,Auckland
1825925,1072,Kay Road,Panmure,Auckland
1778169,9776,Kay Road,Riversdale,
1812985,3879,Kay Road,"Rotoorangi,Te Awamutu","Cambridge,Te Awamutu"
1823056,0614,Kay Road,"Swanson,Waitakere",Auckland
3084653,7710,Kay Way,Rakaia,Rakaia
1774369,9230,Keach Lane,Balclutha,
3080348,5713,Kea Court,Carterton,
1792558,5018,Kea Grove,Elderslea,Upper Hutt
3078540,3171,KeAhi Rise,Tauriko,Tauranga
1825923,1062,Kealy Road,Mount Wellington,Auckland
1809258,3112,Keam Way,Welcome Bay,Tauranga
1786174,7682,Keands Road,Dunsandel,
1786397,7974,Keane Road,"Levels Valley,Pleasant Point","Pleasant Point,Timaru"
1828554,2571,Keanes Road,Maraetai,Auckland
1836016,2579,Keaney Road,Ararimu,Drury
1777000,9781,Kean Road,Thomsons Crossing,Winton
3036978,7999,Kea Place,Aoraki/Mount Cook National Park,
1803342,4120,Kea Place,Camberley,Hastings
1799842,4410,Kea Place,Fitzherbert,Palmerston North
1828557,2022,Kea Place,Mangere Bridge,Auckland
1791468,7300,Kea Place,South Bay,Kaikoura
1812240,3420,Kea Place,Tokoroa,
1796945,4500,Kea Place,Whanganui East,Whanganui
1826051,0110,Kea Place,Woodhill,Whangarei
1817769,4671,Kearin Road,Manaia,
1818396,0614,Kearney Place,Massey,Auckland
1804900,4972,Kearney Road,Maharahara,Dannevirke
1831934,0172,Kearney Road,Pakotai,Whangarei
1782947,8062,Kearneys Road,Linwood,Christchurch
3081005,8025,Kearns Drive,Halswell,Christchurch
3077699,0616,Kearns Drive,Hobsonville,Auckland
3080281,0932,Kea Road,Silverdale,
1810327,3077,Kearoa Road,Horohoro,Rotorua
1842796,7608,Keast Place,Lincoln,
1780515,7600,Kea Street,Burnham,
3004719,3015,Kea Street,"Fairy Springs,Selwyn Heights",Rotorua
1807322,3204,Kea Street,Frankton,Hamilton
1808278,3129,Kea Street,Katikati,
1774872,9382,Kea Street,Makarora,Wanaka
1811501,3473,Kea Street,Matamata,
1809939,3912,Kea Street,Piopio,
1784220,8041,Kea Street,Riccarton,Christchurch
1775462,9022,Kea Street,Saint Leonards,Dunedin
1788200,7011,Kea Street,Stoke,Nelson
1799063,4720,Kea Street,Taihape,
1814700,3112,Kea Street,Tauranga South,Tauranga
1798183,5036,Kea Street,Waikanae,
1806226,3620,Kea Street,Whangamata,
1825922,1060,Keate Place,Mount Wellington,Auckland
1785087,0632,Keating Rise,Northcross,Auckland
1842030,7692,Keating Street,Kaiapoi,
1773860,9535,Keatoa Terrace,Owaka,
1795010,5810,Keaton Street,Masterton,
1805282,4110,Keats Avenue,Onekawa,Napier
1814396,3214,Keats Crescent,Enderley,Hamilton
1789599,7011,Keats Crescent,Stoke,Nelson
1831479,0600,Keats Place,Blockhouse Bay,Auckland
1842751,7334,Keats Place,Hanmer Springs,
1786712,7614,Keats Place,Rolleston,
1816820,4310,Keats Place,Whalers Gate,New Plymouth
1800118,5018,Keats Street,Trentham,Upper Hutt
1812721,3432,Keats Terrace,Leamington,Cambridge
1819340,0571,Keay Airstrip Road,Taipuha,Paparoa
1819341,0571,Keay Road,Taipuha,Paparoa
1826738,0178,Keays Access,Maungakaramea,
3030884,0110,Keays Road,Avenues,Whangarei
1795771,7011,Kebal Place,Stoke,Nelson
1798405,5510,Kebbell Avenue,Levin,
3018460,5391,Kebbell Drive,"Otaihanga,Waikanae","Paraparaumu,Waikanae"
1800261,5011,Kebbell Grove,Epuni,Lower Hutt
1798188,5570,Kebbell Terrace,Ohau,
1839949,4820,Kebbles Drive,Linton,Palmerston North
1842966,9371,Keble Lane,Lower Shotover,Queenstown
1793837,6022,Kedah Street,Miramar,Wellington
1771349,9393,Keddell Road,Springvale,Alexandra
1807323,3204,Keddell Street,Frankton,Hamilton
1826026,0505,Kedge Drive,Mangawhai,
1792208,5024,Kedge Lane,Whitby,Porirua
1988551,0614,Kedgley Drive,Westgate,Auckland
1784325,8042,Kedleston Drive,Avonhead,Christchurch
1779980,8082,Keebles Lane,Lyttelton,
1823072,0614,Keegan Drive,Massey,Auckland
3078127,3330,Keehan Drive,Hilltop,Taupo
3014310,4079,Keelan Road,"Raukumara,Te Puia Springs,Waipiro","Ruatoria,Tokomaru Bay"
1812837,3496,Keeley Road,Cambridge,
1822828,0612,Keeling Road,Henderson,Auckland
1799135,4412,Keeling Street,West End,Palmerston North
1792209,5024,Keel Place,Whitby,Porirua
3078582,0630,Keel Street,Long Bay,Auckland
1830324,2016,Keenagh Rise,Dannemora,Auckland
1777604,9691,Keenan Road,Happy Valley,Tuatapere
1808284,3173,Keenan Road,Pyes Pa,Tauranga
1781101,7772,Keenans Road,"Elgin,Newland",Ashburton
1840998,4312,Keene Drive,Bell Block,New Plymouth
1774684,9412,Keene Place,Omarama,
3053439,8042,Keene Street,Wigram,Christchurch
1827831,2110,Keeney Court,Papakura,
1827142,2583,Keeney Road,Hunua,
1778520,9872,Keen Road,Hedgehope,Invercargill
1787375,7991,Keen Road,Orari Bridge,Geraldine
1782252,7980,Keens Road,Morven,Waimate
1780519,7580,Keens Road,Springfield,
1811704,3600,Keepa Avenue,Paeroa,
1836029,3118,Keepa Close,Papamoa Beach,Papamoa
1809559,3191,Keepa Road,Coastlands,Whakatane
1795909,3382,Keepa Road,"Motuoapa,Turangi",
1801144,5510,Keepa Street,Levin,
3079493,7610,Keeper Close,Woodend,
1838800,0930,Keepers Drive,Gulf Harbour,Whangaparaoa
3080011,3210,Keerangi Place,Rototuna North,Hamilton
1809558,3191,Keera Road,Ruatoki,Taneatua
3051711,9773,Kee Road,"Wendon,Wendon Valley","Gore,Riversdale"
1819133,0374,Keer Road,Arapohue,Dargaville
1784874,7692,Keetly Place,Ohoka,
1821941,0630,Kegworth Place,Browns Bay,Auckland
1817406,4322,Kegworth Street,Eltham,
1817997,4378,Keho Road,Uruti,Urenui
1834563,7072,Kehu Lane,St. Arnaud,
3083331,1041,Kehu Loop,Mount Roskill,Auckland
1790610,7872,Kehu Street,Moana,
1810338,3979,Keighley Road,Aria,
1779240,8062,Keighleys Road,Bromley,Christchurch
3078592,0614,Keiha Crescent,Massey,Auckland
1802200,4010,Keiha Street,Riverdale,Gisborne
1799678,4410,Keiller Place,Fitzherbert,Palmerston North
1786572,7980,Keillors Road,Waimate,
1814699,3110,Keilor Road,Otumoetai,Tauranga
1775214,9220,Keinan Avenue,Milton,
1795014,5810,Keir Crescent,Lansdowne,Masterton
1776161,9772,Keir Road,Charlton,Gore
1785235,7400,Keir Street,Rangiora,
1802966,4130,Keirunga Road,Havelock North,
1790883,7201,Keiss Street,Blenheim,
1809261,3110,Keith Allen Drive,Tauranga,
1807324,3206,Keitha Place,Glenview,Hamilton
1812571,3377,Keitha Place,Kinloch,Taupo
1824212,1050,Keith Avenue,Remuera,Auckland
1835734,3372,Keith Camp Place,Morrinsville,
1803254,7271,Keith Coleman Lane,Wairau Valley,
1797326,4702,Keith Elliott Street,Feilding,
3041081,5022,Keith Hart Grove,Titahi Bay,Porirua
1821548,0932,Keith Hay Court,Silverdale,
1818591,2104,Keith Hay Drive,Manukau,Auckland
1775288,9230,Keithmore Road,Balclutha,
1832996,0931,Keith Morris Lane,Orewa,
1827443,2120,Keith Place,Pukekohe,
1810328,3097,Keith Road,Ngongotaha,Rotorua
3008611,7805,Keith Road,Paroa,Greymouth
1827140,2676,Keith Road,Pukekohe,
1838631,0171,Keith Road,Ruakaka,
1821551,0975,Keith Road,Te Arai,Wellsford
1811321,3781,Keith Road,Waerenga,Te Kauwhata
1803527,4130,Keith Sands Grove,Havelock North,
1821687,0626,Keith Smith Avenue,Beach Haven,Auckland
1770620,9495,Keith Street,Herbert,
1781706,7910,Keith Street,Kensington,Timaru
1800001,4414,Keith Street,"Roslyn,Terrace End",Palmerston North
1796946,4500,Keith Street,Whanganui,
1842769,8042,Keith Street,Wigram,Christchurch
3082848,3114,Keiti View,Omokoroa,
1793222,5010,Kekeno Grove,Tirohanga,Lower Hutt
1838862,9877,Kekeno Place,Awarua,Invercargill
1793840,6022,Kekerenga Street,Strathmore Park,Wellington
1791400,7274,Kekerengu Road,Kekerengu,Kaikoura
1791401,7274,Kekerengu Valley Road,Kekerengu,Kaikoura
3065766,4381,Kekeua Road,"Pungarehu,Warea",
3082623,8025,Kekewai Place,Halswell,Christchurch
3081340,0112,Kekewai Place,Tikipunga,Whangarei
1828575,2022,Kelburn Lane,Mangere,Auckland
1791950,6012,Kelburn Parade,Kelburn,Wellington
1976746,7700,Kelburn Place,Tinwald,Ashburton
1822632,0620,Keldale Place,Forrest Hill,Auckland
1787515,7400,Keldon Avenue,Rangiora,
1803444,4120,Kelfield Place,Frimley,Hastings
1821058,0900,Kelgary Place,Wellsford,
1823068,0602,Kelkirk Street,Kelston,Auckland
1770626,9401,Kelk Road,Waiareka Junction,Oamaru
1827308,2683,Kelland Road,Pollok,
1813236,3994,Kelland Road,Taringamotu,
3053634,7975,Kellands Hill Road,"Gleniti,Washdyke Flat",Timaru
1790054,7805,Kellars Road,Gladstone,Greymouth
3072020,9014,Kellas Street,Macandrew Bay,Dunedin
1833134,2013,Kellaway Drive,East Tamaki,Auckland
1778956,7420,Kellaway Terrace,Waikari,
1829627,0632,Kell Drive,Albany,Auckland
1800119,5018,Kelleher Lane,Elderslea,Upper Hutt
3067720,9874,Kelleher Road,"Five Roads,Northope,Otahuti",Invercargill
3082735,3118,Kelleria Way,Papamoa Beach,Papamoa
1782936,8061,Keller Street,Avonside,Christchurch
1819852,0200,Kellet Street,Opua,
1831270,0612,Kellett Road,Ranui,Auckland
1798653,4592,Kelley Road,Waverley,
1806350,9305,Kelliher Drive,Wanaka,
1829475,2025,Kelliher Lane,Papatoetoe,Auckland
1771350,9393,Kelliher Lane,Springvale,Alexandra
1789763,7175,Kelling Road,Upper Moutere,
1779777,7420,Kellocks Road,Waikari,
1828552,2104,Kellow Place,Wiri,Auckland
3009093,4473,Kellow Road,"Glen Oroua,Himatangi,Rongotea",
1792556,5018,Kellow Street,Wallaceville,Upper Hutt
1796949,4500,Kells Avenue,Aramoho,Whanganui
1812025,3482,Kells Lane,Lichfield,Putaruru
1793819,6023,Kellsmere Crescent,Island Bay,Wellington
1818488,2010,Kells Place,Botany Downs,Auckland
1807325,3204,Kells Place,Frankton,Hamilton
1798650,4588,Kells Street,Waitotara,Whanganui
1992237,7608,Kelly Close,Lincoln,
1842536,0932,Kelly Greens,Silverdale,
1792562,5018,Kelly Grove,Elderslea,Upper Hutt
1839235,3592,Kelly Jade Avenue,Matarangi,Whitianga
1842511,3210,Kelly Maree Crescent,Flagstaff,Hamilton
1807326,3210,Kelly Place,Chartwell,Hamilton
1827958,2014,Kelly Place,Cockle Bay,Auckland
1800136,3510,Kelly Place,Whitianga,
1812972,3434,Kelly Road,Cambridge,
1816349,4373,Kelly Road,Lepperton,New Plymouth
1827310,2474,Kelly Road,Mercer,
1798861,4792,Kelly Road,Ngamahango,Taihape
1777611,9689,Kelly Road,Nightcaps,
1820147,0473,Kelly Road,Opononi,
1814563,3189,Kelly Road,Paengaroa,
1849189,0820,Kelly Road,Riverhead,
1811152,3781,Kelly Road,Waerenga,Te Kauwhata
1814305,3681,Kelly Road,Waihi,
1830600,0391,Kellys Bay Road,Pouto,
1782935,8052,Kellys Road,Mairehau,Christchurch
1831269,0604,Kellys Road,"Oratia,Waiatarua",Auckland
3003736,2571,Kellys Road,Whitford,
1841657,5781,Kelly's Stream Lane,Martinborough,
1819132,0377,Kelly Street,Baylys Beach,
1817091,4373,Kelly Street,Huirangi,New Plymouth
1816530,4330,Kelly Street,Inglewood,
1812656,4394,Kelly Street,Midhirst,Stratford
1825093,1024,Kelly Street,Mount Eden,Auckland
1796413,3122,Kelly Street,Opotiki,
3084004,7400,Kelly Street,Rangiora,
1788022,7830,Kelly Street,Reefton,
1810329,3015,Kelly Street,Utuhina,Rotorua
1818062,4312,Kellyville Heights,Merrilands,New Plymouth
1827311,2474,Kellyville Road,Mercer,
1948031,7020,Kelly Way,Richmond,
1823058,0602,Kelman Road,Kelston,Auckland
3000062,9320,Kelman Street,Alexandra,
1831484,,Kelmarna Avenue,"Herne Bay,Ponsonby",Auckland
1837250,0632,Kelmore Place,Schnapper Rock,Auckland
1811327,3791,Kelm Road,Ngaruawahia,
1828576,2023,Kelpie Lane,Otara,Auckland
1797371,4774,Kelpie Road,Rangiwahia,Kimbolton
1804002,4110,Kelsall Street,Hospital Hill,Napier
1825321,1042,Kelsey Crescent,Hillsborough,Auckland
1841621,3771,Kelsey Road,Glen Afton,Huntly
1799841,4501,Kelsi Street,Tawhero,Whanganui
1774019,9587,Kelso Back Road,Kelso,Tapanui
1832916,2110,Kelso Court,Papakura,
1776545,9812,Kelso Crescent,"Heidelberg,Strathern",Invercargill
1800262,5010,Kelso Grove,Kelson,Lower Hutt
1806227,3506,Kelso Lane,Coromandel,
1778949,8041,Kelson Lane,Ilam,Christchurch
1842881,7910,Kelson Road,Gleniti,Timaru
1841624,3473,Kelso Place,Matamata,
1772825,9024,Kelso Place,Mosgiel,
1776543,9812,Kelso Place,Strathern,Invercargill
1775316,9587,Kelso Road,Kelso,Tapanui
1774063,9587,Kelso Settlement Road,Kelso,Tapanui
1771201,9500,Kelso Street,Roxburgh,
1812248,3420,Kelso Street,Tokoroa,
1831243,0600,Kelston Street,New Lynn,Auckland
3071241,3110,Kelston Way,Tauriko,Tauranga
1805480,4112,Kel Tremain Place,Pirimai,Napier
1780731,7700,Kelvin Crescent,Allenton,Ashburton
1823064,0610,Kelvin Crescent,Te Atatu Peninsula,Auckland
1793834,6011,Kelvin Grove,Te Aro,Wellington
3022547,,Kelvin Grove Road,"Bunnythorpe,Kelvin Grove,Roslyn",Palmerston North
1836650,2013,Kelvin Hart Drive,East Tamaki,Auckland
1840823,9300,Kelvin Heights Golf Course Road,Kelvin Heights,Queenstown
1807327,3216,Kelvin Place,Hamilton East,Hamilton
1771516,9300,Kelvin Place,Kelvin Heights,Queenstown
1804004,4110,Kelvin Place,Maraenui,Napier
1816824,4310,Kelvin Place,Westown,New Plymouth
1805639,4110,Kelvin Road,Maraenui,Napier
1775014,9010,Kelvin Road,North East Valley,Dunedin
1827835,2110,Kelvin Road,Papakura,
1824218,1050,Kelvin Road,Remuera,Auckland
3015673,9774,Kelvin Road,"Upper Charlton,Waimumu",Gore
1824203,0600,Kelvinside Terrace,Avondale,Auckland
1796950,4500,Kelvin Street,Aramoho,Whanganui
1776544,9810,Kelvin Street,"Avenal,Gladstone,Invercargill",Invercargill
1802209,4010,Kelvin Street,Inner Kaiti,Gisborne
1781872,7910,Kelvin Street,Marchwiel,Timaru
1770202,9400,Kelvin Street,South Hill,Oamaru
1836456,3110,Kelvin Way,Judea,Tauranga
1828546,2102,Kelvyn Grove,"Hillpark,Manurewa",Auckland
1823059,0602,Kelwyn Road,"Kelston,New Lynn",Auckland
1828547,2022,Kemble Close,Mangere,Auckland
3078134,7615,Kemble Drive,Rolleston,
1803767,3210,Kemble Place,Flagstaff,Hamilton
3027198,9773,Kemp Bridge Road,"Chatton North,Otama",Gore
1841418,7630,Kemp Lane,Kaiapoi,
1787174,8053,Kemp Lane,Papanui,Christchurch
3035400,9893,Kemp Road,"Ashers,Kapuka",Invercargill
1827301,2684,Kemp Road,Awhitu,
1770628,9482,Kemp Road,"Hillgrove,Moeraki",Moeraki
1819845,0230,Kemp Road,Kerikeri,
1823052,0614,Kemp Road,Massey,Auckland
1801941,4071,Kemp Road,Matawhero,Gisborne
1778130,9777,Kemp Road,Otama,Gore
1802818,4083,Kemp Road,Ruatoria,
3010828,9073,Kempshall Road,Woodside,Outram
3006280,5571,Kemp Street,Hokio Beach,Levin
1793838,6022,Kemp Street,Kilbirnie,Wellington
1797069,4500,Kemp Street,Putiki,Whanganui
1824229,1071,Kempthorne Crescent,Mission Bay,Auckland
1841480,9010,Kempthorne Place,Wakari,Dunedin
1774064,9587,Kempthorne Road,"Heriot,Park Hill",Tapanui
1819843,0272,Kempthorne Road,Russell,
1782253,7972,Kempthornes Road,Maungati,Southburn
3081744,7020,Kempton Lane,Richmond,
1842280,4130,Kempton Park Lane,Havelock North,
1841390,7400,Kempton Place,Rangiora,
1812568,3330,Kempton Place,Richmond Heights,Taupo
1793541,5794,Kemptons Line,"Greytown,Morison Bush,Papawai",Greytown
1795657,5712,Kempton Street,Greytown,
3080754,8051,Kemsley Lane,Casebrook,Christchurch
3082980,3434,Kemureti Square,Cambridge,
3002979,0494,Kenana Road,Mangonui,
1808275,3186,Kenana Road,Te Puke,
3027448,7081,Ken Beck Drive,Moturoa / Rabbit Island,Richmond
3050541,3200,Ken Browne Drive,Te Rapa,Hamilton
1779241,8053,Kendal Avenue,Burnside,Christchurch
1821059,0985,Kendale Drive,Leigh,
1793394,5014,Kendal Grove,Wainuiomata,Lower Hutt
1828572,2103,Kendall Court,Wattle Downs,Auckland
1807328,3210,Kendall Place,Flagstaff,Hamilton
1819846,0230,Kendall Road,Kerikeri,
3077822,0178,Kendall Road,Maungakaramea,
3083077,0932,Kendall Road,Wainui,
1795965,4472,Kendalls Line,Linton,Palmerston North
1838617,2123,Kendallvale Drive,Waiuku,
1836696,7011,Kendall View,Stoke,Nelson
1816823,4312,Kendal Place,Merrilands,New Plymouth
1788480,7182,Kendal Street,Milnthorpe,Golden Bay / Mohua
1778633,9610,Kendal Street,Otautau,
1824209,1052,Kenderdine Lane,Parnell,Auckland
1804454,4277,Kenderdine Road,Elsthorpe,
1829476,2025,Kenderdine Road,Papatoetoe,Auckland
1842413,7614,Kendon Drive,Rolleston,
1826048,0110,Kendon Place,Raumanga,Whangarei
1790884,7201,Kendon Street,Witherlea,Blenheim
1842909,5024,Ken Douglas Drive,Aotea,Porirua
3081443,3283,Kendrick Lane,Tamahere,Hamilton
1824208,0600,Kendrick Place,Blockhouse Bay,Auckland
1950630,7274,Kendrick Road,Riverlands,
1792210,5024,Kenef Road,Paremata,Porirua
3081695,2676,Kenehi Road,Karaka,Papakura
3083925,3434,Kenepuru Crescent,Cambridge,
1791509,,Kenepuru Drive,"Kenepuru,Porirua City Centre",Porirua
3082778,5024,Kenepuru Link Road,"Kenepuru,Ranui,Tawa","Porirua,Wellington"
1791119,,Kenepuru Road,"Black Rock,Broughton Bay,Goulter Bay,Kenepuru Head,Linkwater,Mahau Sound,Mills Bay,Moetapu Bay,Nopera,Ohauparuparu Bay,Portage,Raetihi,Saint Omer,Te Mahia,Waitaria Bay","Linkwater,Marlborough Sounds"
1815902,3920,Kenheath Place,Taumarunui,
3077849,2676,Kenilorea Road,Karaka,Papakura
1792559,5019,Kenilworth Grove,Silverstream,Upper Hutt
1807329,3204,Kenilworth Place,Dinsdale,Hamilton
1802967,4122,Kenilworth Road,Mayfair,Hastings
1770201,9400,Kenilworth Road,Oamaru North,Oamaru
3025828,9891,Kenilworth Road,Pine Bush,Wyndham
1787479,8024,Kenilworth Street,Addington,Christchurch
3059013,9013,Kenilworth Street,"Vauxhall,Waverley",Dunedin
1805372,4210,Kenilworth Street,Waipawa,
1818053,2016,Kenley Heights,Flat Bush,Auckland
1831481,1026,Kenley Place,Avondale,Auckland
1770910,9320,Kenmare Street,Alexandra,
3083377,5018,Ken McNatty Street,Wallaceville,Upper Hutt
1812242,3420,Kenmore Place,Tokoroa,
1793836,6037,Kenmore Street,Newlands,Wellington
1816821,4310,Kenmore Street,Westown,New Plymouth
1822471,0620,Kenmure Avenue,"Castor Bay,Forrest Hill",Auckland
1787820,8022,Kenmure Drive,Huntsbury,Christchurch
1813462,3110,Kenmure Place,Bethlehem,Tauranga
3026478,9011,Kenmure Road,"Belleknowes,Kenmure",Dunedin
1840968,9471,Kennard Crescent,Karitane,Waikouaiti
1782254,7978,Kennards Road,Waimate,
1830924,0972,Kennaway Road,Whangaripo,Wellsford
1787282,8023,Kennaway Road,Woolston,Christchurch
1780510,7673,Kennaway Street,Whitecliffs,Glentunnel
1797327,4702,Kennedy Avenue,Feilding,
1822470,0620,Kennedy Avenue,Forrest Hill,Auckland
3043040,3583,Kennedy Bay Road,"Coromandel,Kennedy Bay",Coromandel
1782255,7924,Kennedy Crescent,Waimate,
1771515,9305,Kennedy Crescent,Wanaka,
1801163,5510,Kennedy Drive,Levin,
1812087,3411,Kennedy Drive,Putaruru,
3063947,5010,Kennedy-Good Bridge,"Avalon,Belmont",Lower Hutt
1793229,5019,Kennedy Grove,Stokes Valley,Lower Hutt
1842883,3216,Kennedy Lane,Hamilton East,Hamilton
1806228,3579,Kennedy Park Drive,Pauanui,
1782956,8022,Kennedy Place,Hillsborough,Christchurch
1816816,4312,Kennedy Place,Merrilands,New Plymouth
1837219,5036,Kennedy Place,Waikanae Beach,Waikanae
1825710,1081,Kennedy Point Road,Surfdale,Waiheke Island
3081818,7774,Kennedy Quay,Huntingdon,Ashburton
3033979,9874,Kennedy Road,"Argyle Corner,Wrights Bush",Invercargill
1821056,0792,Kennedy Road,Dairy Flat,
3033980,9683,Kennedy Road,"Drummond,Otahuti","Invercargill,Winton"
1786945,7495,Kennedy Road,Eyrewell,West Eyreton
1775117,9018,Kennedy Road,Fairfield,Dunedin
3033986,,Kennedy Road,"Greenmeadows,Marewa,Napier South,Onekawa,Pirimai",Napier
1770621,9495,Kennedy Road,Herbert,
1808281,3173,Kennedy Road,Pyes Pa,Tauranga
1803450,4120,Kennedy Road,Raureka,Hastings
3033989,1081,Kennedy Road,Surfdale,Waiheke Island
1806852,3682,Kennedy Road,Waikino,Waihi
1776157,9773,Kennedy Road,"Wendon,Wendon Valley","Gore,Riversdale"
1786269,8025,Kennedys Bush Road,"Halswell,Kennedys Bush",Christchurch
1787070,7471,Kennedys Hill Road,Fernside,Rangiora
1785240,7471,Kennedys Road,Cust,
1791602,7272,Kennedys Road,Hawkesbury,Renwick
1779244,7475,Kennedys Road,Swannanoa,
3056198,0814,Kennedys Road,Whenuapai,Auckland
1801167,4815,Kennedy Street,Foxton Beach,Foxton
1779242,7930,Kennedy Street,Geraldine,
1814883,3073,Kennedy Street,Kaingaroa Forest,Murupara
1802199,4010,Kennedy Street,Mangapapa,Gisborne
1793818,6011,Kennedy Street,Mount Victoria,Wellington
1819850,0200,Kennedy Street,Opua,
1806952,3600,Kennedy Street,Paeroa,
1775102,9012,Kennedy Street,Saint Clair,Dunedin
1811913,3320,Kennedy Street,Te Aroha,
1789581,7825,Kennedy Street,Westport,
3055067,9879,Kennedy Way,New River Ferry,Invercargill
1827442,2120,Kennelly Crescent,Pukekohe,
1774381,9382,Kennels Lane,Albert Town,Wanaka
1781102,7778,Kennels Road,Tinwald,Ashburton
3029781,7975,Kennels Road,Washdyke,Timaru
1786151,8082,Kenners Lane,Lyttelton,
1831617,1025,Kenneth Avenue,Sandringham,Auckland
1806229,3510,Kenneth Avenue,Whitianga,
3038434,5018,Kenneth Gillies Way,Birchville,Upper Hutt
1821063,0930,Kenneth Hopper Place,Manly,Whangaparaoa
3081765,1051,Kenneth Myers Drive,One Tree Hill,Auckland
1813984,3210,Kenneth Place,Rototuna,Hamilton
1833240,1022,Kenneth Small Crescent,Point Chevalier,Auckland
1831483,1050,Kenneth Small Place,Remuera,Auckland
1770204,9400,Kennet Street,South Hill,Oamaru
1807330,3214,Kenney Crescent,Fairfield,Hamilton
1796391,4826,Kenningston Street,Waiouru,
1828563,2103,Kennington Drive,Clendon Park,Auckland
3079501,7615,Kennington Drive,Rolleston,
1776679,9871,Kennington Road,Kennington,Invercargill
1839569,9871,Kennington Roslyn Bush Road,"Kennington,Mill Road,Roslyn Bush",Invercargill
1791122,7178,Kenningtons Road,Okaramio,Havelock
1839600,9871,Kennington Waimatua Road,"Kennington,Waimatua",Invercargill
1805280,4110,Kenny Avenue,Ahuriri,Napier
1841420,7630,Kenny Lane,Kaiapoi,
3033711,4110,Kenny Road,"Awatoto,Meeanee",Napier
1824214,1050,Kenny Road,Remuera,Auckland
3072562,3610,Kenny Street,Waihi,
1810330,3015,Kenrick Road,"Mangakakahi,Pukehangi",Rotorua
3022915,3320,Kenrick Street,Te Aroha,
1838953,3377,Kenrigg Road,Kinloch,Taupo
1813655,3377,Kenrigg Road East,Kinloch,Taupo
1815584,3491,Ken Road,Kinleith,Tokoroa
1826049,0112,Kensington Avenue,Kensington,Whangarei
1782926,8013,Kensington Avenue,Mairehau,Christchurch
1825096,1024,Kensington Avenue,Mount Eden,Auckland
1801577,5012,Kensington Avenue,Petone,Lower Hutt
1785237,7400,Kensington Avenue,Rangiora,
1772499,9012,Kensington Avenue,South Dunedin,Dunedin
1837931,0931,Kensington Drive,Orewa,
1799934,5391,Kensington Drive,Peka Peka,Waikanae
1804941,4112,Kensington Drive,Taradale,Napier
1839933,0112,Kensington Heights Rise,Kensington,Whangarei
1793228,5010,Kensington Lane,Harbour View,Lower Hutt
1808274,3173,Kensington Lane,Oropi,
1799126,4410,Kensington Mews,Hokowhitu,Palmerston North
1807331,3214,Kensington Place,Fairfield,Hamilton
1812567,3330,Kensington Place,Richmond Heights,Taupo
1838434,7201,Kensington Place,Springlands,Blenheim
1798763,4710,Kensington Road,Marton,
1806854,3610,Kensington Road,Waihi,
1815807,3411,Kensington Street,Putaruru,
1793816,6011,Kensington Street,Te Aro,Wellington
1812237,3420,Kensington Street,Tokoroa,
1830022,0930,Kensington Terrace,Gulf Harbour,Whangaparaoa
3080058,5713,Kens Lane,Carterton,
3079632,7608,Kens Lane,Lincoln,
1861481,9023,Kens Lane,Sawyers Bay,Dunedin
1789339,7096,Kens Road,Spooners Range,Wakefield
1839006,2016,Kensway Drive,Flat Bush,Auckland
1783861,8022,Kentallen Terrace,Hillsborough,Christchurch
1798309,5510,Kent Avenue,Waitarere Beach,Levin
1799136,4412,Kent Crescent,Awapuni,Palmerston North
1806851,3610,Kent Crescent,Waihi,
1813573,3116,Kentia Avenue,Mount Maunganui,
3082633,0118,Kentia Court,Ruakaka,
3085237,7614,Kentia Lane,Rolleston,Rolleston
1830172,0112,Kentia Lane,Whau Valley,Whangarei
1805771,4130,Kentia Place,Havelock North,
1836989,0632,Kentia Way,Fairview Heights,Auckland
1832526,2014,Kentia Way,Somerville,Auckland
1828558,2010,Kentigern Close,Pakuranga,Auckland
1784318,8042,Kent Lodge Avenue,"Avonhead,Russley",Christchurch
1828562,2022,Kenton Lane,Mangere,Auckland
1772805,9024,Kent Place,Mosgiel,
3071044,4371,Kent Road,"Burgess Park,Korito",New Plymouth
1777004,9794,Kent Road,Lintley,Lumsden
1828553,2102,Kent Road,Manurewa,Auckland
1831823,0112,Kent Road,Regent,Whangarei
3071045,4195,Kent Road,Ruakituri,
1796948,4501,Kent Road,Saint Johns Hill,Whanganui
1791952,5391,Kents Road,Reikorangi,Waikanae
1771464,9302,Kent Street,Arrowtown,
1795342,5713,Kent Street,Carterton,
1776992,9791,Kent Street,Dipton West,
1802208,4010,Kent Street,Elgin,Gisborne
1807332,3204,Kent Street,Frankton,Hamilton
1809257,3112,Kent Street,Gate Pa,Tauranga
1775837,9793,Kent Street,Kingston,
1798517,5510,Kent Street,Levin,
1776996,9794,Kent Street,Lumsden,
1786506,7910,Kent Street,Marchwiel,Timaru
1777612,9792,Kent Street,Mossburn,
1831703,1023,Kent Street,Newmarket,Auckland
1805962,3720,Kent Street,Ngaruawahia,
1770203,9400,Kent Street,Oamaru North,Oamaru
1817658,4520,Kent Street,Patea,
1791341,7220,Kent Street,Picton,
1824228,1021,Kent Street,Ponsonby,Auckland
1771517,9300,Kent Street,Queenstown,
1821062,0820,Kent Street,Riverhead,
1777002,9776,Kent Street,Riversdale,
1819844,0202,Kent Street,Russell,
1788201,7011,Kent Street,Stoke,Nelson
3069037,9597,Kent Street,Sutton,Middlemarch
1782942,8023,Kent Street,Sydenham,Christchurch
1773376,9522,Kent Street,Tapanui,
1809945,3910,Kent Street,Te Kuiti,
1812239,3420,Kent Street,Tokoroa,
1777003,9874,Kent Street,Waianiwa,Invercargill
1793393,5014,Kent Street,Wainuiomata,Lower Hutt
1827557,2123,Kent Street,Waiuku,
1820622,0478,Kent Street,Whangaroa,Kaeo
1776680,9877,Kent Street,Woodend,Invercargill
1798545,4815,Kent Terrace,Foxton Beach,Foxton
1812691,4394,Kent Terrace,Midhirst,Stratford
3069076,6011,Kent Terrace,"Mount Victoria,Oriental Bay",Wellington
1811068,3225,Kent Terrace,Raglan,
1821057,0820,Kent Terrace,Riverhead,
1804184,4112,Kent Terrace,Taradale,Napier
3084278,2580,Kentucky Blue Road,Karaka,Papakura
1807333,3200,Kentucky Crescent,Nawton,Hamilton
1812836,3494,Kentucky Road,Karapiro,Cambridge
1824886,1051,Kentucky Street,Ellerslie,Auckland
1792614,5018,Kentucky Street,Totara Park,Upper Hutt
1799129,4412,Kentucky Way,Awapuni,Palmerston North
1829585,2014,Kentville Place,Somerville,Auckland
1799973,6037,Kentwood Drive,Woodridge,Wellington
1816647,3210,Kentwood Place,Flagstaff,Hamilton
1834688,7011,Ken Wadsworth Way,Stoke,Nelson
1795485,5710,Kenward Crescent,Featherston,
1830500,2013,Kenwick Place,Burswood,Auckland
1806230,3592,Kenwood Drive,Matarangi,Whitianga
1782930,8052,Kenwyn Avenue,St Albans,Christchurch
1801738,5713,Kenwyn Drive,Carterton,
1824210,1052,Kenwyn Street,Parnell,Auckland
1793820,6021,Kenwyn Terrace,Newtown,Wellington
1793817,6035,Kenya Street,Ngaio,Wellington
1831642,1024,Kenyon Avenue,Mount Eden,Auckland
1790369,7882,Keogans Road,Arahura Valley,Hokitika
3072455,7182,Keoghan Road,"Golden Bay / Mohua,Puramahoi,Rangihaeata",Takaka
1787904,7892,Keoghans Road,Westport,
1827302,2683,Keogh Road,Pollok,
1819851,0182,Keogh Road,Towai,Hikurangi
1782953,8014,Keoghs Lane,St Albans,Christchurch
1777602,9792,Keown Road,Castlerock,Lumsden
1777001,9776,Keowns Bridge Road,Ardlussa,Riversdale
3083111,9305,Keown Street,Wanaka,
3003823,1071,Kepa Road,"Kohimarama,Mission Bay,Orakei",Auckland
1831933,0171,Kepa Road,Ruakaka,
1817423,4671,Kepa Street,Ohawe,Hawera
1796954,4500,Kepa Street,Whanganui East,Whanganui
1828569,2019,Kepler Place,Clover Park,Auckland
1778153,9600,Kepler Place,Te Anau,
3079866,8025,Kepler Ridge Lane,Halswell,Christchurch
1826743,0172,Kepler Road,Pakotai,Whangarei
1810920,3720,Kepler Street,Ngaruawahia,
1841056,5024,Kepler Way,Aotea,Porirua
1824205,1021,Keppell Street,Grey Lynn,Auckland
1782924,8083,Keppel Street,New Brighton,Christchurch
1805378,4291,Keppel Street,Porangahau,
1779835,7420,Keppler Street,Waikari,
1829851,2016,Keppoch Court,Dannemora,Auckland
1774066,9587,Keppoch Road,Moa Flat,Tapanui
1800386,6035,Kerala Way,Khandallah,Wellington
1826733,0179,Kerehunga Road,Poroti,Whangarei
1791684,7374,Kerei Keepa Street,Oaro,Kaikoura
1802465,4075,Kerei Street,Matawai,
1933733,7120,Kerei Street,Motueka,
1815870,3116,Kereiti Street,Mount Maunganui,
1798544,4893,Kere Kere Road,"Foxton,Moutoa",Foxton
3080784,0632,Kerekin Drive,Oteha,Auckland
3078267,3434,Kerekori Way,Cambridge,
1838610,0632,Kerema Way,Schnapper Rock,Auckland
3065095,3371,Kereone Road,"Morrinsville,Ngarua","Morrinsville,Waitoa"
1810331,3073,Kereopa Crescent,Kaingaroa Forest,Murupara
1793392,5014,Kerepehi Grove,Wainuiomata,Lower Hutt
1814296,3671,Kerepehi Town Road,Kerepehi,Paeroa
3080150,7020,Kerepi Close,Richmond,
3079083,0814,Kerepi Street,Westgate,Auckland
1793537,5028,Kereru Bend,Tawa,Wellington
1839956,9010,Kereru Close,Halfway Bush,Dunedin
1845554,7430,Kereru Close,Oxford,
3082721,4710,Kereru Court,Marton,
3077907,9305,Kereru Crescent,Wanaka,
1801628,4472,Kereru Drive,Turitea,Palmerston North
1795486,5710,Kereru Grove,Featherston,
1822473,0632,Kereru Grove,Greenhithe,Auckland
1793225,5019,Kereru Grove,Stokes Valley,Lower Hutt
1984473,9710,Kereru Lane,Gore,
1837903,0573,Kereru Lane,Kaiwaka,
1840898,3194,Kereru Lane,Matata,
1801494,3381,Kereru Lane,Omori,Turangi
1835983,8011,Kereru Lane,Riccarton,Christchurch
1940021,0932,Kereru Lane,Silverdale,
3082458,0986,Kereru Lane,Tawharanui Peninsula,Matakana
1828567,2012,Kereru Place,Half Moon Bay,Auckland
3080187,4198,Kereru Place,Mahia,
1795013,5810,Kereru Place,Masterton,
1797914,3112,Kereru Place,Pyes Pa,Tauranga
1818251,4310,Kereru Place,"Upper Vogeltown,Vogeltown",New Plymouth
1842606,7334,Kereru Rise,Hanmer Springs,
1817893,2110,Kereru Rise,Papakura,
1792872,5013,Kereru Road,Days Bay,Lower Hutt
3083900,2577,Kereru Road,Drury,
1810996,3794,Kereru Road,Glen Massey,
3023302,,Kereru Road,"Kereru,Maraekakaho,Tikokino","Hastings,Maraekakaho,Tikokino"
1816295,3926,Kereru Road,Ohura,
1789090,7096,Kereru Road,Tapawera,Wakefield
1807334,3204,Kereru Street,Frankton,Hamilton
1822827,0612,Kereru Street,Henderson,Auckland
1798862,4797,Kereru Street,Mangaweka,
3019901,0110,Kereru Street,Maunu,Whangarei
1810332,3015,Kereru Street,Springfield,Rotorua
1801692,4720,Kereru Street,Taihape,
1812241,3420,Kereru Street,Tokoroa,
1812575,3330,Kereru Street,Two Mile Bay,Taupo
1798304,5036,Kereru Street,Waikanae,
1776414,9810,Kereru Street,Waikiwi,Invercargill
3080307,3434,Kereruu Street,Cambridge,
1788202,7010,Kereru Way,Atawhai,Nelson
3082355,0910,Kereru Way,Warkworth,
1781375,7973,Kereta Road,Seadown,
1821060,0874,Kereta Road,Woodhill Forest,South Head
1824211,1072,Keretene Place,Meadowbank,Auckland
3080586,1060,Kereti Lane,Mount Wellington,Auckland
3078661,0616,Kerewhenua Crescent,Hobsonville,Auckland
1827602,2105,Keri Anne Place,Goodwood Heights,Auckland
1840674,0230,Keridale Lane,Kerikeri,
1829665,0294,Keri Downs Road,Kerikeri,
1811326,3791,Kerie Road,Taupiri,
1819670,0230,Kerikeri Grove,Kerikeri,
1819854,,Kerikeri Inlet Road,Kerikeri,
3000846,0230,Kerikeri River,"Kerikeri,Kerikeri Inlet",Kerikeri
1819853,,Kerikeri Road,Kerikeri,
1784068,8042,Keri Place,Hei Hei,Christchurch
3083928,3495,Keri Rua Road,Leamington,Cambridge
1809946,3988,Keris Crescent,Taharoa,
3084603,3434,Keri Street,Cambridge,
1839349,2110,Keri Vista Rise,Papakura,
1793223,5011,Kerkwall Drive,Naenae,Lower Hutt
1818635,0618,Kerlin Crescent,West Harbour,Auckland
3079809,0510,Kermadec Crescent,Waipu,
3056903,7700,Kermode Street,"Ashburton,Hampstead",Ashburton
1779862,7420,Kermode Street,Waikari,
3083562,9371,Kernel Loop,Jacks Point,Queenstown
1811446,3288,Kernott Road,Horotiu,Hamilton
1828550,2102,Kern Place,Manurewa,Auckland
1827306,2579,Kern Road,Ramarama,Drury
1790669,7802,Kerr Avenue,Cobden,Greymouth
1788942,7072,Kerr Bay Road,"Nelson Lakes National Park,St. Arnaud",
3081544,2679,Kerr Crescent,Patumahoe,Pukekohe
3021528,9371,Kerrera Lane,Jacks Point,Queenstown
1794680,6037,Kerr Grove,Johnsonville,Wellington
1789088,7095,Kerr Hill Road,"Golden Downs,Kikiwa","St. Arnaud,Wakefield"
1822469,0620,Kerria Place,Sunnynook,Auckland
1832511,2016,Kerridge Close,Shamrock Park,Auckland
3079558,5018,Kerrigan Crescent,Wallaceville,Upper Hutt
3053086,7984,Kerr Road,"Albury,Cave,Hazelburn","Albury,Cave,Pleasant Point"
1772985,9471,Kerr Road,Bucklands Crossing,Waikouaiti
1777007,9893,Kerr Road,Dacre,Invercargill
1790485,7886,Kerr Road,Fox Glacier,
1808190,3772,Kerr Road,Glen Murray,Onewhero
1826734,0192,Kerr Road,Parua Bay,
1811604,3473,Kerr Road,Te Poi,Matamata
1807335,3206,Kerrs Court,Bader,Hamilton
1817510,3114,Kerrs Lane,Omokoroa,
1837990,7987,Kerrs Road,"Ashwick Flat,Fairlie",Fairlie
3032723,,Kerrs Road,"Avonside,Linwood",Christchurch
3032722,7677,Kerrs Road,"Burnham,Rolleston",
1828564,2104,Kerrs Road,Wiri,Auckland
1821843,0624,Kerr Street,Devonport,Auckland
1772987,9471,Kerr Street,Karitane,Waikouaiti
1772502,9077,Kerr Street,Lower Portobello,Dunedin
3000547,7010,Kerr Street,"Nelson,Nelson South",Nelson
1780730,7700,Kerr Street,Netherby,Ashburton
1824957,1025,Kerr Street,Sandringham,Auckland
1824958,1025,Kerr-Taylor Avenue,Mount Albert,Auckland
1770972,9310,Kerry Court,Cromwell,
1828574,2102,Kerrydale Road,Manurewa,Auckland
1827959,2014,Kerry Dell,Cockle Bay,Auckland
1835951,9300,Kerry Drive,Queenstown,
1840851,2019,Kerrykeel Drive,Flat Bush,Auckland
1817421,4673,Kerry Lane,Hawera,
1833865,3283,Kerry Lane,Tamahere,Hamilton
1822467,0627,Kerrymaria Place,Hillcrest,Auckland
3082931,7011,Kerry Marshall Drive,"Richmond,Stoke","Nelson,Richmond"
1827836,2110,Kerry Place,Papakura,
1770911,9320,Kerry Street,Alexandra,
1781372,7975,Kerrytown Road,"Kerrytown,Levels,Temuka","Temuka,Timaru"
1835482,7371,Kersage Drive,Kaikoura Flat,Kaikoura
3083622,7571,Kersey Avenue,Darfield,
1782932,8013,Kershaw Place,Richmond,Christchurch
3038460,0176,Kershaw Road,Purua,Whangarei
3072467,3015,Kerswell Terrace,Tihiotonga,Rotorua
1828548,2010,Kerswill Place,Pakuranga,Auckland
1823511,0610,Keru Place,Te Atatu South,Auckland
1831348,0610,Kervil Avenue,Te Atatu Peninsula,Auckland
1775998,9710,Kerwood Place,Gore,
1828566,2013,Kerwyn Avenue,East Tamaki,Auckland
1838896,4120,Keryn Place,Frimley,Hastings
1827834,2113,Keryn Place,Opaheke,Papakura
1956212,2018,Keshvara Road,Beachlands,Auckland
1839758,7612,Kessen Street,Pegasus,
1839007,2016,Kestev Drive,Flat Bush,Auckland
1824224,1071,Kesteven Avenue,Glendowie,Auckland
1809263,3112,Kesteven Avenue,Parkvale,Tauranga
3079000,7610,Kesteven Place,Woodend,
1840931,3210,Keston Crescent,Flagstaff,Hamilton
1815603,3112,Kestrel Avenue,Welcome Bay,Tauranga
1811500,3400,Kestrel Crescent,Matamata,
1818462,0932,Kestrel Heights,Arkles Bay,Whangaparaoa
1838958,3377,Kestrel Lane,Kinloch,Taupo
3019316,1072,Kestrel Place,Wai o Taiki Bay,Auckland
1785727,8023,Kestrel Place,Woolston,Christchurch
3079052,7615,Kestrel Street,Rolleston,
1829872,2013,Keswick Close,Northpark,Auckland
1813742,3210,Keswick Crescent,Huntington,Hamilton
1774772,9396,Keswick Street,Naseby,
1782939,8023,Keswick Street,Woolston,Christchurch
3085074,2577,Ketekete Place,Drury,Drury
3082751,0932,Kete Lane,Wainui,
3054621,,Ketemarae Road,"Hawera,Normanby",Hawera
1836146,5573,Ketemaringi Way,Manakau,
1826526,0112,Ketenikau Road,Te Kamo,Whangarei
1838748,3382,Ketetahi Road,"Otukou,Tongariro National Park","Tongariro National Park,Turangi"
1799132,4412,Kettle Avenue,Awapuni,Palmerston North
1804186,4110,Kettle Crescent,Marewa,Napier
3017422,9012,Kettle Park Road,"Lawyers Head,Saint Clair",Dunedin
1790223,7802,Kettle Street,Cobden,Greymouth
1780125,7674,Kettle Street,Motukarara,Tai Tapu
1824206,1022,Kettle Street,Point Chevalier,Auckland
1841484,0932,Kettlewell Drive,Silverdale,
1780643,7676,Kettlewell Drive,Templeton,Christchurch
1786688,8052,Ketton Place,St Albans,Christchurch
3077750,0632,Ketu Court,Albany Heights,Auckland
3082694,7201,Ketu Lane,Redwoodtown,Blenheim
3077756,2112,Ketu Way,Takanini,Auckland
1835294,2102,Kevale Place,Manurewa,Auckland
1827303,2679,Keven Road,Clarks Beach,
1810333,3010,Kevin Street,Glenholme,Rotorua
1782927,8025,Kevin Street,Hoon Hay,Christchurch
1772496,9011,Kevin Street,Mornington,Dunedin
1838111,3889,Kevlor Place,Kawhia,
1839817,7612,Kewai Court,Pegasus,
1836621,0986,Kewai Street,Omaha,
3084997,2018,Kewa Kai Lane,Beachlands,Auckland
3059944,0632,Kewa Road,Albany Heights,Auckland
1796080,5032,Kew Grove,Raumati Beach,Paraparaumu
1793415,5014,Kew Grove,Wainuiomata,Lower Hutt
3082646,0985,Kewini Grove,Matakana,
1828561,2023,Kew Lane,Otara,Auckland
3054905,9012,Kew Place,Corstorphine,Dunedin
1783631,8052,Kew Place,Mairehau,Christchurch
1789095,7020,Kew Place,Richmond,
1812572,3330,Kew Place,Richmond Heights,Taupo
1799722,3283,Kew Place,Tamahere,Hamilton
1776412,9812,Kew Road,"Kew,Kingswell",Invercargill
1791928,4774,Kew Road,Rangiwahia,Kimbolton
1787902,7825,Kew Road,Westport,
1791120,7210,Key Crescent,Seddon,
1804363,7614,Keyes Mews,Rolleston,
1786693,8083,Keyes Road,New Brighton,Christchurch
3079731,3210,Keyes Street,Chartwell,Hamilton
3045980,4284,Keygate Road,"Porangahau,Wallingford","Porangahau,Waipukurau"
1840797,3491,Key Road,Kinleith,Tokoroa
1774067,9775,Keys Road,Glenkenich,Gore
1822476,0622,Keys Street,Belmont,Auckland
1792613,5018,Keys Street,Elderslea,Upper Hutt
1793226,5011,Keys Street,Naenae,Lower Hutt
1824202,1071,Keys Terrace,Saint Heliers,Auckland
1825324,1041,Keystone Avenue,Mount Roskill,Auckland
3080772,0185,Keystone Place,Te Kamo,Whangarei
3035264,0112,Keyte Street,"Kensington,Otangarei",Whangarei
1832250,2112,Keywella Drive,"Conifer Grove,Takanini","Auckland,Takanini"
3030873,0118,Key West Drive,One Tree Point,Whangarei
1822826,0612,Khaleel Place,Henderson,Auckland
1824220,0600,Khandallah Place,New Windsor,Auckland
3040720,6035,Khandallah Road,"Khandallah,Ngaio",Wellington
1781374,7903,Khan Street,Pleasant Point,
1824216,1010,Khartoum Place,Auckland Central,Auckland
1839390,8022,Khloris Way,"Cashmere,Cracroft",Christchurch
1800535,6012,Khouri Avenue,Karori,Wellington
3038313,1023,Khyber Pass Road,"Eden Terrace,Grafton,Newmarket",Auckland
1800533,6022,Khyber Road,Seatoun,Wellington
3078112,0920,Kia Kaha Drive,Snells Beach,
1840563,4610,Kia Marea Close,Hawera,
3005259,1072,Kiano Place,Wai o Taiki Bay,Auckland
1770015,9400,Kia Ora Drive,Oamaru,
1831033,0626,Kia Ora Road,Beach Haven,Auckland
1782946,8061,Kia Ora Street,Bexley,Christchurch
3084840,1050,Kiatere Lane,Remuera,Auckland
1801216,4581,Kiatere Street,Ratana,Whanganui
3078237,4120,Kia Toa Lane,Hastings,
1810921,3720,Kia Toa Street,Ngaruawahia,
3083185,2019,Kiato Lane,Flat Bush,Auckland
1844116,2571,Kibblewhite Avenue,Beachlands,Auckland
3077667,3210,Kibblewhite Road,Chartwell,Hamilton
3082731,4120,Kibblewhite Road,Flaxmere,Hastings
1800612,,Kibblewhite Road,"Masterton,Matahiwi,Upper Plain",Masterton
1782937,8061,Kibblewhite Street,New Brighton,Christchurch
1782934,8062,Kidbrooke Street,Bromley,Christchurch
1806079,3330,Kiddle Drive,Hilltop,Taupo
1827309,2580,Kidd Road,Karaka,Papakura
1827307,2682,Kidd Road,Waiuku,
1782000,7984,Kidds Road,Albury,
3042010,9597,Kidds Road,"Middlemarch,Sutton",Middlemarch
3081978,9305,Kidds Way,Albert Town,Wanaka
3079346,7614,Kiddy Place,Rolleston,
1841828,7614,Kidman Street,Rolleston,
1805200,7608,Kidson Lane,Lincoln,
1771477,9305,Kidson Lane,Wanaka,
1789971,7011,Kidson Place,Stoke,Nelson
1783862,8022,Kidson Terrace,Cashmere,Christchurch
3084389,3434,Kiekie Lane,Cambridge,
3082918,8051,Kiekie Road,Casebrook,Christchurch
1828555,2022,Kiekie Road,Mangere Bridge,Auckland
1802343,4079,Kiekie Road,Waipiro,Ruatoria
1800002,4785,Kie Kie Road,Hunterville,
1810370,3979,Kiekie Street,Aria,
3083784,0814,Kiekie Street,Westgate,Auckland
3010922,9492,Kieleys Road,"Alma,Reidston",Oamaru
1774173,9300,Kiely Lane,Queenstown,
1842710,8025,Kieran Grove,Aidanfield,Christchurch
1823510,0602,Kiernan Place,Kelston,Auckland
1810334,3010,Kiharoa Street,Ohinemutu,Rotorua
3055947,5512,Kiharoa Street,Otaki Beach,Otaki
3042909,3800,Kihikihi Road,"Kihikihi,Te Awamutu",Te Awamutu
1807924,3900,Kihikihi Road,Otorohanga,
1809947,3971,Kihikihi Road,Piopio,
1789240,7020,Kihilla Road,Richmond,
3082314,3175,Kihi Ngatai Place,Welcome Bay,Tauranga
1833013,0116,Kihi Place,Ruakaka,
1807923,3886,Kihi Road,Hauturu,Oparau
2018617,3173,Kihona Rise,Pyes Pa,Tauranga
3081384,0992,Kikorangi Drive,Wainui,
3080545,1062,Kikorangi Lane,Mount Wellington,Auckland
3081865,5032,Kikorangi Way,Paraparaumu,
1795908,3382,Kiko Road,Motuoapa,
1803763,4179,Kikowhero Road,Otamauri,Hastings
1833136,2013,Kilbaha Close,East Tamaki,Auckland
1833070,0632,Kilbarron Close,Pinehill,Auckland
1794688,6022,Kilbirnie Crescent,Kilbirnie,Wellington
1840962,8042,Kilbrannan Close,Broomfield,Christchurch
1819469,0583,Kilbraugh Street,Whakapirau,
1838629,8025,Kilbride Gardens,Halswell,Christchurch
1811497,3400,Kilbride Road,Matamata,
1841907,2402,Kilbryde Crescent,Pokeno,
1774573,9024,Kilburn Avenue,Mosgiel,
1784324,8053,Kilburn Street,Bishopdale,Christchurch
3078681,2019,Kilcadden Drive,Flat Bush,Auckland
1823516,0614,Kilcar Place,Massey,Auckland
3077546,2019,Kilcooley Road,Flat Bush,Auckland
1824219,1071,Kildare Avenue,Glendowie,Auckland
1778280,9810,Kildare Court,Waikiwi,Invercargill
3080036,3721,Kildare Crescent,Taupiri,
1778284,9810,Kildare Drive,Waikiwi,Invercargill
1778283,9810,Kildare Mews,Waikiwi,Invercargill
1778281,9810,Kildare Place,Waikiwi,Invercargill
1778282,9810,Kildare Rise,Waikiwi,Invercargill
1841471,2019,Kildare Road,Flat Bush,Auckland
1784330,8051,Kildare Street,"Belfast,Northwood",Christchurch
1773091,9510,Kildare Street,Waikouaiti,
1780123,7608,Kildare Terrace,Lincoln,
1778760,9810,Kildare View,Waikiwi,Invercargill
1773090,9471,Kilda Street,Karitane,Waikouaiti
1813668,3110,Kildonan Place,Bethlehem,Tauranga
1770623,9494,Kildrummy Street,Georgetown,Oamaru
1821943,0630,Kilduff Place,Mairangi Bay,Auckland
1833068,0632,Kilear Close,Pinehill,Auckland
1790226,7805,Kilgour Road,Greymouth,
1790053,7804,Kilgour Street,Blackball,Greymouth
1772885,9023,Kilgour Street,Roseneath,Dunedin
1772498,9010,Kilgour Street,Roslyn,Dunedin
1790301,7803,Kilgour Street,Runanga,
1773092,9471,Kilgour Street,Seacliff,Waikouaiti
1773467,9073,Kilgour Street,Waihola,Milton
1831351,0604,Kilgour Terrace,Huia,Auckland
1794693,6035,Kilgour Way,Crofton Downs,Wellington
1822125,0627,Kilham Avenue,Northcote,Auckland
1773859,9274,Kilhastie Road,Clydevale,
1818536,2013,Kilimanjaro Drive,"Dannemora,Northpark",Auckland
1805149,4120,Kilkee Terrace,Flaxmere,Hastings
1833072,0632,Kilkelly Avenue,Pinehill,Auckland
1801723,5028,Kilkelly Close,Tawa,Wellington
1801968,7608,Kilkenny Close,Lincoln,
3018950,2016,Kilkenny Drive,"Dannemora,East Tamaki,East Tamaki Heights",Auckland
1791796,5014,Kilkenny Grove,Wainuiomata,Lower Hutt
1784319,8051,Kilkenny Place,Belfast,Christchurch
1799651,4410,Kilkenny Place,Fitzherbert,Palmerston North
1791853,7095,Kilkenny Place,Wakefield,
1837923,3081,Kilkenny Way,Broadlands,
3008657,4894,Kilkern Road,"Bulls,Marton",
1792212,5022,Kilkerran Place,Porirua City Centre,Porirua
1949563,8042,Kilkivan Lane,Broomfield,Christchurch
1770974,9310,Killala Street,Cromwell,
1791871,5032,Killalea Place,Paraparaumu,
3046937,8025,Killarney Avenue,Halswell,Christchurch
1821942,0630,Killarney Avenue,Torbay,Auckland
1841469,2019,Killarney Drive,Flat Bush,Auckland
1815683,3204,Killarney Lane,Frankton,Hamilton
3033862,3204,Killarney Road,"Dinsdale,Frankton",Hamilton
1770912,9320,Killarney Street,Alexandra,
1791648,7300,Killarney Street,Kaikoura,
1771070,9396,Killarney Street,Naseby,
1822477,0622,Killarney Street,Takapuna,Auckland
1814617,3119,Killarney Street,Te Puke,
1773094,9085,Killarney Street,Waitati,
1835953,9300,Killarney Way,Queenstown,
3080616,7510,Killead Avenue,Darfield,
1832589,2019,Killeen Place,Flat Bush,Auckland
1815949,3210,Killegray Close,Flagstaff,Hamilton
1808273,3178,Killen Road,Tahawai,
1831855,0112,Killen Street,Kensington,Whangarei
3078756,0630,Killick Place,Long Bay,Auckland
1781874,7910,Killick Place,Marchwiel,Timaru
3056132,9012,Killiecrankie Pass,Kew,Dunedin
1832254,2022,Killington Crescent,Mangere,Auckland
1833063,0632,Killybegs Drive,Pinehill,Auckland
1832551,0614,Killygordon Place,Massey,Auckland
1943895,2113,Kilmacrennan Drive,Rosehill,Papakura
1771478,9300,Kilmarnoch Street,Queenstown,
1776413,9812,Kilmarnock Avenue,"Heidelberg,Strathern",Invercargill
1830197,0612,Kilmarnock Avenue,Ranui,Auckland
1774510,9018,Kilmarnock Close,Waldronville,Dunedin
1776408,9812,Kilmarnock Court,Strathern,Invercargill
1773953,9532,Kilmarnock Street,Lawrence,
1784215,8011,Kilmarnock Street,Riccarton,Christchurch
1778521,9816,Kilmarnock Street,Wallacetown,
3041306,6011,Kilmister Avenue,"Kelburn,Thorndon",Wellington
1793224,5011,Kilmister Grove,Boulcott,Lower Hutt
3084324,4815,Kilmister Way,Foxton Beach,Foxton
1773089,9471,Kilmog Road,Evansdale,Waikouaiti
1782941,,Kilmore Street,Christchurch Central,Christchurch
1841773,5871,Kilmory Lane,Opaki,
1839128,8051,Kilmuir Lane,Harewood,Christchurch
1815742,3210,Kilmuir Place,Rototuna,Hamilton
1771476,9372,Kilmuir Street,Kinloch,Glenorchy
3080505,8025,Kilmurry Street,Halswell,Christchurch
1836684,7604,Kiln Lane,Prebbleton,
1779057,7630,Kiln Place,Kaiapoi,
1791953,5019,Kiln Street,Silverstream,Upper Hutt
1841499,7197,Kiln Way,Marahau,Motueka
1839062,0230,Kilountain Place,Kerikeri,
1775139,9085,Kilpatrick Road,Waitati,
3084430,7777,Kilphin Street,Elgin,Ashburton
1775856,8042,Kilronan Place,Wigram,Christchurch
1839129,5510,Kilsby Place,Levin,
1784326,8053,Kilsythe Place,Bishopdale,Christchurch
1794692,6012,Kilsyth Street,Karori,Wellington
1832870,2016,Kilsyth Way,East Tamaki Heights,Auckland
1784327,8041,Kiltie Street,Upper Riccarton,Christchurch
1843007,2019,Kiltole Drive,Flat Bush,Auckland
1790930,7201,Kilworth Place,Witherlea,Blenheim
1780973,7730,Kilworth Street,Methven,
1794687,6037,Kimball Place,Johnsonville,Wellington
1809346,3118,Kimber Grove,Papamoa Beach,Papamoa
1825322,1041,Kimber Hall Avenue,"Blockhouse Bay,Mount Roskill",Auckland
1799521,4412,Kimberley Grove,Westbrook,Palmerston North
1780512,,Kimberley Road,Darfield,
1831529,1023,Kimberley Road,Epsom,Auckland
3057306,0484,Kimberley Road,"Houhora,Ngataki",Pukenui
1815379,3875,Kimberley Road,Kihikihi,Te Awamutu
3057302,5571,Kimberley Road,Levin,
1807023,3610,Kimberley Road,Waihi,
1784323,8051,Kimberley Street,Casebrook,Christchurch
1796356,6035,Kimberley Way,Khandallah,Wellington
1832508,0632,Kimberly Grove,Greenhithe,Auckland
3062310,2675,Kimber Road,Mangatawhiri,
1784972,7495,Kimbers Road,Glentui,Oxford
1797672,4779,Kimber Street,Halcombe,
1787151,8022,Kimbolton Lane,Huntsbury,Christchurch
3071278,,Kimbolton Road,"Cheltenham,Feilding,Kimbolton,Kiwitea","Feilding,Kimbolton"
3082137,3210,Kimbolton Street,Rototuna North,Hamilton
1785983,8051,Kimbrace Place,Belfast,Christchurch
1981048,3210,Kimbrae Drive,Rototuna North,Hamilton
1790121,7201,Kim Crescent,Witherlea,Blenheim
3063956,2105,Kimdale Place,Totara Heights,Auckland
3079855,3771,Kimihia East Road,Huntly,
1814992,,Kimihia Road,Huntly,
1827305,2474,Kimikimi Road,Mercer,
1814029,3214,Kimiora Close,Fairview Downs,Hamilton
3026643,1024,Kimiora Street,Three Kings,Auckland
1807337,3200,Kim Lane,Nawton,Hamilton
1782925,8061,Kim Place,Dallington,Christchurch
1833177,2103,Kimptonfields Court,Wattle Downs,Auckland
1829473,2025,Kimpton Road,Papatoetoe,Auckland
1828771,2576,Kimptons Road,"Brookby,Clevedon","Auckland,Clevedon"
1830387,2121,Kimshee Way,Tuakau,
1794681,6035,Kim Street,Khandallah,Wellington
1793414,5014,Kim Street,Wainuiomata,Lower Hutt
1789092,7173,Kina Beach Road,Tasman,Upper Moutere
1789762,7173,Kina Peninsula Road,Tasman,Upper Moutere
3079258,0630,Kina Place,Long Bay,Auckland
1794690,6037,Kinapori Terrace,Newlands,Wellington
1780040,8971,Kina Road,Te Rapaki-o-Te Rakiwhakaputa,Lyttelton
3028722,9571,Kinaston Road,"Knobby Range,Roxburgh East",Roxburgh
1797449,4822,Kina Street,Tangimoana,
1839972,9371,Kincaid Place,Arthurs Point,Queenstown
3034690,7371,Kincaid Road,"Hapuku,Kaikoura Flat",Kaikoura
1827314,2578,Kincora Lane,Runciman,Drury
1828764,2010,Kincraig Place,Highland Park,Auckland
1827704,2112,Kindergarten Drive,Conifer Grove,Takanini
3082012,5018,Kindergarten Lane,Wallaceville,Upper Hutt
1812243,3420,Kindergarten Street,Tokoroa,
1824493,1072,Kinder Place,Meadowbank,Auckland
1839701,3010,Kinder Place,Ngongotaha,Rotorua
1791121,7284,Kinders Road,Anakoha,Marlborough Sounds
1812576,3330,Kinder Street,Acacia Bay,Taupo
1771791,9383,Kingan Road,Luggate,Wanaka
1801388,5036,King Arthur Drive,Otaihanga,Paraparaumu
1800128,5018,King Charles Drive,Kingsley Heights,Upper Hutt
1778943,7676,Kingcraft Drive,Prebbleton,
3004200,5024,King Crescent,Ranui,Porirua
1823507,0610,Kingdale Road,Henderson,Auckland
1813361,3015,Kingdom Drive,Fairy Springs,Rotorua
1776162,9774,Kingdon Road,"Croydon Bush,Upper Charlton",Gore
1841984,3495,Kingdon Street,Leamington,Cambridge
1825417,1023,Kingdon Street,Newmarket,Auckland
1824479,1023,King Edward Avenue,Epsom,Auckland
1827833,2110,King Edward Avenue,Papakura,
1821845,0624,King Edward Parade,Devonport,Auckland
1817404,4322,King Edward Street,Eltham,
3001001,9012,King Edward Street,"Kensington,South Dunedin",Dunedin
1795012,5810,King Edward Street,Lansdowne,Masterton
1789097,7120,King Edward Street,Motueka,
1818856,,King Edward Street,"Mount Eden,Sandringham",Auckland
1782929,8023,King Edward Terrace,Woolston,Christchurch
1982650,7410,Kingfisher Avenue,Amberley,
1791762,5018,Kingfisher Close,Brown Owl,Upper Hutt
3083782,4414,Kingfisher Close,Kelvin Grove,Palmerston North
1832681,0116,Kingfisher Court,Ruakaka,
3011302,9305,Kingfisher Crescent,Albert Town,Wanaka
1838370,0294,Kingfisher Drive,Kerikeri,
1802694,4010,Kingfisher Drive,Whataupoko,Gisborne
1822468,0632,Kingfisher Grove,Greenhithe,Auckland
1935531,7473,Kingfisher Lane,Loburn,
1840628,0573,Kingfisher Lane,Mangawhai,
1782952,8062,Kingfisher Lane,Southshore,Christchurch
3078130,7011,Kingfisher Lane,Stoke,Nelson
1828768,2024,Kingfisher Place,Favona,Auckland
1838678,3210,Kingfisher Place,Huntington,Hamilton
3084638,9077,Kingfisher Place,Ocean Grove,Dunedin
1799066,4720,Kingfisher Place,Taihape,
1819822,0272,Kingfisher Point Road,Russell,
3085156,7893,Kingfisher Rise,Little Wanganui,Karamea
1849171,0932,Kingfisher Road,Silverdale,
1779366,7581,Kingfisher Road,Takamatua,
1840605,3118,Kingfisher Way,Papamoa Beach,Papamoa
1811445,3288,Kingfisher Way,Te Kowhai,Hamilton
3082335,0112,Kingfisher Way,Tikipunga,Whangarei
1840385,3691,Kingfisher Way,Whiritoa,Waihi
1824497,1023,King George Avenue,Epsom,Auckland
1781877,7910,King George Place,Timaru,
1775016,9014,King George Street,Broad Bay,Dunedin
1773468,9231,King George Street,Stirling,
3042670,8042,Kingham Place,Avonhead,Christchurch
1794682,6022,Kinghorne Street,Strathmore Park,Wellington
1799329,4077,Kingihori Street,Tolaga Bay,
1838177,7020,Kingi Place,Richmond,
1809561,3120,Kingi Place,Whakatane,
1837294,0281,Kingi Road,Moerewa,
3055126,5571,Kingi Street,Hokio Beach,Levin
1810336,3010,Kingi Street,Ohinemutu,Rotorua
3079198,5512,Kingi Te Ahoaho Place,Otaki,
1787802,7614,Kinglear Drive,Rolleston,
1821934,0630,King Richard Place,Browns Bay,Auckland
1776999,9893,King Road,Ashers,Invercargill
1770625,9494,King Road,Awamoko,Oamaru
1773858,9274,King Road,Clydevale,
1776991,9782,King Road,Hokonui,Winton
1817840,4386,King Road,"Inglewood,Tarurutangi","Inglewood,New Plymouth"
1836710,3385,King Road,Kinloch,Taupo
1775784,9876,King Road,Makarewa,Invercargill
1799298,4071,King Road,"Makauri,Waerengaahika",Gisborne
3059367,2474,King Road,"Mangatawhiri,Mercer",
1819343,0573,King Road,Mangawhai,
1805243,4183,King Road,Meeanee,Napier
1776994,9876,King Road,Rakahouka,Invercargill
3059361,7975,King Road,Rosewill,Timaru
1811769,3391,King Road,Te Aroha West,Te Aroha
1778831,9874,King Road,Waianiwa,Invercargill
1777607,9881,King Road,Waihoaka,Riverton/Aparima
1786939,8053,Kingrove Street,Bishopdale,Christchurch
1837387,3216,Kingroyal Lane,Hamilton East,Hamilton
1796952,4501,Kings Avenue,Gonville,Whanganui
1808945,3110,Kings Avenue,Matua,Tauranga
3069450,9012,Kings Avenue,"Saint Kilda,South Dunedin",Dunedin
1785241,7402,Kings Avenue,Waikuku Beach,
1785766,8083,Kingsbridge Drive,Burwood,Christchurch
1794683,6037,Kingsbridge Place,Newlands,Wellington
1840592,8083,Kingsbridge West,Burwood,Christchurch
1785238,7400,Kingsbury Avenue,Rangiora,
1816080,3210,Kingsbury Court,Rototuna North,Hamilton
1777457,9777,Kingsbury Road,Riversdale,
1780972,7781,Kingsburys Road,Dorie,
1782256,7978,Kingsburys Road,Makikihi,Waimate
1828781,2105,Kingsclere Place,Goodwood Heights,Auckland
1838322,0792,Kingscliff Rise,Dairy Flat,
1799607,4414,Kings Court,Roslyn,Palmerston North
1819068,0310,Kings Court Avenue,Dargaville,
1791954,5010,Kings Crescent,"Boulcott,Hutt Central",Lower Hutt
1812716,3434,Kings Crescent,Cambridge,
1836882,4471,Kingsdale Park Drive,Aokautere,
2005391,7676,Kingsdowne Drive,West Melton,
1798518,5510,Kings Drive,Levin,
1774149,9305,Kings Drive,Wanaka,
1818858,2679,Kingseat Road,"Kingseat,Patumahoe",Pukekohe
1789198,7011,Kingsford Drive,Stoke,Nelson
1813381,3216,Kingsford Mews,Hamilton East,Hamilton
1828780,2025,Kingsford Place,Otara,Auckland
1814217,3500,Kingsford Place,Thames,
1788204,7010,Kingsford Quay,Port Nelson,Nelson
1825094,1024,Kingsford Road,Mount Eden,Auckland
1835858,7206,Kingsford Smith Avenue,Woodbourne,Blenheim
3023040,7400,Kingsford Smith Drive,Rangiora,
1840235,4674,Kingsford-Smith Drive,Hawera,
1828785,2022,Kingsford Smith Place,Mangere,Auckland
1794697,6022,Kingsford Smith Street,"Lyall Bay,Rongotai",Wellington
1818032,4312,Kingsford Street,Bell Block,New Plymouth
1782945,8061,Kingsford Street,"Burwood,Dallington",Christchurch
1804929,4130,Kingsgate Avenue,Havelock North,
1804930,4130,Kingsgate Close,Havelock North,
1835763,4412,Kingsgate Grove,Highbury,Palmerston North
1804963,4130,Kingsgate Lane,Havelock North,
3080461,9073,Kingsgate Lane,Waihola,Milton
1784456,8053,Kingsgate Place,Burnside,Christchurch
1832925,2016,Kingsgate Place,Dannemora,Auckland
1805482,4130,Kingsgate Row,Havelock North,
1804962,4130,Kingsgate Way,Havelock North,
1825323,1041,Kingshaven Close,Mount Roskill,Auckland
1824955,1021,Kingsland Avenue,Kingsland,Auckland
1824956,1021,Kingsland Terrace,Kingsland,Auckland
1791491,7201,Kings Lane,Blenheim,
1835958,0632,Kings Lane,Rosedale,Auckland
1770219,9401,Kingslea Street,Holmes Hill,Oamaru
1803445,4120,Kingsley Drive,Flaxmere,Hastings
1814887,3010,Kingsley Drive,Ngongotaha,Rotorua
1803446,4120,Kingsley Place,Flaxmere,Hastings
1808867,3116,Kingsley Place,Mount Maunganui,
1789089,7020,Kingsley Place,Richmond,
1804460,7614,Kingsley Place,Rolleston,
1806889,3681,Kingsley Road,Waihi,
1824480,1022,Kingsley Street,"Grey Lynn,Westmere",Auckland
1813721,3432,Kingsley Street,Leamington,Cambridge
1807338,3200,Kingsley Street,St Andrews,Hamilton
1792510,5019,Kingsley Street,Stokes Valley,Lower Hutt
1786692,8023,Kingsley Street,Sydenham,Christchurch
1802131,4010,Kingsley Street,Whataupoko,Gisborne
3080789,3114,Kingson Court,Omokoroa,
1789761,7095,Kings Ridge Road,Golden Downs,Wakefield
1789445,7020,Kings Rise,Richmond,
1825896,1072,Kings Road,"Hauraki Gulf / Tikapa Moana,Panmure",Auckland
3009928,7682,Kings Road,"Leeston,Southbridge",
1784973,7481,Kings Road,Leithfield,
1831684,1041,Kings Road,Mount Roskill,Auckland
1819823,0200,Kings Road,Paihia,
1797717,4996,Kings Road,Pongaroa,
1795279,5894,Kings Road,Tinui,
1779864,7483,Kings Road,Waipara,
1789096,7120,Kingstan Place,Motueka,
1840928,3210,Kingston Court,Flagstaff,Hamilton
3037273,9793,Kingston Garston Highway,"Fairlight,Garston,Kingston","Athol,Kingston"
1794701,6021,Kingston Heights Road,Kingston,Wellington
1784461,8053,Kingston Place,Bishopdale,Christchurch
1838913,0230,Kingston Place,Kerikeri,
1804406,4210,Kingston Place,Waipawa,
3070997,,Kingston Road,"Devils Staircase,Drift Bay,Jacks Point,Kawarau Falls,Kingston,Wye Creek","Kingston,Queenstown"
1801127,4474,Kingston Road,Shannon,
3045950,7581,Kingstons Hill,"Okains Bay,Robinsons Bay",
1771792,9305,Kingston Street,Albert Town,Wanaka
1824477,1010,Kingston Street,Auckland Central,Auckland
1799518,4412,Kingston Street,Awapuni,Palmerston North
1793227,5011,Kingston Street,Boulcott,Lower Hutt
1806233,3506,Kingston Street,Coromandel,
3057931,9091,Kingston Terrace,Taieri Mouth,
1791794,4500,Kingston Way,Otamatea,Whanganui
1830814,0483,King Street,Awanui,
1771347,9384,King Street,Bannockburn,Cromwell
1812718,3434,King Street,Cambridge,
1795331,5713,King Street,Carterton,
1786330,7772,King Street,Chertsey,Ashburton
1780509,7673,King Street,Coalgate,
1804657,4930,King Street,Dannevirke,
1780124,7682,King Street,Doyleston,
1792615,5018,King Street,"Ebdentown,Upper Hutt Central",Upper Hutt
1773086,9471,King Street,Evansdale,Waikouaiti
1800958,4702,King Street,Feilding,
1814397,3204,King Street,Frankton,Hamilton
3024740,1021,King Street,"Grey Lynn,Kingsland",Auckland
1797671,4779,King Street,Halcombe,
1825953,0114,King Street,Hikurangi,
1797886,4981,King Street,Kaitawa,Pahiatua
3024743,0112,King Street,Kensington,Whangarei
3024690,7910,King Street,"Kensington,Parkside,Redruth",Timaru
1819817,0230,King Street,Kerikeri,
3084679,3578,King Street,Kopu,Thames
1802132,4010,King Street,Mangapapa,Gisborne
1798761,4710,King Street,Marton,
1801432,5810,King Street,Masterton,
1772804,9024,King Street,Mosgiel,
1802463,4092,King Street,Motu,Te Karaka
1794696,6021,King Street,Mount Cook,Wellington
1789600,7010,King Street,Nelson,
1786296,7700,King Street,Netherby,Ashburton
1818031,4310,King Street,New Plymouth,
1770627,9494,King Street,Ngapara,Oamaru
1805963,3720,King Street,Ngaruawahia,
1822126,0627,King Street,Northcote Point,Auckland
1802714,3122,King Street,Opotiki,
1817281,4616,King Street,Opunake,
1825895,1062,King Street,Otahuhu,Auckland
1777603,9610,King Street,Otautau,
1806914,3600,King Street,Paeroa,
1797874,4910,King Street,Pahiatua,
1799517,4410,King Street,Palmerston North,
1832119,2110,King Street,Papakura,
1829474,2104,King Street,Papatoetoe,Auckland
3024688,7912,King Street,Pareora,
1793363,5012,King Street,Petone,Lower Hutt
1832039,2120,King Street,Pukekohe,
1801458,4632,King Street,Raetihi,
1785243,7400,King Street,Rangiora,
1789087,7020,King Street,Richmond,
1821061,0820,King Street,Riverhead,
1778634,9822,King Street,Riverton/Aparima,
1786248,7681,King Street,Springfield,
1773469,9231,King Street,Stirling,
1782940,8023,King Street,Sydenham,Christchurch
1804185,4112,King Street,Taradale,Napier
1811912,3320,King Street,Te Aroha,
3024691,7920,King Street,Temuka,
1814611,3119,King Street,Te Puke,
1778854,9620,King Street,Tuatapere,
1810335,3010,King Street,Victoria,Rotorua
1806888,3610,King Street,Waihi,
1786573,7924,King Street,Waimate,
1805581,4108,King Street,Wairoa,
1816350,4320,King Street,Waitara,
1827556,2123,King Street,Waiuku,
1804455,4284,King Street,Wanstead,Waipukurau
3024678,9810,King Street,"Waverley,Windsor",Invercargill
1809560,3120,King Street,Whakatane,
1838889,3910,King Street East,Te Kuiti,
1805147,4122,King Street North,"Hastings,Mahora",Hastings
1805607,4122,King Street South,Hastings,
1787583,7920,King Street South,Temuka,
3052568,3910,King Street West,Te Kuiti,
1825095,1024,Kingsview Road,Mount Eden,Auckland
1825319,1024,Kingsway,"Epsom,Three Kings",Auckland
1831618,1025,Kingsway Avenue,Sandringham,Auckland
1807339,3200,Kingsway Crescent,Forest Lake,Hamilton
1831349,0618,Kingsway Road,"Herald Island,Whenuapai",Auckland
1796044,5032,Kingswood Grove,Raumati Beach,Paraparaumu
1830334,0582,Kingswood Place,Langs Beach,Waipu
1814650,3110,Kingswood Road,Brookfield,Tauranga
1829423,2025,Kingswood Road,Papatoetoe,Auckland
1799520,4412,Kingswood Street,Takaro,Palmerston North
1825318,1042,Kingswood Terrace,Hillsborough,Auckland
1777608,9691,King Terrace,Clifden,Tuatapere
1838326,0932,Kingtide Place,Red Beach,
1832296,2010,Kingussie Place,Highland Park,Auckland
1790929,7201,Kingwell Drive,Springlands,Blenheim
3016597,4310,Kingwell Street,"Lynmouth,Moturoa",New Plymouth
1803070,4198,Kinikini Road,Mahia,
1770633,9492,Kininmont Road,Incholme,Oamaru
1792216,5022,Kinleith Grove,Kenepuru,Porirua
1815151,3491,Kinleith Road,Kinleith,Tokoroa
1830247,0632,Kinleith Way,Albany,Auckland
1782955,8014,Kinleys Lane,St Albans,Christchurch
1785239,7400,Kinley Street,Rangiora,
1825320,1041,Kinloch Avenue,Wesley,Auckland
1790936,7201,Kinloch Crescent,Witherlea,Blenheim
1815563,3110,Kinloch Drive,Bethlehem,Tauranga
1812573,3377,Kinloch Esplanade,Kinloch,Taupo
1818399,3110,Kinloch Lane,Bethlehem,Tauranga
3077540,9024,Kinloch Place,Mosgiel,
3010147,5024,Kinloch Place,Papakowhai,Porirua
3001786,9372,Kinloch Road,Kinloch,Glenorchy
1812570,3377,Kinloch Road,Kinloch,Taupo
1811989,3482,Kinloch Road,Lichfield,Putaruru
1780097,7591,Kinloch Road,"Little River,Okuti Valley,Te Oka",Little River
1776409,9810,Kinloch Street,Prestonville,Invercargill
1782928,8014,Kinloch Street,St Albans,Christchurch
1815649,3110,Kinloch Way,Bethlehem,Tauranga
1775078,9024,Kinmont Crescent,Kinmont Park,Mosgiel
3017232,9812,Kinmont Crescent,"Newfield,Rockdale",Invercargill
1833357,2016,Kinmont Rise,East Tamaki Heights,Auckland
1840249,3112,Kinmount Drive,Pyes Pa,Tauranga
1840451,9320,Kinnaird Close,Alexandra,
1782943,8025,Kinnaird Place,Hillmorton,Christchurch
1816940,3210,Kinnaird Place,Huntington,Hamilton
1770643,9495,Kinnaird Street,Herbert,
1832931,2019,Kinnard Lane,Totara Park,Auckland
3070122,5024,Kinnel Grove,Papakowhai,Porirua
3078459,8051,Kinnerton Lane,Casebrook,Christchurch
1774310,9393,Kinney Road,Chatto Creek,Alexandra
1771793,9305,Kinnibeg Street,Albert Town,Wanaka
1784072,8025,Kinrara Place,Halswell,Christchurch
1808863,4312,Kinross Drive,Merrilands,New Plymouth
3026574,9371,Kinross Lane,Jacks Point,Queenstown
1808868,3116,Kinross Place,Mount Maunganui,
1812238,3420,Kinross Place,Tokoroa,
1790931,7201,Kinross Street,Blenheim,
1831247,0600,Kinross Street,"Blockhouse Bay,Green Bay",Auckland
1784070,8042,Kinross Street,Hei Hei,Christchurch
1794691,6012,Kinross Street,Kelburn,Wellington
1798519,5510,Kinross Street,Levin,
1773088,9510,Kinross Street,Waikouaiti,
1804189,4110,Kinross White Street,Napier South,Napier
1824495,1071,Kinsale Avenue,Glendowie,Auckland
1771794,9382,Kinsale Street,John Creek,Lake Hawea
1806507,8025,Kinsella Crescent,Aidanfield,Christchurch
1806915,3600,Kinsella Place,Paeroa,
1782931,8081,Kinsey Terrace,Clifton,Christchurch
1772497,9010,Kinsman Street,Kaikorai,Dunedin
1795280,5890,Kintail Road,Stronvar,Wainuioru
1823514,0614,Kintara Drive,Massey,Auckland
1774457,9291,Kintore Road,Circle Hill,Milton
3084677,0110,Kintrae Close,Maunu,Whangarei
3044369,9371,Kintyre Court,Jacks Point,Queenstown
1779039,8042,Kintyre Drive,Broomfield,Christchurch
1806541,7692,Kintyre Lane,Ohoka,
1778968,9024,Kintyre Place,Mosgiel,
1838424,7604,Kintyre Place,Prebbleton,
1782923,8024,Kinver Place,Spreydon,Christchurch
1818432,0612,Kinvig Place,Ranui,Auckland
1772492,9013,Kinvig Street,Andersons Bay,Dunedin
1849170,0932,Kin Way,Silverdale,
1789091,7096,Kinzett Creek Road,Tadmor,Wakefield
3000841,7010,Kinzett Terrace,The Wood,Nelson
1800534,6021,Kio Crescent,Hataitai,Wellington
3082405,2578,Kiokio Court,Karaka,Papakura
1808407,3189,Kiokio Place,Maketu,
3082107,0614,Kiokio Place,Swanson,Auckland
1807925,3974,Kio Kio Station Road,Otorohanga,
1842638,0630,Kiokio Street,Long Bay,Auckland
3081424,3210,Kiokio Way,Flagstaff,Hamilton
1808149,3079,Kiorenui Road,"Kaingaroa Forest,Murupara",Murupara
3026579,4395,Kiore Road,"Huiroa,Kiore",Stratford
1799395,4077,Kiore Road,Tolaga Bay,
3069796,0110,Kioreroa Road,"Port Whangarei,Raumanga",Whangarei
1794698,6021,Kio Road,Hataitai,Wellington
1829884,1010,Kiosk Road,Parnell,Auckland
1784214,8011,Kipax Place,Riccarton,Christchurch
1831530,1023,Kipling Avenue,Epsom,Auckland
1805333,4110,Kipling Avenue,Hospital Hill,Napier
1841724,7614,Kipling Avenue,Rolleston,
1839505,3010,Kipling Crescent,Owhata,Rotorua
1788205,7011,Kipling Crescent,Stoke,Nelson
1808895,4310,Kipling Drive,Whalers Gate,New Plymouth
1802464,4022,Kipling Road,Te Karaka,
1782933,8024,Kipling Street,Addington,Christchurch
1794689,6037,Kipling Street,Johnsonville,Wellington
1812715,3432,Kipling Street,Leamington,Cambridge
1801317,4414,Kipling Street,Roslyn,Palmerston North
1772501,9013,Kipling Street,Waverley,Dunedin
1785236,7400,Kippenberger Avenue,Rangiora,
3066133,4820,Kippenberger Drive,Linton,Palmerston North
1795032,5810,Kippenberger Street,Lansdowne,Masterton
1815669,3283,Kippen Lane,Tamahere,Hamilton
1813413,3116,Kippen Way,Mount Maunganui,
1833135,2013,Kippure Close,East Tamaki,Auckland
1815723,3330,Kips Way,Rangatira Park,Taupo
3069584,4395,Kirai Road,"Strathmore,Te Wera",Stratford
3077969,2016,Kira Road,Flat Bush,Auckland
3077776,8051,Kirby Lane,Casebrook,Christchurch
1823519,0602,Kirby Street,Glendene,Auckland
1775741,9302,Kircher Place,Arrowtown,
3083940,2684,Kirian Lane,Pollok,
3084447,0173,Kiriglen Lane,Glenbervie,Whangarei
1817093,4374,Kirihau Road,Koru,New Plymouth
2007619,1071,Kirihipina Lane,Orakei,Auckland
1796425,3993,Kirikau Valley Road,Kirikau,Taumarunui
1817924,2110,Kirikiri Drive,Papakura,
1835164,2013,Kirikiri Lane,East Tamaki,Auckland
3077570,0295,Kirikiri Lane,Waipapa,
3084824,3286,Kirikiri Road,Newstead,Hamilton
1826233,0110,Kirikiri Road,Woodhill,Whangarei
1785150,7495,Kiri Kiri Road,"Burnt Hill,View Hill",Oxford
1840649,0110,Kirikiri Stream Lane,Woodhill,Whangarei
1806234,3578,Kirikiri Valley Road,Kopu,Thames
1806235,3578,Kirikiri West Road,Kopu,Thames
1826531,0172,Kirikopuni Road,"Parakao,Tangiteroria","Tangiteroria,Whangarei"
1819164,0381,Kirikopuni Station Road,Tangiteroria,
1819165,0381,Kirikopuni Valley Road,Tangiteroria,
1787544,9305,Kirimoko Crescent,Wanaka,
1826229,0112,Kiripaka Road,Tikipunga,Whangarei
1821940,0630,Kiri Place,Mairangi Bay,Auckland
1815680,3119,Kiri Place,Te Puke,
1817283,4682,Kiri Road,Te Kiri,Opunake
3082611,8025,Kirirua Avenue,Halswell,Christchurch
1806236,3575,Kirita Bay Road,Kereta,Thames
1804901,4972,Kiritaki Road,Dannevirke,
3083196,2578,Kiritau Road,Karaka,Papakura
3078158,3173,Kiritiana Close,Pyes Pa,Tauranga
1824494,1026,Kiritoa Street,Avondale,Auckland
3081370,3200,Kiriwai Kaui Drive,Burbush,Hamilton
1808942,3110,Kiriwai Place,Matua,Tauranga
1792219,5024,Kiriwai Road,Paremata,Porirua
3083176,3171,Kiriwehi Street,Omanawa,
3015816,5881,Kiriwhakapapa Road,"Kiriwhakapapa,Tararua Forest Park","Opaki,Tararua Forest Park"
1842780,2103,Kirkaldy Street,Wattle Downs,Auckland
1828784,2022,Kirkbride Road,"Mangere,Mangere Bridge",Auckland
1809757,3196,Kirkbride Road,Waimana,
1777460,9816,Kirkbride Street,Wallacetown,
1798516,5510,Kirkcaldie Grove,Levin,
1803449,4120,Kirkcaldy Crescent,Flaxmere,Hastings
1805148,4120,Kirkcaldy Place,Flaxmere,Hastings
1800297,5012,Kirkcaldy Street,Petone,Lower Hutt
1775570,9012,Kirkcaldy Street,South Dunedin,Dunedin
1835270,3210,Kirk Close,Rototuna,Hamilton
1776254,9814,Kirk Crescent,Bluff,
1814797,3127,Kirk Crescent,Kawerau,
1784452,8042,Kirkdale Place,Avonhead,Christchurch
1827939,0632,Kirkdale Place,Northcross,Auckland
1828778,2024,Kirkella Crescent,Mangere East,Auckland
1782001,7925,Kirke Street,Fairlie,
1801293,3110,Kirkhill Close,Bethlehem,Tauranga
3080884,8051,Kirkland Crescent,Harewood,Christchurch
1773087,9597,Kirkland Road,Middlemarch,
1772721,9018,Kirkland Street,Green Island,Dunedin
1777606,9635,Kirkland Street,Ohai,
3077403,3112,Kirk Lane,Ohauiti,Tauranga
1810340,3010,Kirk Lane,Owhata,Rotorua
1939365,2402,Kirklee Lane,Pokeno,
1827603,2105,Kirklow Place,Goodwood Heights,Auckland
1831531,1071,Kirkmay Place,Saint Heliers,Auckland
1777459,9816,Kirkoswald Street,Wallacetown,
1837851,4130,Kirkpatrick Place,Havelock North,
1809379,3118,Kirkpatrick Place,Papamoa Beach,Papamoa
1799268,4072,Kirkpatrick Road,Patutahi,Gisborne
1820120,0491,Kirkpatrick Street,Kohukohu,
3082337,7630,Kirk Place,Kaiapoi,
1819342,0588,Kirk Road,Maungaturoto,
1815129,3475,Kirk Road,Richmond Downs,
1784069,8042,Kirk Road,Templeton,Christchurch
1781378,7985,Kirk Road,Waitohi,Temuka
1793362,5012,Kirks Avenue,Petone,Lower Hutt
3013107,9073,Kirks Drain Road,"Henley,Momona",Mosgiel
1782257,7978,Kirks Road,Waimate,
1796993,4501,Kirk Street,Castlecliff,Whanganui
1824485,1021,Kirk Street,Grey Lynn,Auckland
1802462,4075,Kirk Street,Matawai,
1773093,9597,Kirk Street,Middlemarch,
1800803,3989,Kirk Street,National Park,
1796278,5512,Kirk Street,Otaki,
1791124,7204,Kirk Street,Renwick,
1827581,2123,Kirk Street,Waiuku,
1814783,3120,Kirk Street,Whakatane,
1770370,9430,Kirkwall Street,Palmerston,
3028552,9510,Kirkwall Street,Waikouaiti,
1796042,5032,Kirkway,Raumati Beach,Paraparaumu
1784460,8041,Kirkwood Avenue,Upper Riccarton,Christchurch
3011390,9810,Kirkwood Lane,"Invercargill,Queens Park",Invercargill
1824475,0600,Kirkwood Place,New Windsor,Auckland
1805515,4120,Kirkwood Road,"Flaxmere,Twyford",Hastings
1812717,3434,Kirkwood Street,Cambridge,
1814218,3500,Kirkwood Street,Thames,
1786938,8083,Kirner Street,Burwood,Christchurch
1811322,3281,Kiroa Road,Gordonton,Hamilton
3081199,2019,Ki Roto Way,Flat Bush,Auckland
1828766,2112,Kirrama Place,Conifer Grove,Takanini
1823517,0610,Kirrie Avenue,Te Atatu South,Auckland
2018079,3283,Kirriemuir Close,Tamahere,Hamilton
1772494,9011,Kirriemuir Street,Maryhill,Dunedin
1841822,7671,Kirrin Lane,West Melton,
1785989,8083,Kirsten Place,Parklands,Christchurch
1836567,3112,Kirtle Close,Pyes Pa,Tauranga
1770973,9310,Kirtle Place,Cromwell,
1828789,2102,Kirton Crescent,Manurewa,Auckland
3059371,5018,Kirton Drive,Riverstone Terraces,Upper Hutt
1816620,4310,Kirton Place,Westown,New Plymouth
1813224,3994,Kirton Road,Manunui,Taumarunui
1800591,5810,Kirton Street,Masterton,
1805914,3415,Kissel Street,Arapuni,Putaruru
1784071,8042,Kissel Street,Templeton,Christchurch
3029044,1072,Kissling Place,Saint Johns,Auckland
3078163,3173,Kissling Terrace,Pyes Pa,Tauranga
1806237,3579,Kitahi Road,Hikuai,
1840818,7120,Kitakita Grove,Motueka,
1828772,2102,Kita Road,Manurewa,Auckland
1837052,2120,Kitchener Close,Pukekohe,
3014849,7999,Kitchener Drive,Aoraki/Mount Cook National Park,
1786690,8023,Kitchener Place,Opawa,Christchurch
1812119,3411,Kitchener Place,Putaruru,
1822474,,Kitchener Road,"Milford,Takapuna",Auckland
1827376,2120,Kitchener Road,Pukekohe,
1831624,1025,Kitchener Road,Sandringham,Auckland
1827582,2123,Kitchener Road,Waiuku,
3077440,8025,Kitcheners Knoll Road,"Halswell,Kennedys Bush",Christchurch
1781876,7910,Kitchener Square,Highfield,Timaru
1831532,1010,Kitchener Street,Auckland Central,Auckland
1807340,3214,Kitchener Street,Claudelands,Hamilton
1772505,9016,Kitchener Street,Dunedin Central,Dunedin
1817405,4322,Kitchener Street,Eltham,
1775939,9710,Kitchener Street,Gore,
1803443,4122,Kitchener Street,Hastings,
1820270,0410,Kitchener Street,Kaitaia,
1795036,5810,Kitchener Street,Lansdowne,Masterton
3054528,5711,Kitchener Street,Martinborough,
1780785,7700,Kitchener Street,Netherby,Ashburton
3054530,5581,Kitchener Street,Te Horo Beach,Otaki
1806989,3610,Kitchener Street,Waihi,
1804443,4200,Kitchener Street,Waipukurau,
1803071,4108,Kitchener Street,Wairoa,
1796991,4500,Kitchener Street,Whanganui East,Whanganui
1794694,6037,Kitchener Terrace,Johnsonville,Wellington
1816618,4310,Kitchener Terrace,Moturoa,New Plymouth
1820447,0481,Kitchen Road,Kaitaia,
1815339,3881,Kite Access Road,Ohaupo,
3082597,2022,Kitea Place,Mangere,Auckland
1841288,8023,Kite Lane,Ferrymead,Christchurch
3081123,0118,Kitemaunga Avenue,"One Tree Point,Ruakaka","Ruakaka,Whangarei"
3079353,0118,Kitemoana Road,Marsden Point,Whangarei
1824491,1071,Kitemoana Street,Orakei,Auckland
3019138,2576,Kitenga Road,Flat Bush,Auckland
1825008,1025,Kitenui Avenue,Mount Albert,Auckland
1826527,0174,Kiteone Road,Parua Bay,
1841019,0171,Kitepai Street,Ruakaka,
3078489,0616,Kite Road,Hobsonville,Auckland
1813091,3881,Kite Road,Ohaupo,
1783863,8022,Kiteroa Place,Cashmere,Christchurch
1808939,3112,Kiteroa Street,Greerton,Tauranga
1812834,3494,Kiteroa Street,Karapiro,Cambridge
1821938,0630,Kiteroa Terrace,Rothesay Bay,Auckland
3082904,7614,Kite Street,Rolleston,
1823508,0816,Kitewaho Road,Swanson,Auckland
1831108,0627,Kitewao Street,Northcote,Auckland
3078919,3112,Kite Way,Welcome Bay,Tauranga
1824482,1050,Kitirawa Road,Remuera,Auckland
3066463,1072,Kitson Place,Saint Johns,Auckland
1827313,2682,Kitson Road,Aka Aka,Waiuku
1833377,0632,Kittiwake Drive,Schnapper Rock,Auckland
1811990,3410,Kittow Street,Tirau,
1830925,0986,Kitty Frazer Lane,Omaha,
3067912,8042,Kittyhawk Avenue,Wigram,Christchurch
1838959,3377,Kittyhawk Drive,Kinloch,Taupo
1842159,0616,Kittyhawk Lane,Hobsonville,Auckland
1830511,2582,Kitty Hawk Lane,Ardmore,Papakura
1815642,3206,Kittyhawk Place,Melville,Hamilton
2009574,7272,Kittyhawk Road,Burleigh,Blenheim
1798864,4818,Kittyhawk Row,Bulls,
1798920,3116,Kittyhawk Way,Mount Maunganui,
1828779,2024,Kivell Close,Mangere East,Auckland
3069306,5024,Kivell Street,Ranui,Porirua
1782954,8011,Kivers Lane,Christchurch Central,Christchurch
1780511,7677,Kivers Road,Burnham,
2018183,0930,Kiwa Crescent,Gulf Harbour,Whangaparaoa
3081196,3330,Kiwai Place,Wharewaka,Taupo
1791403,7371,Kiwa Road,Hapuku,Kaikoura
1807341,3200,Kiwi Avenue,Forest Lake,Hamilton
3070006,0110,Kiwi Avenue,Maunu,Whangarei
1785242,7402,Kiwi Avenue,Waikuku Beach,
1778286,9679,Kiwi Burn Place,Te Anau,
1840552,0173,Kiwi Bush Lane,Ngunguru,Whangarei
3083949,9391,Kiwi Close,Clyde,
1799513,4414,Kiwi Court,Roslyn,Palmerston North
1808946,3112,Kiwi Crescent,Tauranga South,Tauranga
1793540,5028,Kiwi Crescent,Tawa,Wellington
1781873,7910,Kiwi Drive,Highfield,Timaru
1828776,2022,Kiwi Esplanade,Mangere Bridge,Auckland
3078818,0614,Kiwikiwi Place,Westgate,Auckland
1805146,4120,Kiwi Lane,Camberley,Hastings
1840057,0573,Kiwi Lane,Kaiwaka,
3082356,0910,Kiwinui Lane,Warkworth,
1819166,0376,Kiwinui Road,Waipoua,Aranga
1819821,0293,Kiwi Nui Road,Kerikeri,
1803439,4120,Kiwi Place,Camberley,Hastings
1810371,3987,Kiwi Place,Maniaiti / Benneydale,Te Kuiti
1827374,2120,Kiwi Place,Pukekohe,
1793539,5028,Kiwi Place,Tawa,Wellington
1809754,3192,Kiwi Place,Te Teko,Whakatane
3082756,5036,Kiwi Pukupuku Close,Waikanae,
3026154,5018,Kiwi Ranch Road,Kaitoke,Upper Hutt
3084757,0174,Kiwi Rise,Whangarei Heads,Whangarei Heads
3046812,4378,Kiwi Road,"Ahititi,Uruti",Urenui
1786937,8041,Kiwi Road,Fendalton,Christchurch
1811824,3373,Kiwi Road,Hoe-O-Tainui,Tahuna
1791514,7275,Kiwi Road,Onamalutu,Wairau Valley
1824484,1022,Kiwi Road,Point Chevalier,Auckland
1807926,3876,Kiwi Road,Puketotara,Pirongia
1796040,5032,Kiwi Road,Raumati Beach,Paraparaumu
1821844,0624,Kiwi Road,Stanley Point,Auckland
1799064,4720,Kiwi Road,Taihape,
1811320,3781,Kiwi Road,Te Kauwhata,
1803072,4108,Kiwi Road,Wairoa,
1832028,2681,Kiwi Road,Waiuku,
1806238,3620,Kiwi Road,Whangamata,
1830820,0481,Kiwi Street,Ahipara,Kaitaia
1793185,5010,Kiwi Street,Alicetown,Lower Hutt
1803442,4120,Kiwi Street,Camberley,Hastings
1778335,9710,Kiwi Street,East Gore,Gore
1832294,2024,Kiwi Street,Favona,Auckland
1809949,3977,Kiwi Street,Hangatiki,Te Kuiti
1792616,5018,Kiwi Street,Heretaunga,Upper Hutt
1791404,7300,Kiwi Street,Kaikoura,
1802735,4010,Kiwi Street,Makaraka,Gisborne
1771790,9382,Kiwi Street,Makarora,Wanaka
1795037,5810,Kiwi Street,Masterton,
1811520,3400,Kiwi Street,Matamata,
1817972,3926,Kiwi Street,Ohura,
1825688,1081,Kiwi Street,Oneroa,Waiheke Island
1801059,4910,Kiwi Street,Pahiatua,
1814816,3912,Kiwi Street,Piopio,
1797711,4884,Kiwi Street,Pohangina,Ashhurst
1772504,9022,Kiwi Street,Saint Leonards,Dunedin
1810341,3015,Kiwi Street,Springfield,Rotorua
1809950,3988,Kiwi Street,Taharoa,
1812522,3330,Kiwi Street,Taupo,
1817284,4682,Kiwi Street,Te Kiri,Opunake
1809951,3910,Kiwi Street,Te Kuiti,
1812194,3420,Kiwi Street,Tokoroa,
1809751,3120,Kiwi Street,Whakatane,
1796992,4500,Kiwi Street,Whanganui East,Whanganui
1811822,3371,Kiwitahi Railway Road,Morrinsville,
1821055,0875,Kiwitahi Road,Helensville,
1811823,3371,Kiwitahi Station Road,Morrinsville,
1777426,2104,Kiwi Tamaki Road,Wiri,Auckland
3082939,4702,Kiwitea Grove,Feilding,
1797425,4774,Kiwitea Road,"Kimbolton,Rangiwahia",Kimbolton
1801601,4774,Kiwitea Road,Rangiwahia,Kimbolton
1825006,1041,Kiwitea Street,"Sandringham,Wesley",Auckland
1803073,4193,Kiwi Valley Road,Wairoa,
1839125,7872,Klempel Close,Moana,
1770165,9387,Klifden Road,Ida Valley,Oturehua
1838912,0230,Klinac Lane,Waipapa,
1832027,2679,Klipsch Road,Glenbrook,
3082847,0484,Klondike Lane,"Houhora,Ngataki",Pukenui
1785586,8042,Klondyke Drive,Hornby South,Christchurch
1780029,7571,Klondyke Road,Coalgate,
1777463,9892,Klondyke Road,"Mokoreta,Redan",Wyndham
1780975,7778,Klondyke Road,Montalto,Mount Somers
3003540,2695,Klondyke Road,"Onewhero,Port Waikato",
1780974,7778,Klondyke Terrace,Montalto,Mount Somers
3019914,0178,Knagg Road,"Mangapai,Springfield",Whangarei
1833728,3210,Knapdale Mews,Huntington,Hamilton
3048931,9773,Knapdale Road,"Chatton,East Gore,Knapdale,Whiterigg",Gore
1840379,7583,Knapps Road,Okains Bay,
1811324,3792,Kneebone Road,Orini,
1794700,6011,Knigges Avenue,Te Aro,Wellington
1825005,1025,Knight Avenue,Mount Albert,Auckland
1796039,5032,Knight Avenue,Paraparaumu Beach,Paraparaumu
3036418,3118,Knightia Drive,Papamoa Beach,Papamoa
1832500,2678,Knight Lane,Pukekohe,
1836717,5032,Knightly Way,Paraparaumu,
3085197,7671,Knighton Drive,West Melton,West Melton
1805964,3216,Knighton Road,Hillcrest,Hamilton
1814888,3015,Knight Place,Pomare,Rotorua
1787679,8041,Knight Place,Riccarton,Christchurch
1830926,0920,Knight Ridge Road,Kawau Island,
1804658,4976,Knight Road,Dannevirke,
3035311,0179,Knight Road,"Kokopu,Ruatangata West",Whangarei
1795253,5882,Knight Road,Kopuaranga,Masterton
1816236,3997,Knight Road,Ongarue,
1804910,4998,Knight Road,Papatawa,Woodville
1802641,4072,Knight Road,Patutahi,Gisborne
1831167,0620,Knightsbridge Drive,Forrest Hill,Auckland
1782938,8061,Knightsbridge Lane,Aranui,Christchurch
1813521,3110,Knightsbridge Place,Bethlehem,Tauranga
1807342,3204,Knightsbridge Place,Dinsdale,Hamilton
1804949,4112,Knightsbridge Place,"Greenmeadows,Taradale",Napier
1821937,0630,Knights Close,Rothesay Bay,Auckland
1828774,2102,Knights Drive,Hillpark,Auckland
1796277,5512,Knights Grove,Otaki,
1791301,7202,Knights Lane,Grovetown,Blenheim
3037286,0632,Knights Road,"Albany,Rosedale",Auckland
1793180,,Knights Road,Hutt Central,Lower Hutt
1831077,0630,Knights Road,"Murrays Bay,Rothesay Bay",Auckland
1786271,7675,Knights Road,Rolleston,
1803440,4122,Knight Street,Hastings,
1785149,7430,Knight Street,Oxford,
1806573,7430,Knight Street East,Oxford,
1841562,0173,Knights View Ridge,Matapouri,Whangarei
1842943,3112,Knights Way,Pyes Pa,Tauranga
3063548,9571,Knobby Range Road,"Knobby Range,Roxburgh East",Roxburgh
1777777,9689,Knobby Road,Wairio,Otautau
3083272,2019,Knockanara Drive,Flat Bush,Auckland
3080852,2019,Knock Lane,Flat Bush,Auckland
1842951,2120,Knoll Rise,Pukekohe,
1794684,6023,Knoll Street,Island Bay,Wellington
1775213,9220,Knoll Street,Milton,
1804912,4999,Knorpp Road,Woodville,
1797673,4779,Knorp Street,Halcombe,
1804440,4202,Knorp Street,Otane,
1798863,4894,Knottingly Road,Santoft,Bulls
1830251,0932,Knott Road,Stanmore Bay,Whangaparaoa
3082369,5510,Knowle Close,Levin,
3002784,7371,Knowles Crescent,Kaikoura Flat,Kaikoura
1771069,9332,Knowles Crescent,Ranfurly,
1807045,3610,Knowles Crescent,Waihi,
1774044,9775,Knowles Road,"Blue Mountains,Tapanui",Tapanui
3063039,8052,Knowles Street,"Mairehau,Merivale,St Albans",Christchurch
1801319,4410,Knowles Street,Terrace End,Palmerston North
1776158,9772,Knowsley Park Road,"Ferndale,Waikana",Mataura
1782944,8013,Knox Lane,Christchurch Central,Christchurch
1837158,4330,Knox Lane,Inglewood,
1814651,3112,Knox Place,Greerton,Tauranga
1815827,3432,Knox Place,Leamington,Cambridge
1780787,7700,Knox Place,Tinwald,Ashburton
1828787,2102,Knox Road,Hillpark,Auckland
1831350,0612,Knox Road,Swanson,Auckland
1814399,3204,Knox Street,Hamilton Central,Hamilton
1772493,9010,Knox Street,North East Valley,Dunedin
1771068,9332,Knox Street,Ranfurly,
1802782,4010,Knox Street,Te Hapara,Gisborne
3053756,5872,Knoyle Road,Riversdale Beach,Masterton
3062796,0474,Knudsen Road,Awarua,Kaikohe
1777771,9610,Knutsford Road,"Bald Hill,Otautau","Otautau,Riverton/Aparima"
1808632,3178,Knyvett Road,Aongatete,
1786173,7783,Knyvetts Road,Southbridge,
3085234,7614,Koa Drive,Rolleston,Rolleston
3082687,4120,Koaiterangi Way,Frimley,Hastings
3067660,4399,Koane Road,"Matemateaonga,Moeawatea","Eltham,Waverley"
3084896,0932,Koanga Road,Wainui,Wainui
1824496,1050,Koangi Street,Remuera,Auckland
1802825,4087,Koao Street,Te Araroa,
2010951,8025,Koareare Avenue,Halswell,Christchurch
3084322,4815,Koa Rise,Foxton Beach,Foxton
3084344,2578,Koaro Lane,Karaka,Papakura
1775940,9710,Koa Street,Gore,
1824489,1072,Koa Street,Meadowbank,Auckland
1800913,4571,Koatanui Road,Brunswick,
1774399,9271,Koau Road,"Otanomomo,Paretai",Balclutha
3082178,0992,Koawa Road,Wainui,
3084268,2580,Kobe Street,Karaka,Papakura
1813783,3112,Kochia Avenue,Pyes Pa,Tauranga
1799828,5032,Kodex Place,Paraparaumu,
1795806,4470,Koehlers Road,Whakarongo,Palmerston North
3080328,0627,Koeke Road,Northcote,Auckland
1791722,4791,Koeke Road,Taihape,
1816239,3995,Koe Street,Matiere,
1790107,7872,Koe Street,Moana,
1833600,9073,Kofoed Road,Berwick,Outram
1787903,7893,Kohaihai Road,"Kahurangi National Park,Karamea",
1840710,0573,Kohanga Lane,Mangawhai,
3020230,4375,Kohangamoa Road,Urenui,
3084672,0483,Kohanga Place,Karikari Peninsula,Karikari Peninsula
1828773,2022,Kohanga Road,Mangere Bridge,Auckland
3034982,2697,Kohanga Road,"Onewhero,Te Kohanga",
3034981,4092,Kohanga Road,Otoko,Te Karaka
1813275,2693,Kohanga Store Road,Te Kohanga,
1833057,0610,Kohara Place,Te Atatu Peninsula,Auckland
1812530,3330,Koha Road,Taupo,
3082132,4310,Kohatu Boulder Way,Welbourn,New Plymouth
3060699,,Kohatu-Kawatiri Highway,"Glenhope,Kahurangi National Park,Kohatu,Motupiko,Tapawera","Kahurangi National Park,St. Arnaud,Wakefield"
3081772,4179,Kohatunui Road,Whanawhana,Hastings
1805066,4196,Kohatu Paopao Road,Whakaki,
1812524,3330,Kohatu Parade,Wharewaka,Taupo
1826234,0112,Kohatu Road,Kensington,Whangarei
3079364,0982,Kohatu Roa Way,Mahurangi East,Warkworth
3084908,1072,Kohatu Street,Stonefields,Auckland
1796654,4691,Kohatu Street,Tangiwai,Ohakune
1841753,4470,Kohavia Lane,Bunnythorpe,Palmerston North
1842614,2474,Kohekohe Crescent,Meremere,Mercer
3082269,3010,Kohekohe Drive,Owhata,Rotorua
3039295,2683,Kohekohe-Karioitahi Road,"Karioitahi,Pollok","Pollok,Waiuku"
3082400,2578,Kohekohe Lane,Karaka,Papakura
1807343,3200,Kohekohe Place,Pukete,Hamilton
1842892,3118,Kohekohe Road,Papamoa Beach,Papamoa
1798307,5036,Kohekohe Road,Waikanae,
1831639,1024,Kohekohe Street,Mount Eden,Auckland
1822884,0600,Kohekohe Street,New Lynn,Auckland
3083642,2113,Kohepiro Lane,Rosehill,Papakura
1816499,4330,Kohe Place,Inglewood,
3083855,1024,Koheraunui Rise,Three Kings,Auckland
1830766,0496,Kohe Road,Pawarenga,
3010918,2474,Koheroa Road,"Mangatawhiri,Mercer",
3084042,0630,Koheru Place,Long Bay,Auckland
3079512,3114,Koheru Place,Omokoroa,
1818860,0112,Kohe Street,Parahaki,Whangarei
1818010,4390,Kohete Road,Kaimata,Inglewood
3079667,2120,Kohe Way,Pukekohe,
1819824,0474,Kohewhata Place,Kaikohe,
3079877,3288,Kohia Drive,Horotiu,Hamilton
3079967,3330,Kohia Place,Wharewaka,Taupo
1824483,1023,Kohia Terrace,Epsom,Auckland
3031464,0810,Kohia Way,Huapai,Kumeu
1835967,8083,Kohi Drive,Parklands,Christchurch
1843372,2103,Kohi Kai Place,Weymouth,Auckland
1838217,7183,Kohikiko Place,Pohara,Takaka
3085065,2577,Kohikohi Loop,Drury,Drury
1794686,6035,Kohima Drive,Khandallah,Wellington
1824490,1071,Kohimarama Road,"Kohimarama,Saint Heliers",Auckland
3082007,7580,Kohimara Place,Kumara,Greymouth
1828775,2022,Kohinoor Avenue,Mangere,Auckland
3079940,9310,Kohinoor Lane,Cromwell,
1840344,0192,Kohinui Heights Rise,Parua Bay,
1801060,4982,Kohinui Road,"Mangatainoka,Pahiatua",Pahiatua
1830503,0192,Kohinui Road,Parua Bay,
1772886,9023,Kohi Place,Port Chalmers,Dunedin
3038728,,Kohi Point Lookout Road,"Maraetotara,Ohope","Ohope,Whakatane"
1798707,4591,Kohi Road,Waverley,
1817422,4678,Kohiti Road,Okaiawa,Hawera
1789786,7197,Kohi Walk,Kaiteriteri,Motueka
1828777,2102,Kohiwi Road,Manurewa,Auckland
1817911,3981,Kohua Road,Aria,
1785844,8083,Kohuhu Lane,Burwood,Christchurch
3080482,7081,Kohuhu Lane,Redwood Valley,Richmond
1988160,0814,Kohuhu Lane,Westgate,Auckland
3079210,3382,Kohuhu Place,Motuoapa,
1820271,0410,Kohuhu Street,Kaitaia,
3080551,2579,Kohukohunui Lane,Ramarama,Drury
1830767,0491,Kohukohu Road,"Hokianga Harbour,Kohukohu,Mangamuka","Kohukohu,Okaihau"
3083838,3110,Kohu Lane,Bethlehem,Tauranga
3025771,0494,Kohumaru Road,"Mangonui,Peria","Kaitaia,Mangonui"
1983070,8083,Kohunga Crescent,Bottle Lake,Christchurch
1806709,3503,Kohunui Street,Ngatea,
3081685,2025,Kohuora Lane,Papatoetoe,Auckland
1805530,4172,Kohupatiki Road,Clive,
1775018,9010,Kohu Place,Halfway Bush,Dunedin
1812792,4396,Kohuratahi Road,"Kohuratahi,Tangarakau",Stratford
1837056,0179,Kohura Way,Maungatapere,Whangarei
1779134,7495,Kohu Road,Okuku,
1823518,0604,Kohu Road,Titirangi,Auckland
1821099,0931,Kohu Street,Orewa,
1796041,5032,Kohutuhutu Road,Raumati Beach,Paraparaumu
3084025,0985,Kohuwai Way,Warkworth,
3082765,5024,Kohu Way,Whitby,Porirua
1802815,4087,Koia Road,Tikitiki,
1982767,7173,Koi Crescent,Mapua,
3038138,9771,Koi Flat Road,"Conical Hill,Pomahaka,Waikoikoi",Gore
3084907,1072,Koinaki Road,Stonefields,Auckland
3083592,0630,Koiora Lane,Long Bay,Auckland
3079910,2122,Koiora Road,Clarks Beach,
1775616,9771,Koi Road,Waikoikoi,Gore
3058331,3991,Koiro Road,"Aukopae,Kirikau",Taumarunui
3082866,0616,Ko Iti Lane,Hobsonville,Auckland
3084404,3600,Kokako Drive,Paeroa,
1830083,0781,Kokako Grove,Te Henga / Bethells Beach,
1840897,3194,Kokako Heights,Matata,
3077571,9371,Kokako Lane,Jacks Point,Queenstown
3084589,3800,Kokako Lane,Te Awamutu,
1839595,0110,Kokako Place,Horahora,Whangarei
1805652,4112,Kokako Place,Taradale,Napier
1796428,3993,Kokakoriki Road,Kirikau,Taumarunui
3082479,5022,Kokako Rise,Kenepuru,Porirua
1817892,2110,Kokako Rise,Papakura,
1811988,3482,Kokako Road,Lichfield,Putaruru
1800747,5036,Kokako Road,Otaihanga,Paraparaumu
3004326,4696,Kokako Road,"Retaruke,Ruatiti","Owhango,Raetihi"
1789098,7096,Kokako Road,Tapawera,Wakefield
1802526,4195,Kokako Road,Tuai,Wairoa
1817971,3980,Kokako Road,Waitaanga,Ohura
3004325,4591,Kokako Road,Waverley,
1814817,3988,Kokakoroa Road,Waitomo,Te Kuiti
1816240,3995,Kokako Street,Matiere,
1810342,3015,Kokako Street,Selwyn Heights,Rotorua
1799065,4720,Kokako Street,Taihape,
1813611,3110,Kokako Way,Matua,Tauranga
1804445,4295,Kokatewai Road,Elsthorpe,
1826235,0110,Kokich Crescent,Onerahi,Whangarei
1842185,3118,Kokihi Close,Papamoa Beach,Papamoa
1826257,0920,Kokihi Lane,Snells Beach,
1833116,0184,Kokinga Point Road,Rawhiti,Russell
1792222,5024,Kokiri Crescent,Waitangirua,Porirua
1835477,5810,Kokiri Place,Masterton,
3019300,4678,Kokiri Road,"Kapuni,Manaia","Hawera,Manaia"
1810343,3010,Kokiri Street,Ngongotaha,Rotorua
1823515,0610,Kokiri Street,Te Atatu South,Auckland
1822492,0632,Koki Road,Greenhithe,Auckland
1940775,8025,Kokoda Street,Halswell,Christchurch
1820116,0473,Kokohuia Road,Omapere,Kaikohe
1803074,4198,Kokohu Road,Nuhaka,
3083294,3330,Kokomea Village Drive,Richmond Heights,Taupo
2004295,2022,Koko Mews,Mangere Bridge,Auckland
1815367,3998,Kokomiko Road,"Pureora Forest Park,Waimiha",
1814012,3118,Kokomo Key,Papamoa Beach,Papamoa
3048438,9077,Kokomuka Avenue,Harwood,Dunedin
3069739,4087,Kokomuka Road,"Hicks Bay,Te Araroa,Waikura Valley",
3016667,2695,Kokonga East Road,Waikaretu,Port Waikato
3082344,0932,Kokonga Lane,Silverdale,
3048135,9397,Kokonga Road,"Kokonga,Orangapai,Waipiata","Kyeburn,Ranfurly"
3063144,2695,Kokonga West Road,Waikaretu,Port Waikato
3034161,0179,Kokopu Block Road,"Kokopu,Maungatapere",Whangarei
1816238,3991,Kokopuiti Road,Tokirima,Ohura
1785870,8061,Kokopu Lane,Bexley,Christchurch
1840711,0975,Kokopu Lane,Mangawhai,
3079592,3112,Kokopu Lane,Ohauiti,Tauranga
3080356,1026,Kokopu Lane,Waterview,Auckland
1798874,4793,Kokopunui Road,Pukeokahu,Taihape
3085077,2577,Kōkopu Place,Drury,Drury
1826532,0179,Kokopu Road,"Kokopu,Poroti,Ruatangata West",Whangarei
1817726,4598,Kokopu Road,Manutahi,Patea
3048337,0481,Kokopu Street,Ahipara,Kaitaia
1836625,0986,Kokopu Street,Omaha,
1839840,7612,Kokopu Street,Pegasus,
1795899,3334,Kokopu Street,Turangi,
1788206,7194,Kokorua Road,Whangamoa,Rai Valley
3079678,0931,Kokoru Street,Orewa,
3080457,0618,Kokotaua Lane,Hobsonville,Auckland
3059153,5792,Kokotau Road,"Kokotau,Parkvale,Ponatahi",Carterton
3081359,0614,Kokotea Road,Massey,Auckland
3077700,0616,Kokowai Parade,Hobsonville,Auckland
3044087,2013,Ko Lane,Golflands,Auckland
1829422,2025,Kolmar Road,Papatoetoe,Auckland
3079209,3382,Komahimahi Way,Motuoapa,
3081782,2579,Komako Lane,Ramarama,Drury
1832293,2025,Komako Place,Papatoetoe,Auckland
1774372,9397,Komako Road,Waipiata,Ranfurly
1798867,4794,Komako Street,Utiku,Taihape
3079854,7010,Komako Way,Atawhai,Nelson
3068947,3791,Komak Road,Taupiri,
3078561,1062,Komanawa Lane,Mount Wellington,Auckland
3083649,0920,Komarohi Road,Snells Beach,
1824486,1050,Komaru Street,Remuera,Auckland
3078040,3118,Komata Crescent,Papamoa Beach,Papamoa
1792223,5024,Komata Grove,Waitangirua,Porirua
1811707,3674,Komata Reefs Road,Komata,Paeroa
1817058,4381,Komene Road,Okato,
1819372,0593,Komiti Road,Tinopai,
1830933,0981,Komokoriki Hill Road,Makarau,Warkworth
1832890,0610,Kona Crescent,Henderson,Auckland
1777171,9774,Koneburn Road,Waimumu,Gore
3077768,0794,Konei Place,Okura Bush,Silverdale
1810344,3015,Konene Street,Utuhina,Rotorua
3048523,7893,Kongahu Swamp Road,"Karamea,Little Wanganui",Karamea
1829424,2025,Konini Avenue,Papatoetoe,Auckland
1805334,4112,Konini Crescent,Pirimai,Napier
1798305,5036,Konini Crescent,Waikanae Beach,Waikanae
1796043,5032,Konini Grove,Raumati Beach,Paraparaumu
1809749,3120,Konini Place,Edgecumbe,
1817420,4610,Konini Place,Hawera,
1811518,3400,Konini Place,Matamata,
1825546,1061,Konini Road,"Ellerslie,Greenlane,One Tree Hill",Auckland
1794685,6021,Konini Road,Hataitai,Wellington
1823513,0604,Konini Road,Titirangi,Auckland
1818861,,Konini Street,"Abbey Caves,Parahaki",Whangarei
1810404,3979,Konini Street,Aria,
1800177,5013,Konini Street,Eastbourne,Lower Hutt
1802133,4010,Konini Street,Elgin,Gisborne
1786505,7910,Konini Street,Gleniti,Timaru
1816498,4330,Konini Street,Inglewood,
1795034,5810,Konini Street,Lansdowne,Masterton
1798521,5510,Konini Street,Levin,
1803441,4120,Konini Street,Mahora,Hastings
1809402,3025,Konini Street,Murupara,
1789601,7010,Konini Street,Nelson South,Nelson
1796276,5512,Konini Street,Otaki Beach,Otaki
1784212,8041,Konini Street,Riccarton,Christchurch
1801320,4410,Konini Street,Takaro,Palmerston North
1815237,3330,Konini Street,Taupo,
1796994,4501,Konini Street,Tawhero,Whanganui
1801126,4474,Konini Street,Tokomaru,Palmerston North
1793416,5014,Konini Street,Wainuiomata,Lower Hutt
1812526,3421,Konini Terrace,Mangakino,
3078116,0810,Konoba Avenue,Kumeu,
1774042,9591,Kononi Road,Kononi,Lawrence
1814313,3691,Kon Tiki Road,Whiritoa,Waihi
3080105,0616,Ko Nui Place,Hobsonville,Auckland
3080135,4374,Konukunuku Way,Omata,New Plymouth
3083262,3225,Koohunga Street,Raglan,
3081953,3118,Koohure Lane,Papamoa Beach,Papamoa
1821101,0986,Kookaburra Drive,Tawharanui Peninsula,Matakana
3084989,0994,Kookaburra Lane,Wainui,Wainui
1828770,2010,Kookaburra Place,Botany Downs,Auckland
3084452,3283,Kookihi Crescent,Cambridge,
3081958,3118,Kookoohau Way,Papamoa Beach,Papamoa
3081950,3118,Koomanawa Way,Papamoa Beach,Papamoa
3082395,2578,Koopata Lane,Karaka,Papakura
1787399,7984,Koorong Road,Albury,
1808639,3188,Kooyman Drive,Rangiuru,Te Puke
3018410,4182,Kopaki Bay Road,Puketapu,Napier
1810405,3983,Kopaki Road,Kopaki,Te Kuiti
3081088,3330,Kopakopa Crescent,Wharewaka,Taupo
3079401,1041,Kopakopa Lane,Mount Roskill,Auckland
1797447,4476,Kopane Road,Rongotea,
1805781,4130,Kopanga Heights Lane,Havelock North,
1802968,4130,Kopanga Road,Havelock North,
3082664,3592,Kopani Road,Matarangi,Whitianga
1793178,5019,Kopara Grove,Stokes Valley,Lower Hutt
3078949,0975,Kopara Lane,Mangawhai,
1828783,2103,Kopara Place,Clendon Park,Auckland
1787474,8042,Kopara Street,Templeton,Christchurch
1809748,3191,Kope Canal Road,Coastlands,Whakatane
1809747,3191,Kope Drain Road,"Awakeri,Coastlands",Whakatane
1799519,4410,Kopeka Court,Terrace End,Palmerston North
1826534,0182,Kopeti Road,Hukerenui,Hikurangi
3082495,1062,Kopiha Way,Mount Wellington,Auckland
1797708,4995,Kopikopiko Road,"Eketahuna,Pahiatua,Tararua Forest Park",
1819163,0376,Kopikopiko Road,Waipoua,Aranga
1823509,0604,Kopiko Road,Titirangi,Auckland
1838430,6021,Kopiko Way,Brooklyn,Wellington
3080983,2113,Kopi Lane,Karaka,Papakura
1826528,0173,Kopipi Crescent,Ngunguru,Whangarei
1823512,0614,Kopi Place,Massey,Auckland
3082743,4310,Kopiri Place,Spotswood,New Plymouth
1798982,3112,Ko Place,Pyes Pa,Tauranga
1813825,3283,Koppens Road,Tamahere,Hamilton
3084533,8051,Kopper Crescent,Marshland,Christchurch
3082763,5024,Kopua Place,Whitby,Porirua
1802390,4087,Kopuapounamu Road,Te Araroa,
3019251,4974,Kopua Road,"Norsewood,Ormondville",
1802376,4079,Kopuaroa Road,Waipiro,Ruatoria
1799362,4077,Kopuatarakihi Road,Mangatuna,
1803076,4198,Kopuawhara Road,Mahia,
1813880,3112,Kopu Drive,Pyes Pa,Tauranga
1816243,3980,Kopuha Road,Ohura,
3044046,,Kopu-Hikuai Road,"Coromandel Forest Park,Hikuai,Kopu,Puriri","Coromandel Forest Park,Hikuai,Thames"
3079891,3118,Kopukairoa Boulevard,Papamoa Beach,Papamoa
3054702,2471,Kopuku Landing Road,Kopuku,Maramarua
3065260,2471,Kopuku Road,"Kopuku,Maramarua,Maramarua Forest,Waerenga","Maramarua,Te Kauwhata"
1820438,0482,Kopuokai Road,Kaitaia,
1827606,2103,Kopu Place,Clendon Park,Auckland
3083569,3288,Kopura Place,Ngaruawahia,
1808150,3079,Kopuriki Road,"Galatea,Kaingaroa Forest,Murupara",Murupara
1814130,3578,Kopu Road,Kopu,Thames
3084627,0931,Kopu Road,Orewa,
1803075,4108,Kopu Road,Wairoa,
2013405,0618,Kopuru Road,Whenuapai,Auckland
1796653,4691,Kopurutuku Road,"Ohakune,Waimarino",Ohakune
1795898,3381,Kopu Street,Tokaanu,Turangi
1797446,4891,Koputara Road,Himatangi Beach,
1798302,5575,Koputaroa Road,"Koputaroa,Levin,Poroutawhao","Levin,Shannon"
1836083,0612,Kora Avenue,Ranui,Auckland
1798873,4785,Koraenui Road,Hunterville,
1798872,4797,Koraenui Street,Mangaweka,
1821112,0892,Koraha Road,Kumeu,
1824476,1050,Koraha Street,Remuera,Auckland
3078616,0484,Korakanui A Rua Road,Pukenui,
1951093,0810,Korako Drive,Kumeu,
3084321,3200,Korako Lane,Baverstock,Hamilton
3080619,2584,Korakora Lane,Papakura,
2008899,3384,Korako Road,Tahorakuri Forest,Reporoa
3080144,8042,Koral Lane,Broomfield,Christchurch
3080812,0600,Korama Lane,New Lynn,Auckland
1819825,0295,Koranae Road,Waipapa,
1802658,4075,Koranga Valley Road,Matawai,
1803413,4120,Korari Avenue,Flaxmere,Hastings
1815236,3421,Korari Crescent,Mangakino,
1842639,7201,Korari Grove,Redwoodtown,Blenheim
3084527,0473,Korari Place,Rawene,Kaikohe
1824488,1021,Korari Street,Eden Terrace,Auckland
3083050,3710,Korari Street,Te Kauwhata,
3077613,0632,Korari Way,"Greenhithe,Unsworth Heights",Auckland
1801563,5019,Korau Grove,Stokes Valley,Lower Hutt
1825544,1051,Korau Road,Greenlane,Auckland
1826227,0112,Korau Road,Tikipunga,Whangarei
1824492,1026,Korcula Place,Avondale,Auckland
1832777,2013,Kordel Place,East Tamaki,Auckland
3080994,9391,Kordia Way,Waikerikeri,Alexandra
3081889,5022,Koreke Close,Kenepuru,Porirua
3083950,9391,Koreke Lane,Clyde,
2010952,8025,Koreke Lane,Halswell,Christchurch
1815184,3420,Koreke Place,Tokoroa,
1772709,9018,Koremata Street,Green Island,Dunedin
1819162,0391,Koremoa Road,Te Kopuru,
1802527,4196,Korepe Road,Whakaki,
1812824,4393,Korepo Road,Ngaere,Stratford
1789724,7173,Korepo Road,Ruby Bay,Mapua
1835418,1072,Korere Terrace,Stonefields,Auckland
3042283,,Korere-Tophouse Road,"Atapo,Kikiwa,Motupiko,Mount Richmond Forest Park,St. Arnaud","Mount Richmond Forest Park,St. Arnaud"
1842849,0614,Korihi Drive,Swanson,Auckland
1803806,4182,Kori Hill Road,Te Haroto,Napier
3080722,3210,Korikori Green,Rototuna North,Hamilton
1828782,2022,Korimako Avenue,Mangere Bridge,Auckland
1776745,9879,Korimako Avenue,Otatara,Invercargill
1845557,7430,Korimako Close,Oxford,
3082757,5036,Korimako Close,Waikanae,
3084782,7615,Korimako Crescent,Rolleston,Rolleston
3084051,3800,Korimako Drive,Te Awamutu,
1820269,0410,Korimako Lane,Kaitaia,
3084515,0118,Korimako Lane,One Tree Point,Whangarei
3083469,4410,Korimako Lane,Palmerston North,
3081754,3187,Korimako Lane,Papamoa Beach,Papamoa
1946549,9371,Korimako Lane,Speargrass Flat,Queenstown
3081557,8023,Korimako Lane,Sydenham,Christchurch
3079765,3120,Korimako Place,Coastlands,Whakatane
1799055,4720,Korimako Place,Taihape,
1815182,3420,Korimako Place,Tokoroa,
3082602,7281,Korimako Rise,Havelock,
1792876,5013,Korimako Road,Days Bay,Lower Hutt
1812525,3330,Korimako Road,Waipahihi,Taupo
1807344,3204,Korimako Street,Frankton,Hamilton
1772038,9022,Korimako Street,Saint Leonards,Dunedin
1814889,3015,Korimako Street,Selwyn Heights,Rotorua
1797045,4573,Koriniti-Harawira Road,Kakatahi,Whanganui
1797044,4576,Koriniti Pa Road,Matahiwi,Whanganui
1817059,4371,Korito Road,Korito,New Plymouth
1825894,1072,Korma Lane,Panmure,Auckland
1825347,1023,Korma Road,Royal Oak,Auckland
3080104,0616,Ko Roa Lane,Hobsonville,Auckland
1793358,5012,Koro Crescent,Petone,Lower Hutt
3084749,3204,Koroheke Lane,Frankton,Hamilton
3078643,2110,Koroheke Road,Takanini,Auckland
1795900,3382,Korohe Road,Turangi,
1810345,3010,Korokai Street,Ohinemutu,Rotorua
3078454,3330,Korokia Way,Richmond Heights,Taupo
1825543,1061,Korokino Road,Greenlane,Auckland
3081886,8025,Korokio Lane,Halswell,Christchurch
3080911,0612,Korokio Lane,Henderson,Auckland
3067652,4183,Korokipo Road,"Fernhill,Waiohiki",Napier
1813115,3879,Koroko Road,Parawera,
1838490,3500,Korokoro Crescent,Thames,
3043906,5012,Korokoro Road,"Korokoro,Petone",Lower Hutt
3081011,2022,Koro Lane,Mangere Bridge,Auckland
3040091,3290,Koromatua Road,"Ngahinapouri,Temple View","Hamilton,Ohaupo"
3081827,2019,Koromeke Street,Flat Bush,Auckland
1838718,3118,Koro Mews,Papamoa Beach,Papamoa
1817457,4610,Koromiko Avenue,Hawera,
1799515,4414,Koromiko Avenue,Roslyn,Palmerston North
1788207,7011,Koromiko Avenue,Stoke,Nelson
1779419,8971,Koromiko Crescent,Diamond Harbour,
1834598,3506,Koromiko Drive,Coromandel,
1837201,5036,Koromiko Glen,Waikanae,
3084443,0230,Koromiko Lane,Kerikeri,
3082238,3800,Koromiko Lane,Kihikihi,Te Awamutu
3083174,3225,Koromiko Lane,Raglan,
1832846,0175,Koromiko Lane,Tikipunga,Whangarei
1811516,3400,Koromiko Place,Matamata,
1795835,3381,Koromiko Place,Omori,Turangi
1832073,2123,Koromiko Place,Waiuku,
3011939,6012,Koromiko Road,Aro Valley,Wellington
1796995,4501,Koromiko Road,Gonville,Whanganui
3011943,3996,Koromiko Road,"Matiere,Ongarue",
1805702,4179,Koromiko Road,Otamauri,Hastings
1798306,5036,Koromiko Road,Waikanae,
1816500,4330,Koromiko Street,Inglewood,
1808941,3110,Koromiko Street,Judea,Tauranga
1775264,9271,Koromiko Street,Kaka Point,
1814723,3025,Koromiko Street,Murupara,
1822885,0600,Koromiko Street,New Lynn,Auckland
1796275,5512,Koromiko Street,Otaki Beach,Otaki
1781589,7903,Koromiko Street,Pleasant Point,
1786727,8022,Koromiko Street,Saint Martins,Christchurch
1815137,3320,Koromiko Street,Te Aroha,
1826191,0920,Koromiko Walk,Snells Beach,
3082712,2113,Koromiko Way,Rosehill,Papakura
1802392,4087,Koronia Street,Te Araroa,
3077517,2019,Koropa Road,Flat Bush,Auckland
1819818,0230,Koropewa Road,Waipapa,
3078883,2019,Koropiko Lane,Flat Bush,Auckland
1812196,3420,Koropio Place,Tokoroa,
3078011,2120,Koropupu Street,Pukekohe,
3082845,3114,Korora Crescent,Omokoroa,
1817874,4310,Kororako Grove,Whalers Gate,New Plymouth
3085001,0632,Kororā Lane,Greenhithe,Auckland
1797445,4816,Kororareka Avenue,Ohakea,Bulls
3002416,9494,Korora Road,Oamaru North,Oamaru
1825671,1081,Korora Road,Oneroa,Waiheke Island
3002417,4971,Korora Road,"Pongaroa,Waione","Pongaroa,Weber"
1803805,4182,Korora Road,Te Haroto,Napier
1820446,0481,Korora Street,Ahipara,Kaitaia
1783135,8062,Korora Street,Bromley,Christchurch
1797885,4989,Korora Street,Makuri,Pahiatua
1801668,4991,Korora Street,Pongaroa,
1780039,8971,Korora Tahi Road,Te Rapaki-o-Te Rakiwhakaputa,Lyttelton
3079424,5022,Korora Way,Kenepuru,Porirua
1812197,3420,Kororo Place,Tokoroa,
1822132,0627,Kororo Street,Northcote,Auckland
1821939,0630,Korotaha Terrace,Rothesay Bay,Auckland
1838107,3889,Korotangi Place,Kawhia,
3084862,3010,Korotere Drive,Owhata,Rotorua
3078867,2578,Korowai Rise,Ramarama,Drury
3081650,4120,Korowai Street,Flaxmere,Hastings
1843135,8083,Korowai Street,Marshland,Christchurch
1808869,3116,Korowai Street,Mount Maunganui,
3079614,0600,Korowha Place,New Lynn,Auckland
3082781,2122,Korowhiti Road,Clarks Beach,
1790102,7872,Korua Street,Moana,
1842486,4777,Koru Court,Halcombe,
1817057,4374,Koru Hill Pa Road,Kaitake,New Plymouth
3053068,3330,Korukomoana Road,"Acacia Bay,Tapuaeharuru Bay",Taupo
1956206,2019,Korukoru Road,Flat Bush,Auckland
3084063,0632,Koru Lane,Greenhithe,Auckland
3082098,3432,Koru Lane,Leamington,Cambridge
3083363,5032,Koru Loop,Paraparaumu,
1840203,8051,Koru Place,Harewood,Christchurch
2009008,0920,Koru Place,Snells Beach,
1783048,7011,Koru Place,Stoke,Nelson
3082496,3591,Koru Rise,Pumpkin Hill,Whitianga
3017777,4374,Koru Road,"Koru,Omata",New Plymouth
1828767,2022,Koru Street,Mangere Bridge,Auckland
3078370,3118,Koru Way,Papamoa Beach,Papamoa
1841544,9305,Koru Way,Wanaka,
1810856,3700,Kosoof Place,Huntly,
1822130,0627,Ko Street,Northcote,Auckland
3007750,1072,Kotae Road,Wai o Taiki Bay,Auckland
1807345,3200,Kotahi Avenue,Beerescourt,Hamilton
3034707,9383,Kotahi Drive,Queensberry,Cromwell
3080582,3129,Kotahi Lane,Katikati,
1789814,7095,Kotahi Road,Belgrove,Wakefield
1825893,1062,Kotahi Road,Mount Wellington,Auckland
3083801,3372,Kotahitanga Place,Morrinsville,
3080098,2110,Kotahitanga Street,Papakura,
3084944,0112,Kotaiha Lane,Tikipunga,Whangarei
3078293,0616,Kota Lane,Hobsonville,Auckland
1821107,0930,Kotanui Avenue,Army Bay,Whangaparaoa
1837659,7400,Kotare Avenue,Rangiora,
1824478,1022,Kotare Avenue,Westmere,Auckland
3045149,0110,Kotare Crescent,Maunu,Whangarei
1833380,0571,Kotare Crescent,Pahi,Paparoa
1808943,3112,Kotare Crescent,Tauranga South,Tauranga
3079766,3120,Kotare Drive,Coastlands,Whakatane
1820441,0420,Kotare Drive,Coopers Beach,
3078829,4312,Kotare Drive,Waiwhakaiho,New Plymouth
3077906,9305,Kotare Drive,Wanaka,
1991255,3493,Kotare Grove,Cambridge,
1838118,0230,Kotare Heights,Kerikeri,
1785839,7581,Kotare Lane,Takamatua,
3084117,4010,Kotare Lane,Wainui,Gisborne
3084698,3900,Kōtare Lane,Otorohanga,Otorohanga
1780514,7600,Kotare Place,Burnham,
1789327,7197,Kotare Place,Kaiteriteri,Motueka
1798520,5510,Kotare Place,Levin,
1821100,0982,Kotare Place,Sandspit,Warkworth
1790224,7300,Kotare Place,South Bay,Kaikoura
1815183,3420,Kotare Place,Tokoroa,
1816242,3980,Kotare Road,"Ahititi,Waitaanga","Ohura,Urenui"
3077563,0573,Kotare Road,Kaiwaka,
1804758,4977,Kotare Road,Matamau,Dannevirke
1827202,2683,Kotare Road,Pollok,
3070368,4195,Kotare Road,Ruakituri,
1811389,3791,Kotare Road,Taupiri,
1820445,0481,Kotare Street,Ahipara,Kaitaia
1797000,4500,Kotare Street,Aramoho,Whanganui
1786940,8041,Kotare Street,"Fendalton,Ilam",Christchurch
1810346,3010,Kotare Street,Glenholme,Rotorua
1812529,3330,Kotare Street,Hilltop,Taupo
1799056,4720,Kotare Street,Taihape,
1801122,5036,Kotare Street,Waikanae,
1806241,3620,Kotare Street,Whangamata,
3084070,5022,Kotare Way,Kenepuru,Porirua
3083464,3592,Kotare Way,Matarangi,Whitianga
1792877,5013,Kotari Road,Days Bay,Lower Hutt
1812825,4392,Kota Road,Huiroa,Stratford
3080472,3112,Kotata Lane,Poike,Tauranga
3078559,0110,Kotata Rise,"Port Whangarei,Raumanga",Whangarei
3079761,7020,Kotata Street,Richmond,
1812859,4392,Kotekiekie Road,Whanganui National Park,
1805705,4188,Kotemaori Settlement Road,Kotemaori,
3083406,1041,Kotero Road,Mount Roskill,Auckland
2008835,3118,Kotiate Street,Papamoa Beach,Papamoa
3083392,5810,Kotimana Road,Masterton,
1822765,0602,Kotinga Avenue,Glen Eden,Auckland
1786574,7971,Kotinga Road,Otaio,Saint Andrews
1791955,6022,Kotinga Street,Kilbirnie,Wellington
1792225,5026,Kotipu Place,Pukerua Bay,Porirua
3084340,0481,Kotipu Road,Kaitaia,
1831533,1071,Kotiri Street,Saint Heliers,Auckland
3083074,0932,Kotiti Drive,Wainui,
3081363,0614,Kotiu Place,Massey,Auckland
1779403,7581,Kotlowski Road,Takamatua,
3080106,0616,Ko Tohu Place,Hobsonville,Auckland
1814018,3191,Kotorenui Road,Tawera,Taneatua
1834711,7011,Kotua Place,Stoke,Nelson
1788860,7095,Kotuas Road,Golden Downs,Wakefield
3081580,7610,Kotua Street,Woodend,
3081385,0992,Kotuitui Drive,Wainui,
3079899,2104,Kotuitui Street,Manukau,Auckland
1790106,7872,Kotuku-Bell Hill Road,Moana,
1811517,3400,Kotuku Crescent,Matamata,
1841779,2112,Kotuku Crescent,Takanini,Auckland
1785763,8023,Kotuku Crescent,Woolston,Christchurch
1791808,5032,Kotuku Drive,Paraparaumu Beach,Paraparaumu
1944285,0616,Kotuku Lane,Hobsonville,Auckland
3078255,9371,Kotuku Lane,Jacks Point,Queenstown
1839783,7612,Kotuku Lane,Pegasus,
3082755,5036,Kotuku Ngutupapa Way,Waikanae,
1787273,7986,Kotuku Place,Clandeboye,Temuka
1795038,5810,Kotuku Place,Masterton,
1814649,3110,Kotuku Place,Matua,Tauranga
1821097,0920,Kotuku Place,Snells Beach,
1804187,4112,Kotuku Place,Taradale,Napier
1812198,3420,Kotuku Place,Tokoroa,
1841232,4792,Kotukuraeroa Road North,Taihape,
1841233,4793,Kotukuraeroa Road South,Taihape,
3040422,4371,Kotuku Road,"Kaimiro,Korito","Kaimiro,New Plymouth"
1798105,0294,Kotuku Road,Kerikeri,
1803727,4294,Kotuku Road,Maraetotara,Waimarama
1791405,7300,Kotuku Road,South Bay,Kaikoura
1827204,2682,Kotuku Road,Waiuku,
1803399,4120,Kotuku Street,Camberley,Hastings
1796999,4501,Kotuku Street,Castlecliff,Whanganui
1792226,5022,Kotuku Street,Elsdon,Porirua
1814400,3204,Kotuku Street,Frankton,Hamilton
1841715,7608,Kotuku Street,Lincoln,
3055935,0110,Kotuku Street,Maunu,Whangarei
1810347,3015,Kotuku Street,Springfield,Rotorua
1811900,3320,Kotuku Street,Te Aroha,
1823411,0610,Kotuku Street,Te Atatu Peninsula,Auckland
1806242,3620,Kotuku Street,Whangamata,
1801218,4730,Kotukutuku Road,Hunterville,
3080146,3720,Kotukutuku Street,Ngaruawahia,
3084869,2120,Kotuku Way,Pukekohe,Pukekohe
3083054,3710,Kotuku Way,Te Kauwhata,
1779961,7010,Kotuku Way,The Wood,Nelson
1784067,8042,Kotzikas Place,Wigram,Christchurch
3077966,2018,Kouka Road,Beachlands,Auckland
3082448,5010,Koukou Place,Normandale,Lower Hutt
3023156,4791,Koukoupo Road,Rangiwaea,Taihape
1810348,3015,Kouma Place,Fairy Springs,Rotorua
1841364,7371,Koura Bay Drive,Hapuku,Kaikoura
1803077,4198,Koura Crescent,Mahia,
3046251,3288,Koura Drive,"Burbush,Horotiu,Te Kowhai",Hamilton
1838190,7400,Koura Drive,Rangiora,
3078758,0932,Koura Drive,Red Beach,
3079853,7010,Koura Road,Atawhai,Nelson
3084250,2019,Koura Road,Flat Bush,Auckland
1837574,2016,Kouras Place,Flat Bush,Auckland
1797448,4822,Koura Street,Tangimoana,
1800727,3334,Koura Street,Turangi,
3080662,3289,Kourataki Road,"Avalon,Baverstock",Hamilton
1821114,0985,Kourataki Road,Leigh,
1837325,0473,Koutu Beach Road,Opononi,
1820119,0473,Koutu Loop Road,"Opononi,Whirinaki",
1808630,3177,Koutunui Road,Athenree,Waihi Beach
1820118,0473,Koutu Point Road,Opononi,
3055662,3010,Koutu Road,"Kawaha Point,Koutu",Rotorua
1796431,3990,Kouturoa East Road,Retaruke,Owhango
1796430,3990,Kouturoa West Road,Retaruke,Owhango
1838463,0473,Koutu Terrace,Opononi,
1808641,3114,Kowai Grove,Omokoroa,
1779786,7410,Kowai Place,Amberley,
1786119,7481,Kowai River Road,Amberley,
1780497,7681,Kowai River Road,Springfield,
1779101,7472,Kowai Road,Ashley Forest,Loburn
1780513,7681,Kowai Road,Springfield,
1787021,7481,Kowai Street,Leithfield,
3082585,2018,Kowaitau Avenue,Beachlands,Auckland
1802969,4182,Kowaro Roadway,Te Haroto,Napier
3080012,3210,Kowaro Street,Rototuna North,Hamilton
1788208,7011,Kowhai Avenue,Annesbrook,Nelson
1792640,5018,Kowhai Avenue,Ebdentown,Upper Hutt
1809752,3120,Kowhai Avenue,Edgecumbe,
1776410,9810,Kowhai Avenue,"Hargest,Windsor",Invercargill
1827200,2473,Kowhai Avenue,Kaiaua,
1820218,0405,Kowhai Avenue,Kaikohe,
1832295,2022,Kowhai Avenue,Mangere Bridge,Auckland
1806243,3592,Kowhai Avenue,Matarangi,Whitianga
1815104,3300,Kowhai Avenue,Morrinsville,
1809393,3025,Kowhai Avenue,Murupara,
3038579,4410,Kowhai Avenue,"Palmerston North,Takaro",Palmerston North
1821111,0986,Kowhai Avenue,Point Wells,
1785317,7400,Kowhai Avenue,Rangiora,
1809952,3910,Kowhai Avenue,Te Kuiti,
1808680,3119,Kowhai Avenue,Te Puke,
1806218,4815,Kowhai Court,Foxton Beach,Foxton
1813501,3700,Kowhai Court,Huntly,
1808631,3129,Kowhai Court,Katikati,
1817688,5512,Kowhai Court,Otaki,
1789497,7120,Kowhai Crescent,Motueka,
1796656,4625,Kowhai Crescent,Ohakune,
1819820,0200,Kowhai Crescent,Paihia,
1791706,7194,Kowhai Crescent,Rai Valley,
1856094,3874,Kowhai Crescent,Waikeria,Te Awamutu
1840380,3434,Kowhai Drive,Cambridge,
1780399,7510,Kowhai Drive,Darfield,
1801378,3381,Kowhai Drive,Kuratau,Turangi
3031263,7572,Kowhai Drive,Lake Coleridge,
1791298,7204,Kowhai Drive,Renwick,
1806244,3581,Kowhai Drive,Te Kouma,Coromandel
1771479,9305,Kowhai Drive,Wanaka,
3022247,3491,Kowhai Extension Road,Kinleith,Tokoroa
3018528,7373,Kowhai Ford Road,"Inland Road,Kaikoura Flat",Kaikoura
3078211,3800,Kowhai Glen,Te Awamutu,
1779411,7520,Kowhai Grove,Akaroa,
1795477,5710,Kowhai Grove,Featherston,
3084789,0230,Kowhai Grove,Kerikeri,Kerikeri
1801657,5032,Kowhai Grove,Raumati Beach,Paraparaumu
1801682,5036,Kowhai Grove,Waikanae,
1839735,4625,Kowhai Heights,Ohakune,
1778189,9818,Kowhai Lane,Halfmoon Bay / Oban,Stewart Island
1840319,3924,Kowhai Lane,Manunui,Taumarunui
1797186,4500,Kowhainui Drive,Otamatea,Whanganui
3079574,3988,Kowhainui Rise,Taharoa,
3021430,0110,Kowhai Park Road,Maunu,Whangarei
1835120,9310,Kowhai Place,Cromwell,
3083724,9710,Kowhai Place,East Gore,Gore
1817396,4322,Kowhai Place,Eltham,
1795033,5810,Kowhai Place,Lansdowne,Masterton
1840459,9412,Kowhai Place,Otematata,
1797873,4910,Kowhai Place,Pahiatua,
1827375,2120,Kowhai Place,Pukekohe,
1812120,3411,Kowhai Place,Putaruru,
1811385,3710,Kowhai Place,Te Kauwhata,
1812195,3420,Kowhai Place,Tokoroa,
1806245,3583,Kowhai Place,Tuateawa,Coromandel
1804439,4200,Kowhai Place,Waipukurau,
1803078,4108,Kowhai Place,Wairoa,
1827580,2123,Kowhai Place,Waiuku,
3077568,0573,Kowhai Ridge Road,Kaiwaka,
1804188,4110,Kowhai Road,Bluff Hill,Napier
3030285,0630,Kowhai Road,"Campbells Bay,Mairangi Bay,Sunnynook",Auckland
1794582,6012,Kowhai Road,Kelburn,Wellington
3030283,3491,Kowhai Road,Kinleith,Tokoroa
3030286,0992,Kowhai Road,"Orewa,Wainui",
1815234,3330,Kowhai Road,Rainbow Point,Taupo
1823422,0618,Kowhai Road,Whenuapai,Auckland
3062361,9073,Kowhai Spur Road,"Berwick,Waipori Falls",Outram
1810437,3979,Kowhai Street,Aria,
1801664,4501,Kowhai Street,Castlecliff,Whanganui
1792875,5013,Kowhai Street,Eastbourne,Lower Hutt
1800955,4702,Kowhai Street,Feilding,
1810350,3010,Kowhai Street,Glenholme,Rotorua
1807346,3204,Kowhai Street,Hamilton Lake,Hamilton
1817455,4610,Kowhai Street,Hawera,
1820701,0800,Kowhai Street,Helensville,
1781756,7910,Kowhai Street,Highfield,Timaru
1816502,4330,Kowhai Street,Inglewood,
1773714,9271,Kowhai Street,Kaka Point,
1790103,7805,Kowhai Street,Karoro,Greymouth
1798367,5510,Kowhai Street,Levin,
1803395,4120,Kowhai Street,Mahora,Hastings
1812521,3421,Kowhai Street,Mangakino,
1801665,4586,Kowhai Street,Mangamahu,Whanganui
1811519,3400,Kowhai Street,Matamata,
1825009,1024,Kowhai Street,Mount Eden,Auckland
1793186,5011,Kowhai Street,Naenae,Lower Hutt
3060848,3121,Kowhai Street,Ohope,
1801450,5512,Kowhai Street,Otaki Beach,Otaki
1785115,7430,Kowhai Street,Oxford,
1772034,9022,Kowhai Street,Ravensbourne,Dunedin
1816619,4312,Kowhai Street,Strandon,New Plymouth
1822493,0622,Kowhai Street,Takapuna,Auckland
1788867,7096,Kowhai Street,Tapawera,Wakefield
1808940,3112,Kowhai Street,Tauranga South,Tauranga
1793522,5028,Kowhai Street,Tawa,Wellington
1802179,4010,Kowhai Street,Te Hapara,Gisborne
1798271,4474,Kowhai Street,Tokomaru,Palmerston North
1832061,2121,Kowhai Street,Tuakau,
1800313,5014,Kowhai Street,Wainuiomata,Lower Hutt
1815130,3310,Kowhai Street,Waitoa,
1809756,3120,Kowhai Street,Whakatane,
1836574,2121,Kowhai Street West,Tuakau,
1821096,0985,Kowhai Terrace,Leigh,
3025064,8022,Kowhai Terrace,Saint Martins,Christchurch
3029204,0991,Kowhai Valley Track,Great Barrier Island (Aotea Island),
1806253,0910,Kowhai View,Warkworth,
1840205,4625,Kowhai Way,Ohakune,
3080574,2578,Kowharu Road,Karaka,Papakura
1789951,7183,Kowhatu Grove,Pohara,Takaka
1825545,1061,Kowhatu Road,One Tree Hill,Auckland
1782259,7977,Kowhatu Road,Waihaorunga,Waimate
1820117,0492,Kowhitikaru Road,Panguru,
3037451,0118,Kowi Lakes Drive,One Tree Point,Whangarei
3014018,0981,Kraack Road,Dome Forest,Warkworth
3014019,0981,Kraack Road,Dome Forest,Warkworth
1789725,7120,Krammer Street,Motueka,
3078213,0810,Kriletich Drive,Kumeu,
1807347,3204,Krippner Place,Dinsdale,Hamilton
1821110,0994,Krippner Road,"Puhoi,Tahekeroa",Warkworth
1794579,6035,Krishna Way,Khandallah,Wellington
1812520,3330,Krissell Place,Acacia Bay,Taupo
1830245,0632,Kristin Lane,Albany,Auckland
1842797,5573,Kristin Place,Manakau,
1842384,8025,Kruger Road,Halswell,Christchurch
1777466,9779,Kruger Street,Balfour,
1800999,4476,Krull Street,Awahuri,Palmerston North
1794577,6021,Krull Street,Vogeltown,Wellington
1784450,8051,Kruse Place,Redwood,Christchurch
1832822,2019,Ksenia Drive,Flat Bush,Auckland
3083825,0614,Kuaha Road,Massey,Auckland
1783142,8062,Kuaka Crescent,Bromley,Christchurch
1982529,0505,Kuaka Crescent,Mangawhai,
1841003,2112,Kuaka Drive,Takanini,Auckland
3008961,0118,Kuaka Grove,One Tree Point,Whangarei
3080075,3198,Kuaka Lane,Waiotahe,Opotiki
1796998,4501,Kuaka Place,Castlecliff,Whanganui
1822887,0600,Kuaka Place,New Lynn,Auckland
3082844,3114,Kuaka Rise,Omokoroa,
1831752,1081,Kuaka Road,Oneroa,Waiheke Island
3084756,7011,Kuaka Way,Nelson Airport,Nelson
3081130,3118,Kuakua Close,Papamoa Beach,Papamoa
3032227,3592,Kuaotunu Wharekaho Road,"Kuaotunu,Kuaotunu West,Wharekaho",Whitianga
1951095,0810,Kuawa Drive,Kumeu,
3078032,0230,Kuching Lane,Kerikeri,
1814037,3510,Kudu Drive,Whitianga,
1828788,2023,Kudu Road,Otara,Auckland
3084337,2113,Kueke Street,Karaka,Papakura
3082089,0932,Kueo Lane,Wainui,
1842234,2113,Kuhanui Drive,Karaka,Papakura
1838755,4195,Kuha Pa Road,Tuai,Wairoa
1800714,3381,Kuharua Place,Omori,Turangi
2005732,0932,Kuhu Way,Silverdale,
1840233,7178,Kuia Drive,Kaiuma Bay,Havelock
3083797,3218,Kuia Way,Temple View,Hamilton
3080463,3112,Kuihi Street,Poike,Tauranga
3080963,0932,Kuinga Street,Wainui,
1933735,7120,Kuini Place,Motueka,
1810351,3010,Kuirau Street,Rotorua,
1838198,3330,Kuiwai Drive,Rainbow Point,Taupo
3079036,3210,Kukari Close,Flagstaff,Hamilton
1808629,3176,Kuka Road,Te Puna,Tauranga
1805068,4198,Kuku Avenue,Mahia,
3078757,0932,Kuku Avenue,Red Beach,
1798274,5570,Kuku Beach Road,Kuku,
1798277,5570,Kuku East Road,Kuku,
3054091,3198,Kukumoa Key,Waiotahe,Opotiki
1826452,0178,Kukunui Road,Springfield,Whangarei
1792641,5018,Kukupa Grove,Heretaunga,Upper Hutt
3083594,0630,Kukupa Lane,Long Bay,Auckland
1829770,0173,Kukupa Place,Matapouri,Whangarei
1786054,7583,Kukupa Place,Pigeon Bay,
1832574,0612,Kukupa Road,Sunnyvale,Auckland
1812192,3420,Kuku Place,Tokoroa,
3083899,2577,Kuku Road,Drury,
1797710,4884,Kuku Road,Pohangina,Ashhurst
1816237,3995,Kuku Street,Matiere,
1816235,3926,Kuku Street,Ohura,
1809953,3912,Kuku Street,Piopio,
1799057,4720,Kuku Street,Taihape,
1801472,4822,Kuku Street,Tangimoana,
1805623,4102,Kuku Street,Te Awanga,
3079627,2110,Kukutai Lane,Papakura,
1797046,4573,Kukuta Road,Okoia,Whanganui
1798276,5575,Kukutauaki Road,Koputaroa,Shannon
1982808,0932,Kukuwai Avenue,Red Beach,
1808938,3110,Kulim Avenue,Otumoetai,Tauranga
1785490,8042,Kumai Place,Sockburn,Christchurch
3083203,2578,Kumanu Drive,Karaka,Papakura
1986401,0600,Kumanu Lane,Blockhouse Bay,Auckland
3084024,0985,Kumarahou Place,Warkworth,
1790105,,Kumara-Inchbonnie Road,"Dunganville,Hohonu,Inchbonnie,Kumara,Marsden","Arnold Valley,Greymouth,Inchbonnie,Kumara"
3021856,,Kumara Junction Highway,"Arahura Valley,Awatuna,Hokitika,Kumara Junction,Seaview","Greymouth,Hokitika"
1838578,8042,Kumara Place,Hei Hei,Christchurch
1818365,3979,Kumara Road,Aria,
1839760,7612,Kumara Street,Pegasus,
1781586,7903,Kumara Terrace,Pleasant Point,
1832927,2105,Kumar Place,The Gardens,Auckland
3084572,2585,Kumekume Way,Clevedon,
1800672,5772,Kumenga Road,Western Lake,Featherston
3079475,0810,Kumerahou Street,Kumeu,
1793419,5014,Kumeroa Grove,Wainuiomata,Lower Hutt
1804909,4997,Kumeroa Road,Kumeroa,
1804759,4972,Kumeti Road,"Dannevirke,Ruahine Forest Park",
1808640,3171,Kumikumi Road,Lower Kaimai,Tauranga
1820437,0486,Kumi Road,Awanui,
1803079,4196,Kumi Road,Whakaki,
1795035,5810,Kummer Crescent,Masterton,
1798869,4577,Kumuiti Road,Fordell,
3082404,2578,Kumukumu Close,Karaka,Papakura
3079656,0630,Kumukumu Road,Long Bay,Auckland
3080831,3710,Kumukumu Way,Te Kauwhata,
3053806,7282,Kumutoto Bay,"Kaipapa Bay,Kumutoto Bay,Queen Charlotte Sound / Totaranui",Marlborough Sounds
1794562,6011,Kumutoto Lane,Wellington Central,Wellington
1820440,0486,Kunicich Road,Awanui,
1793277,0632,Kunzea Place,Greenhithe,Auckland
3049037,4390,Kupara Road,"Ratapiko,Tarata",
1818404,0629,Kupari Place,Totara Vale,Auckland
1818863,0281,Kupa Road,Motatau,Kawakawa
1805582,4189,Kupa Road,Raupunga,
3078759,0932,Kuparu Lane,Red Beach,
1831888,0116,Kuparu Place,Ruakaka,
1851092,2103,Kuparu Street,Weymouth,Auckland
1808793,3116,Kupe Avenue,Mount Maunganui,
1823418,0618,Kupe Avenue,Whenuapai,Auckland
3045847,7193,Kupe Bay,"Kupe Bay,Rangitoto ki te Tonga / D'Urville Island",Marlborough Sounds
1795334,5713,Kupe Drive,Carterton,
1838688,3510,Kupe Drive,Whitianga,
3085063,2113,Kupenga Close,Drury,Drury
3080867,0626,Kupenga Lane,Beach Haven,Auckland
3079103,0986,Kupenga Lane,Point Wells,
1797001,4501,Kupe Place,Castlecliff,Whanganui
1801318,4412,Kupe Place,Highbury,Palmerston North
3071072,4820,Kupe Place,Linton,Palmerston North
1815976,3200,Kupe Place,Pukete,Hamilton
1812200,3420,Kupe Place,Tokoroa,
1820444,0420,Kupe Road,Coopers Beach,
3017948,4394,Kupe Road,"Huiroa,Te Popo",Stratford
3017947,7193,Kupe Road,Rangitoto ki te Tonga / D'Urville Island,Marlborough Sounds
1787853,7825,Kupe Street,Carters Beach,Westport
1794564,6021,Kupe Street,Hataitai,Wellington
1824470,1071,Kupe Street,Orakei,Auckland
1809755,3120,Kupe Street,Whakatane,
3079637,4410,Kura Avenue,Hokowhitu,Palmerston North
3081416,2110,Kura Crescent,Papakura,
2008892,3384,Kurahaupo Road,Tahorakuri Forest,Reporoa
1831526,1071,Kurahaupo Street,Orakei,Auckland
3084416,8061,Kura Lane,Aranui,Christchurch
1816807,8971,Kura Lane,Diamond Harbour,
1806246,3500,Kuranui Eureka Road,Thames,
1825884,1062,Kuranui Place,Otahuhu,Auckland
3045099,3372,Kuranui Road,"Morrinsville,Motumaoho",Morrinsville
1806247,3500,Kuranui Street,Thames,
1819813,0294,Kurapari Road,Kerikeri,
1812860,4392,Kurapete Road,Aotuhia,Stratford
1835566,9024,Kura Place,Mosgiel,
1829643,0630,Kura Place,Torbay,Auckland
1841119,3330,Kurapoto Lane,Rainbow Point,Taupo
1838358,0283,Kura Road,Karetu,
1816244,3996,Kura Road,Matiere,
1817725,4597,Kura Road,Patea,
3083514,8025,Kurashiki Street,Halswell,Christchurch
3033723,4310,Kura Street,"Brooklands,Welbourn",New Plymouth
1802453,4075,Kura Street,Matawai,
3033722,5022,Kura Street,Titahi Bay,Porirua
1813356,3289,Kura Street,Whatawhata,Hamilton
1809954,3912,Kuratahi Street,Piopio,
1812338,3381,Kuratau Hydro Road,Kuratau,Turangi
1800352,,Kuratawhiti Street,"Greytown,Woodside",Greytown
1770416,9492,Kuriheka Road,"Island Stream,Maheno,Mount Stalker","Herbert,Oamaru"
1828786,2105,Kuripaka Crescent,The Gardens,Auckland
1774819,9305,Kuri Place,Wanaka,
1800590,5810,Kuripuni Street,"Kuripuni,Masterton",Masterton
1805531,4182,Kuriwao Road,Te Haroto,Napier
3013125,9584,Kuriwao Siding Road,"Clinton,Kuriwao",Clinton
1828765,2010,Kurnell Drive,Botany Downs,Auckland
1770635,9494,Kurow Creek Road,Kurow,
3005863,,Kurow-Duntroon Road,"Duntroon,Kurow,Otekaieke,Otiake,Waikaura","Duntroon,Kurow"
1800003,5019,Kurth Crescent,Silverstream,Upper Hutt
1828769,2023,Kurt Lane,Otara,Auckland
3034381,3989,Kurua Road,"National Park,Retaruke","National Park,Owhango"
1812528,3330,Kurupae Road,Hilltop,Taupo
3006628,3187,Kuru Place,Papamoa,
3054061,,Kururau Road,"Aukopae,Taumarunui",Taumarunui
1810352,3015,Kusabs Road,Mangakakahi,Rotorua
1833220,0986,Kutai Lane,Omaha,
1795903,3334,Kutai Street,Turangi,
1841410,3198,Kutarere Cemetery Road,Kutarere,Waiotahe Valley
1796444,3198,Kutarere Wharf Road,"Kutarere,Ohiwa Harbour",Waiotahe Valley
1839797,7612,Kuta Street,Pegasus,
1811825,3474,Kutia Road,Waharoa,
3081335,2112,Kutukutu Street,Takanini,Auckland
3084835,3218,Kuukuuwai Lane,Temple View,Hamilton
2003054,2103,Kuurae Crescent,Weymouth,Auckland
1801041,4996,Kuware Road,Tiraumea,Eketahuna
1774917,9016,Kyber Pass,North Dunedin,Dunedin
1815934,3177,Kyber Pass,Tahawai,
1786446,7903,Kyber Street,Pleasant Point,
1787764,8042,Kydd Lane,Hornby,Christchurch
1815378,3920,Kydd Lane,Taumarunui,
3045137,9397,Kyeburn-Hyde Road,"Hyde,Kokonga,Kyeburn,Tiroiti",Kyeburn
1784462,8042,Kyeburn Place,Avonhead,Christchurch
3050331,9397,Kyeburn-Ranfurly Road,"Kyeburn,Ranfurly",
1838068,9397,Kyeburn River Road,Kyeburn,
1774767,9397,Kyeburn Station Road,Kyeburn,
3082560,9305,Kyeburn Street,Wanaka,
3067301,2010,Kyeemagh Street,"Botany Downs,Howick",Auckland
1789723,7096,Kyfuiks Road,Tapawera,Wakefield
3078623,0975,Kyla Place,Hakaru,Kaiwaka
1808679,3119,Kylemore Place,Te Puke,
3051244,7777,Kyle Road,"Dorie,Rakaia",
1822497,0632,Kyle Road,"Greenhithe,Schnapper Rock",Auckland
1804438,4281,Kyle Road,Waipukurau,
1821105,0985,Kyle Street,Leigh,
1772045,9016,Kyle Street,North Dunedin,Dunedin
1784213,8011,Kyle Street,Riccarton,Christchurch
1832573,2019,Kylie Court,Clover Park,Auckland
1815684,3289,Kylna Lane,Rotokauri,Hamilton
1783801,7630,Kynnersley Street,Kaiapoi,
