road_id,postcode,name,locality,city
3081617,5014,Laban Place,Wainuiomata,Lower Hutt
3079988,0616,La Bella Road,Hobsonville,Auckland
1805825,3116,Laburnum Glen,Mount Maunganui,
1793181,5010,Laburnum Grove,Maungaraki,Lower Hutt
1798273,5036,Laburnum Grove,Waikanae,
1824474,0600,Laburnum Road,"New Windsor,Wesley",Auckland
1789469,7183,Labyrinth Lane,Takaka,
1829538,0604,Lacebark Court,Titirangi,Auckland
1842482,3377,Lacebark Drive,Kinloch,Taupo
1839221,4472,Lacebark Drive,Linton,Palmerston North
1785580,8052,Lacebark Lane,Northcote,Christchurch
1789853,7173,Lacebark Lane,Upper Moutere,
1989712,0295,Lacebark Lane,Waipapa,
1841734,6037,Lacebark Lane,Woodridge,Wellington
1778997,8971,Lachie Griffen Rise,Governors Bay,
1837131,9382,Lachlan Avenue,Hawea Flat,Lake Hawea
1774919,9016,Lachlan Avenue,"Maori Hill,North Dunedin",Dunedin
1808794,3116,Lachlan Avenue,Mount Maunganui,
1807348,3204,Lachlan Drive,Dinsdale,Hamilton
1828284,2024,Lachlan Place,Favona,Auckland
1781754,7910,Lachlan Place,Marchwiel,Timaru
1779502,7920,Lachlan Street,Temuka,
3078898,0981,Lachlan Thompson Drive,Warkworth,
1813998,3110,La Colina Place,Bethlehem,Tauranga
1779013,8081,La Costa Lane,Mount Pleasant,Christchurch
1813999,3110,La Cuesta Close,Bethlehem,Tauranga
1813997,3110,La Cumbre Close,Bethlehem,Tauranga
3084101,7614,Lacuna Place,Rolleston,
1785315,7610,Lacy Gate Place,Woodend,
1784455,8052,Ladbrokes Place,Fendalton,Christchurch
1794568,6037,Ladbrooke Drive,Newlands,Wellington
1838215,7020,Ladbrook Lane,Richmond,
1778608,9791,Ladbrook Road,Dipton,
1825675,1081,Ladd Road,Ostend,Waiheke Island
3014003,3206,Ladeira Place,Fitzroy,Hamilton
1814000,3110,Ladera Mews,Bethlehem,Tauranga
3054545,,Ladies Mile,"Ellerslie,Remuera",Auckland
1821103,0930,Ladies Mile,Manly,Whangaparaoa
1777775,9672,Ladies Mile,Te Anau,
1789205,7197,Lady Barkly Grove,Kaiteriteri,Motueka
1777451,9782,Lady Barkly Road,Winton,
1792879,5013,Lady Bell Grove,Lowry Bay,Lower Hutt
3078725,0616,Ladybird Lane,Hobsonville,Auckland
3081456,7674,Ladybridge Drive,Rolleston,
3017007,9774,Lady Charlton Road,"Upper Charlton,Waimumu",Gore
1791300,7281,Lady Cobham Grove,Anakiwa,Linkwater
3079007,6011,Lady Elizabeth Lane,"Pipitea,Wellington Central",Wellington
3083045,9371,Lady Fayre Drive,Arrowtown,
1837516,2013,Lady Fisher Place,East Tamaki,Auckland
3080398,7615,Lady Isaac Drive,Rolleston,
1842127,8052,Lady Isaac Way,Mairehau,Christchurch
3077482,3510,Lady Jocelyn Place,Whitianga,
1829542,2010,Lady Marie Drive,Pakuranga Heights,Auckland
3080747,2112,Lady McKenzie Mews,Takanini,Auckland
1787719,8025,Lady Nugent Lane,Halswell,Christchurch
1785709,8022,Lady Polson Lane,Cashmere,Christchurch
1828273,2013,Lady Ruby Drive,East Tamaki,Auckland
1817397,4322,Ladys Mile,Eltham,
1797969,4814,Ladys Mile,Foxton,
1771223,9571,Ladysmith Road,Roxburgh East,Roxburgh
1803860,4104,Ladywood Road,Bay View,Napier
1793184,5010,Laery Street,Melling,Lower Hutt
1814401,3200,Lafferty Street,Maeroa,Hamilton
3079660,7604,La Fontaine Place,Prebbleton,
1790482,7884,La Fontaine Road,Harihari,
3083136,9382,Lafranchi Lane,Cardrona,Wanaka
1784449,8051,Lagan Street,Belfast,Christchurch
1776247,9814,Lagan Street,Bluff,
1792229,5026,Lagden Street,Camborne,Porirua
1780800,7700,Lagmhor Road,Tinwald,Ashburton
1942899,0632,Lagonda Rise,Oteha,Auckland
1771789,9305,Lagoon Avenue,Albert Town,Wanaka
1777778,9672,Lagoon Creek Road,"Hillside,The Key","Manapouri,Te Anau"
1838476,7971,Lagoon Drive,Normanby,Timaru
1825883,1072,Lagoon Drive,Panmure,Auckland
1795550,5782,Lagoon Hill Road,Tuturumuri,Martinborough
1808937,3112,Lagoon Place,Poike,Tauranga
1810354,3096,Lagoon Road,Hamurana,
3051627,7805,Lagoon Road,Paroa,Greymouth
3051628,7220,Lagoon Road,"Picton,Shakespeare Bay",Picton
1797349,4774,Lagoon Road,Rangiwahia,Kimbolton
1821113,0874,Lagoon Road,Woodhill Forest,South Head
1788861,7183,Lagoon Street,Torrent Bay,Takaka
1840824,9382,Lagoon Valley Road,Hawea Flat,Lake Hawea
1830157,0930,Lagoon View,Gulf Harbour,Whangaparaoa
1829982,0986,Lagoon Way,Omaha,
1823417,0618,Lagoon Way,West Harbour,Auckland
3078669,7020,Lago Way,Richmond,
1787684,8052,Laguna Gardens,Shirley,Christchurch
1813581,3118,Laguna Key,Papamoa Beach,Papamoa
3017979,0930,Laguna Place,Matakatia,Whangaparaoa
1803080,4108,Lahore Street,Wairoa,
1832765,2019,Laidlaw Way,East Tamaki,Auckland
1794578,6012,Laidlaw Way,Karori,Wellington
1787320,7482,Laidmore Road,Broomfield,
1821104,0985,Laika Avenue,Ti Point,Leigh
3084737,0814,Laine Tipi Avenue,Westgate,Auckland
1804931,4130,Laing Cove,Havelock North,
1783829,8022,Laing Crescent,Heathcote Valley,Christchurch
1831332,0604,Laingfield Terrace,Laingholm,Auckland
3024084,0604,Laingholm Drive,"Laingholm,Titirangi",Auckland
1800800,4826,Laing Lane,Waiouru,
1808944,3110,Laing Place,Otumoetai,Tauranga
1829751,0604,Laingrange Place,Laingholm,Auckland
1771330,9391,Laing Road,Earnscleugh,Alexandra
1827201,2580,Laing Road,Karaka,Papakura
1828276,2012,Laings Road,Bucklands Beach,Auckland
1793179,5010,Laings Road,"Hutt Central,Woburn",Lower Hutt
1787804,7775,Laings Road,Tinwald,Ashburton
1772033,9012,Laing Street,Caversham,Dunedin
1775690,9024,Laing Street,Mosgiel,
1772864,9023,Laing Street,Port Chalmers,Dunedin
1840475,3800,Laird Place,Te Awamutu,
1780659,7618,Laird Place,West Melton,
1797002,4501,Laird Street,Castlecliff,Whanganui
3041816,7274,Laird Street,Witherlea,Blenheim
1805965,3920,Lairdvale Road,Taumarunui,
1837237,7999,Lake Alexandrina Road,Tekapo,Lake Tekapo
1837236,7999,Lake Alexandrina South Road,Tekapo,Lake Tekapo
3061501,4894,Lake Alice Road,Lake Alice,Bulls
3000368,3481,Lake Arapuni Road,"Arapuni,Waotu",Putaruru
1790410,7881,Lake Arthur Road,Kokatahi,
1774852,9300,Lake Avenue,Frankton,Queenstown
1841977,8083,Lakebridge Place,Parklands,Christchurch
1790764,,Lake Brunner Road,"Inchbonnie,Jacksons,Moana","Inchbonnie,Moana"
3080692,8053,Lake Bryndwr Lane,Burnside,Christchurch
1813601,3579,Lake Court,Pauanui,
1807350,3204,Lake Crescent,Hamilton Lake,Hamilton
1788527,7110,Lake Crescent,Takaka,
3083480,3330,LakeCrest Avenue,"Richmond Heights,Wharewaka",Taupo
3063858,3204,Lake Domain Drive,"Frankton,Hamilton Lake",Hamilton
1795548,5771,Lake Domain Road,Lake Reserve,Featherston
1839479,2113,Lake Drive,Karaka,Papakura
1842804,0112,Lake Drive,Tikipunga,Whangarei
1771693,9300,Lake Esplanade,Queenstown,
1795549,,Lake Ferry Road,"Dyerville,Lake Ferry,Martinborough,Pirinoa","Dyerville,Featherston,Martinborough,Pirinoa"
3077771,9793,Lakefield Close,Kingston,
3081740,3010,Lakefront Drive,"Ohinemutu,Rotorua",Rotorua
1775783,9600,Lakefront Drive,Te Anau,
3078533,9383,Lakefront Terrace,Northburn,Cromwell
3000774,9382,Lake Hawea-Albert Town Road,Albert Town,Wanaka
3004619,9371,Lake Hayes-Arrow Junction Highway,"Arrow Junction,Arrowtown,Lake Hayes","Arrowtown,Queenstown"
3022957,7373,Lake Hills Road,Inland Road,Kaikoura
3072234,7774,Lake Hood Drive,Huntingdon,Ashburton
3025757,7020,Lakehouse Crescent,Richmond,
3023942,7881,Lake Kaniere Road,"Blue Spur,Kaniere,Kokatahi","Hokitika,Kokatahi"
3069852,7901,Lakeland Avenue,Twizel,
3077412,0472,Lakeland Lane,Pakaraka,Moerewa
1785599,7683,Lakelands Road,Leeston,
1838887,0192,Lakelands Road,Parua Bay,
1841198,7886,Lake Matheson Road,Fox Glacier,
1791766,4410,Lakemba Mews,Terrace End,Palmerston North
3084053,9382,Lake McKay Drive,Luggate,Wanaka
1815951,3377,Lakemere Way,Kinloch,Taupo
1777773,9682,Lake Monowai Road,"Blackmount,Fiordland National Park,Monowai","Fiordland National Park,Otautau"
3083576,0486,Lake Ngatu Road,Awanui,
3010128,,Lake Ohau Road,"Hopkins Valley,Lake Ohau,Omarama","Omarama,Twizel"
1820449,0483,Lake Ohia Road,Lake Ohia,Karikari Peninsula
1810355,3074,Lake Okataina Road,Lake Okataina,Rotorua
1770085,9572,Lake Onslow Road,"Lake Onslow,Teviot",Roxburgh
1826449,0112,Lake Ora Road,Te Kamo,Whangarei
1833392,,Lake Panorama Drive,"Henderson,Henderson Valley",Auckland
1842382,0622,Lake Pupuke Drive,Takapuna,Auckland
1785054,0632,Lakeridge Close,Northcross,Auckland
1815958,3330,Lakeridge Close,Rangatira Park,Taupo
3007576,9371,Lakeridge Road,Ben Lomond,Queenstown
1822131,,Lake Road,"Belmont,Devonport,Hauraki,Takapuna",Auckland
1773560,9073,Lake Road,Clarendon,Milton
1807351,3204,Lake Road,Frankton,Hamilton
3070647,,Lake Road,"Frasertown,Te Urewera,Tuai","Te Urewera,Wairoa"
1771695,9382,Lake Road,Glendhu Bay,Wanaka
1771692,9372,Lake Road,Glenorchy,
1797564,4891,Lake Road,Himatangi,
3070656,3791,Lake Road,"Horsham Downs,Taupiri","Hamilton,Taupiri"
1819810,0475,Lake Road,"Kaikohe,Okaihau",
1820442,0486,Lake Road,"Kaimaumau,Waiharara",Awanui
1820272,0410,Lake Road,Kaitaia,
1807927,3889,Lake Road,Kawhia,
3070652,3010,Lake Road,"Koutu,Mangakakahi,Ohinemutu,Rotorua",Rotorua
1777454,9871,Lake Road,Longbush,Invercargill
1789875,7895,Lake Road,Lower Buller Gorge,Westport
1812515,3421,Lake Road,Mangakino,
3070642,7072,Lake Road,"Nelson Lakes National Park,St. Arnaud",
3078123,0627,Lake Road,"Northcote,Northcote Point",Auckland
1813114,3883,Lake Road,Ohaupo,
1812036,3484,Lake Road,Okoroire,Tirau
1801935,4072,Lake Road,"Patutahi,Waituhi",Gisborne
1802498,4189,Lake Road,Putere,Raupunga
1830932,0975,Lake Road,Te Arai,Wellsford
1805713,4274,Lake Road,Tikokino,
1820142,0376,Lake Road,Waipoua,Aranga
3070645,4282,Lake Road,Waipukurau,
1807928,3877,Lake Road,Wharepapa South,Te Awamutu
1780235,7683,Lake Road South,Leeston,
3043731,3989,Lake Rotoaira Road,"Otukou,Rangipo,Tongariro,Tongariro Forest Park","Tongariro Forest Park,Turangi"
1810357,3074,Lake Rotokawau Road,Tikitere,Rotorua
1810358,3074,Lake Rotoma Road,Lake Rotoma,Rotorua
1835452,3112,Lakes Boulevard,"Pyes Pa,Tauriko",Tauranga
3048774,9371,Lakeshore Drive,Drift Bay,Queenstown
1782004,7999,Lakeside Drive,Lake Tekapo,
1818453,0931,Lakeside Drive,Orewa,
1827843,2113,Lakeside Drive,Pahurehure,Papakura
1839838,7612,Lakeside Drive,Pegasus,
3004406,3772,Lakeside Lane,Rangiriri,Te Kauwhata
2016637,0171,Lakeside Park Road,Ruakaka,
3077942,8051,Lakeside Place,Harewood,Christchurch
1780181,7683,Lakeside Ridge Road,Leeston,
1773521,9281,Lakeside Road,"Crichton,Kaitangata,Lovells Flat","Kaitangata,Milton"
1774468,9586,Lakeside Road,Hinahina,Owaka
1771690,9305,Lakeside Road,Wanaka,
1840237,3114,Lakeside Terrace,Omokoroa,
1789885,7892,Lakeside Terrace,Westport,
1799736,5024,Lakeside Villas,Whitby,Porirua
1798670,4592,Lakes Road,Mangawhio,Waverley
1796655,4691,Lakes Road,Ohakune,
1785911,7775,Lakes Road,Ruapuna,Ashburton
1804442,4282,Lake Station Road,"Flemington,Wanstead","Flemington,Waipukurau"
1812746,3434,Lake Street,Cambridge,
1776556,9812,Lake Street,Clifton,Invercargill
1774506,9679,Lake Street,Fiordland National Park,
1778860,9679,Lake Street,Manapouri,
1771688,9300,Lake Street,Queenstown,
1804408,4203,Lake Street,Takapau,
3046660,7385,Lake Sumner Road,"Lake Sumner National Park,Masons Flat","Hawarden,Lake Sumner National Park"
3077941,8051,Lakes Way,Harewood,Christchurch
1812527,3330,Lake Terrace,"Hilltop,Rainbow Point,Taupo,Two Mile Bay,Waipahihi,Wharewaka",Taupo
1786169,7591,Lake Terrace Road,"Birdlings Flat,Little River",Little River
3044524,,Lake Terrace Road,"Burwood,Shirley",Christchurch
3070034,7276,Lake Timara Road West,"Hawkesbury,Waihopai Valley","Renwick,Waihopai Valley"
1801349,5032,Lake View Court,Paraparaumu,
1840370,4815,Lakeview Drive,Foxton Beach,Foxton
1814135,3494,Lake View Drive,Karapiro,Cambridge
1987017,0573,Lakeview Lane,Mangawhai,
1784865,8025,Lakeview Place,Halswell,Christchurch
3083667,3421,Lakeview Place,Mangakino,
1809750,3120,Lakeview Place,Whakatane,
1791543,7272,Lake View Place,Fairhall,
3012542,9412,Lake View Place,"Omarama,Otematata",
1836787,3112,Lakeview Quay,Pyes Pa,Tauranga
1831168,0622,Lake View Road,Takapuna,Auckland
1804446,4200,Lake View Road,Waipukurau,
3083718,3710,Lakeview Street,Te Kauwhata,
1775608,9073,Lake View Street,Waihola,Milton
1838722,9310,Lakeview Terrace,Cromwell,
1810864,3700,Lakeview Terrace,Huntly,
3062962,9382,Lakeview Terrace,Lake Hawea,
1838817,4112,Lakeview Terrace,Taradale,Napier
1851017,7774,Lake View Terrace,Huntingdon,Ashburton
1790104,7875,Lake View Terrace,Moana,
1794580,6037,Lakewood Avenue,Churton Park,Wellington
1828258,2104,Lakewood Court,Manukau,Auckland
1784451,8083,Lakewood Drive,Burwood,Christchurch
1812523,3330,Lakewood Drive,Nukuhau,Taupo
1791857,5510,Lakewood Grove,Levin,
3081720,3434,Lakewood Lane,Cambridge,
1816613,7334,Lakewood Lane,Hanmer Springs,
3030291,7201,Lakings Road,"Springlands,Yelverton",Blenheim
1834911,6035,Lakshmi Place,Khandallah,Wellington
3079459,1072,Lalanga Lane,Wai o Taiki Bay,Auckland
1791913,4410,La Lena Grove,Fitzherbert,Palmerston North
1842967,0985,Laly Haddon Place,Matakana,
1787661,8081,La Mar Lane,Sumner,Christchurch
1804148,4112,Lamason Street,Greenmeadows,Napier
1833326,2013,Lamberg Close,East Tamaki,Auckland
1819812,0476,Lamberg Road,Okaihau,
1814402,3206,Lambert Court,Glenview,Hamilton
3056077,0176,Lambert Road,Purua,Whangarei
1809759,3192,Lambert Road,Putauaki,Kawerau
3056076,3198,Lambert Road,Waiotahe,Opotiki
1791305,7273,Lamberts Road,Kaituna,Renwick
1772710,9018,Lambert Street,Abbotsford,Dunedin
1798750,4710,Lambert Street,Marton,
1806248,3500,Lambert Street,Thames,
1806829,3610,Lambert Street,Waihi,
1820288,5032,Lambert Way,Paraparaumu,
1783132,,Lambeth Crescent,"Northcote,Redwood",Christchurch
3070840,1041,Lambeth Road,"Mount Eden,Sandringham",Auckland
3070839,6012,Lambeth Road,Northland,Wellington
1808795,3116,Lambeth Terrace,Mount Maunganui,
1773194,9074,Lamb Hill Road,"Bucklands Crossing,Hindon","Outram,Waikouaiti"
1827619,2104,Lambie Drive,"Manukau,Papatoetoe,Wiri",Auckland
3065758,7777,Lambies Road,"Dorie,Pendarves","Ashburton,Dorie"
1780862,7771,Lambies Road,"Mount Somers,Staveley",Mount Somers
3065760,7483,Lambies Road,Scargill,Waikari
2010949,8083,Lambies Street,Marshland,Christchurch
1842241,7632,Lambie Street,Leeston,
1822791,0632,Lambir Place,Fairview Heights,Auckland
3068197,5022,Lambley Road,Titahi Bay,Porirua
2000731,2110,Lamborn Drive,Papakura,
1773715,9274,Lambourne Road,"Clydevale,Greenfield",Clydevale
1826451,0174,Lamb Road,Parua Bay,
1820439,0484,Lamb Road,Pukenui,
1777462,9884,Lamb Road,Quarry Hills,Tokanui
1822488,0629,Lambrown Drive,Totara Vale,Auckland
3077730,3782,Lambrusco Street,Te Kauwhata,
1786226,7671,Lambs Road,"Darfield,Greendale",Darfield
1812745,,Lamb Street,Leamington,Cambridge
1804441,4284,Lamb Street,Porangahau,
1805326,4110,Lamb Terrace,Onekawa,Napier
3007190,6011,Lambton Quay,"Pipitea,Wellington Central",Wellington
1804149,4110,Lambton Road,Hospital Hill,Napier
1770642,9495,Lambton Street,Maheno,Oamaru
1810914,3720,Lambton Street,Ngaruawahia,
1816724,4312,Lambton Terrace,Welbourn,New Plymouth
1788870,7072,Lamb Valley Road,"Glenhope,Kahurangi National Park","Kahurangi National Park,St. Arnaud"
3082010,5018,La Mer Lane,Wallaceville,Upper Hutt
3083710,7081,La Mer View,Redwood Valley,Richmond
1813791,3118,Lamia Grove,Papamoa Beach,Papamoa
1832567,2105,Lamia Place,The Gardens,Auckland
1788526,7073,Lammas Road,Bainham,Collingwood
1788863,7020,Lammas Street,Richmond,
1774278,9074,Lammerlaw Road,Waipori,Outram
1831528,1071,Lammermoor Drive,Saint Heliers,Auckland
3081227,3493,Lammermoor Lane,Cambridge,
3080535,9305,Lammermoor Street,Wanaka,
1776571,9810,Lamond Street East,"Hargest,Rosedale",Invercargill
1776567,9810,Lamond Street West,Rosedale,Invercargill
1833018,0185,Lamont Drive,Te Kamo,Whangarei
1840954,5036,Lamont Place,Waikanae,
1784876,7985,Lamont Road,Temuka,
1807352,3210,Lamont Street,Chartwell,Hamilton
1777768,9630,Lamont Terrace,Nightcaps,
1784446,8083,Lamorna Road,Parklands,Christchurch
1780851,7730,Lampard Street,Methven,
1790409,7882,Lamplough Track,Awatuna,Hokitika
3082794,7020,Lampton Street,"Appleby,Richmond",Richmond
1931849,0820,Lam Terrace,Riverhead,
1805323,4112,Lanark Crescent,Tamatea,Napier
1791707,7271,Lanark Lane,Renwick,
1813608,3110,Lanark Place,Bethlehem,Tauranga
1824471,1072,Lanark Place,Glen Innes,Auckland
1805321,4112,Lanark Place,Tamatea,Napier
1829760,0230,Lanark Road,Kerikeri,
1773346,9230,Lanark Street,Balclutha,
1773421,9593,Lanark Street,"Gabriels Gully,Lawrence",Lawrence
1777452,9730,Lanark Street,Lumsden,
1822490,0620,Lanark Street,Milford,Auckland
1770086,9024,Lanark Street,Mosgiel,
1812193,3420,Lanark Street,Tokoroa,
1777464,9816,Lanark Street,Wallacetown,
1778937,9794,Lanark Street East,Lumsden,
1794575,6012,Lanark Way,Northland,Wellington
1841821,7671,Lancashire Lane,West Melton,
2009567,7272,Lancaster Avenue,Burleigh,Blenheim
1812199,3420,Lancaster Crescent,Tokoroa,
1976800,9018,Lancaster Lane,Waldronville,Dunedin
1774378,9372,Lancaster Place,Glenorchy,
1826304,0110,Lancaster Place,Raumanga,Whangarei
1808547,3178,Lancaster Road,Aongatete,
1821697,0626,Lancaster Road,"Beach Haven,Waitemata Harbour",Auckland
1807353,3204,Lancaster Street,Dinsdale,Hamilton
1786375,7930,Lancaster Street,Geraldine,
1770634,9410,Lancaster Street,Hampden,
3015510,4412,Lancaster Street,"Highbury,Takaro",Palmerston North
1788064,7895,Lancaster Street,Inangahua,Reefton
1794581,6012,Lancaster Street,Karori,Wellington
1776555,9812,Lancaster Street,Kingswell,Invercargill
1773964,9532,Lancaster Street,Lawrence,
1798363,5510,Lancaster Street,Levin,
1802970,4112,Lancaster Street,Tamatea,Napier
1783150,8011,Lancaster Street,Waltham,Christchurch
1804911,4920,Lancaster Street,Woodville,
1772035,9011,Lancefield Street,Balaclava,Dunedin
3079113,7608,Lancelot Close,Lincoln,
1842472,5036,Lancelot Grove,Otaihanga,Paraparaumu
1822491,0629,Lancelot Place,Glenfield,Auckland
3007778,0931,Lancelot Road,"Hatfields Beach,Orewa",Orewa
1779773,7385,Lance Road,Masons Flat,Hawarden
3081332,3118,Lance Way,Papamoa,
1842085,4702,Lancewood Avenue,Feilding,
1807354,3206,Lancewood Avenue,Melville,Hamilton
1823416,0604,Lancewood Avenue,Titirangi,Auckland
1809029,3112,Lancewood Court,Hairini,Tauranga
1770322,3400,Lancewood Court,Matamata,
1786889,8025,Lancewood Drive,Halswell,Christchurch
3025821,5024,Lancewood Grove,Ranui,Porirua
3082407,2578,Lancewood Lane,Karaka,Papakura
1973521,0875,Lancewood Lane,Kaukapakapa,
1841381,0571,Lancewood Lane,Pahi,Paparoa
3081191,3484,Lancewood Lane,Piarere,Tirau
1833816,9300,Lancewood Lane,Queenstown,
1799863,4414,Lancewood Lane,Roslyn,Palmerston North
1792094,4500,Lancewood Place,Otamatea,Whanganui
1837082,3010,Lancewood Place,Owhata,Rotorua
1818517,0110,Lancewood Rise,Onerahi,Whangarei
3034160,7910,Lancewood Terrace,Oceanview,Timaru
3078277,3377,Lancewood Way,Kinloch,Taupo
1840119,7400,Lancewood Way,Rangiora,
1789841,7010,Lancewood Way,The Wood,Nelson
1770640,9495,Lanchester Street,Maheno,Oamaru
1942901,0632,Lancia Way,Oteha,Auckland
1825004,1025,Lancing Road,Sandringham,Auckland
1791767,4810,Landau Court,Ashhurst,
1837121,7201,Landau Place,Redwoodtown,Blenheim
3061681,6021,Landcross Street,Kelburn,Wellington
1807355,3210,Landell Place,Harrowfield,Hamilton
1806255,3510,Landel Place,Whitianga,
1805139,4120,Lander Place,Flaxmere,Hastings
1817458,4672,Lander Road,Ohangai,Hawera
1803397,4120,Lander Street,Flaxmere,Hastings
1828278,2102,Landette Road,Manurewa,Auckland
1838250,0794,Landfill Access Road,Dairy Flat,
1841972,7011,Landfill Road,Bishopdale,Nelson
1794570,6023,Landfill Road,Owhiro Bay,Wellington
1797047,4501,Landguard Road,Whanganui Airport,Whanganui
1789570,7895,Landing Creek Road,Inangahua,Reefton
1830003,0632,Landing Drive,Albany,Auckland
1844118,2022,Landing Drive,Mangere,Auckland
1835453,3112,Landing Drive,Pyes Pa,Tauranga
3080233,0616,Landing Path Drive,Hobsonville,Auckland
1773713,9274,Landing Road,"Clydevale,Greenfield",Clydevale
1819811,,Landing Road,Kerikeri,
1823415,0604,Landing Road,Titirangi,Auckland
1814784,3120,Landing Road,Whakatane,
1807929,3877,Landing Road,Wharepapa South,Te Awamutu
1991266,3491,Landing Road East,Kinleith,Tokoroa
1954592,3491,Landing Road West,Kinleith,Tokoroa
1806831,3681,Landlyst Road,Waihi,
1834453,3210,Landmark Court,Huntington,Hamilton
1830213,0610,Landmark Drive,Te Atatu Peninsula,Auckland
1837934,0931,Landmark Terrace,Orewa,
1827620,2024,Landon Avenue,"Mangere East,Papatoetoe",Auckland
1842576,3281,Landon Lane,Horsham Downs,Hamilton
1829864,2120,Landon Place,Pukekohe,
3077646,4702,Landon Way,Feilding,
1827965,2014,Landop Terrace,Howick,Auckland
1787636,7614,Landor Common,Rolleston,
1807356,3214,Landor Way,Enderley,Hamilton
1834566,0173,Landowners Lane,Tutukaka,Whangarei
1823419,0612,Landow Place,Henderson,Auckland
1772037,9014,Landreth Street,Portobello,Dunedin
1822487,0632,Landsberg Way,"Mairangi Bay,Windsor Park",Auckland
1840868,7571,Landsborough Drive,Darfield,
3078915,9305,Landsborough Lane,Wanaka,
3053599,7974,Landsborough Road,"Claremont,Otipua Creek,Watlington",Timaru
1814890,3010,Landscape Drive,Ngongotaha,Rotorua
1785864,8024,Landscape Lane,Middleton,Christchurch
1837261,3800,Landscape Lane,Te Awamutu,
1809758,3120,Landscape Road,Coastlands,Whakatane
1824481,1024,Landscape Road,"Epsom,Mount Eden",Auckland
1814663,3110,Landscape Road,Otumoetai,Tauranga
1829481,2025,Landscape Road,Papatoetoe,Auckland
1827461,2120,Landscape Road,Pukekohe,
1806073,3119,Landscape Road,Te Puke,
1823421,0614,Landsdale Place,Massey,Auckland
3078403,4414,Landsdown Court,Roslyn,Palmerston North
3033170,3474,Landsdowne Road,"Richmond Downs,Waharoa",
1783831,8022,Landsdowne Terrace,Cashmere,Christchurch
1815933,6012,Landsdowne Terrace,Karori,Wellington
1825305,0600,Landseer Place,Blockhouse Bay,Auckland
1829545,0181,Lands End Road,Glenbervie Forest,Hikurangi
3032502,7582,Lands End Road,"Peraki,Wainui","French Farm,Little River"
1775323,9771,Lands End Road,Rankleburn,Gore
3000068,9771,Landslip Lane,"Pukerau,Waipahi",Gore
1774433,9771,Landslip Road,Waipahi,Gore
1774127,9771,Landslip Valley Road,"Pukerau,Waikaka Valley",Gore
1832666,0630,Landvale Court,Browns Bay,Auckland
1809033,3112,Landview Road,Parkvale,Tauranga
1806667,3121,Landward Close,Ohope,
1783152,8061,Landy Street,Dallington,Christchurch
1841617,2019,Lane Cameron Place,Flat Bush,Auckland
1793523,5028,Lane Crescent,Tawa,Wellington
3003450,9016,Lane End,Dunedin Central,Dunedin
1799257,4412,Lane Place,Awapuni,Palmerston North
1805209,4130,Lane Road,Havelock North,
1805069,4198,Lane Road,Mahia,
1830717,0272,Lane Road,Russell,
1832093,2103,Lane Road,Weymouth,Auckland
1770875,9320,Lanes Road,Bridge Hill,Alexandra
1780825,7700,Lane Street,Allenton,Ashburton
1791582,7201,Lane Street,Islington,Blenheim
1803394,4120,Lane Street,Mahora,Hastings
1775486,9400,Lane Street,South Hill,Oamaru
1792642,5018,Lane Street,Wallaceville,Upper Hutt
1783148,8023,Lane Street,Woolston,Christchurch
1787806,7775,Lane Taskers Road,Ruapuna,Ashburton
1821930,0630,Langana Avenue,Browns Bay,Auckland
1788209,7011,Langbein Street,Stoke,Nelson
3078753,5024,Langborn Way,Whitby,Porirua
1800770,5032,Langdale Avenue,Paraparaumu,
1837189,3210,Langdale Court,Huntington,Hamilton
1933721,7020,Langdale Drive,Richmond,
3027950,8081,Langdale Place,Scarborough,Christchurch
3064720,5872,Langdale Road,"Mangapakeha,Whareama",Masterton
1780661,7676,Langdales Road,"Templeton,West Melton","Christchurch,West Melton"
1807358,3206,Langdon Lane,Melville,Hamilton
1783134,,Langdons Road,"Bishopdale,Northcote,Papanui",Christchurch
1787541,7771,Langdons Road,Westerfield,Ashburton
1805968,3112,Langdon Way,Welcome Bay,Tauranga
3079400,1062,Lange Mews,Mount Wellington,Auckland
1814781,3192,Langenberger Road,Poroporo,Whakatane
1842133,7674,Langer Road,Lincoln,
1784448,8051,Langes Road,Marshland,Christchurch
1789296,7005,Langford Drive,Mapua,
1806190,0792,Langford Place,Dairy Flat,
1777467,9783,Langford Road,South Hillend,Winton
1788529,7183,Langford Road,Takaka,
1788868,7096,Langford Road,Tapawera,Wakefield
1793232,5011,Langford Street,Naenae,Lower Hutt
1784463,8051,Langham Place,Redwood,Christchurch
1772047,9010,Langham Terrace,North East Valley,Dunedin
1944143,8025,Langholme Lane,Westmorland,Christchurch
3078992,5510,Langholm Lane,Levin,
1833129,2024,Langiola Drive,Favona,Auckland
1812037,3484,Langlands Road,Okoroire,Tirau
1771224,9572,Langlea Road,Ettrick,Roxburgh
1801279,4414,Langley Avenue,Milson,Palmerston North
1781590,7982,Langley Downs Road,Hazelburn,Pleasant Point
1785868,8051,Langley Place,Belfast,Christchurch
1811079,3225,Langley Place,Raglan,
1825672,1971,Langley Road,Waiheke Island,
1818565,2104,Langley Road,Wiri,Auckland
1798606,4893,Langleys Road,"Foxton,Moutoa",Foxton
1787556,7520,Langlois Lane,Akaroa,
3084724,0118,Langman Court,"One Tree Point,Ruakaka","Ruakaka,Whangarei"
1838080,0173,Langman Lane,Matapouri,Whangarei
1781593,7985,Langridge Road,Temuka,
1777456,9791,Lang Road,Dipton West,
1790407,7881,Lang Road,Kokatahi,
1826450,0582,Lang Road,Langs Beach,Waipu
1811387,3493,Lang Road,Tauwhare,Hamilton
1786157,7891,Lang Road,Waimangaroa,Westport
1778849,9874,Lang Road,Wrights Bush,Invercargill
1839274,9872,Langshaw Road,Mill Road,Invercargill
1797741,4996,Langs Road,Pongaroa,
1799252,4414,Langston Avenue,Palmerston North,
1805938,8052,Langstone Lane,Northcote,Christchurch
1831035,0626,Langstone Place,Chatswood,Auckland
1809023,3112,Langstone Street,Welcome Bay,Tauranga
1821108,0932,Langton Road,Stanmore Bay,Whangaparaoa
3071978,5024,Langwell Place,Papakowhai,Porirua
1829750,0614,Lanham Lane,Massey,Auckland
1789421,7096,Lania Road,Golden Downs,Wakefield
1829623,0602,Lanier Place,Glendene,Auckland
1821696,0626,Lanigan Street,Birkdale,Auckland
1825674,1081,Lannan Road,Surfdale,Waiheke Island
3079058,7615,Lanner Drive,Rolleston,
1805649,4112,Lannie Place,Greenmeadows,Napier
1783137,8052,Lansbury Avenue,Strowan,Christchurch
1833790,3210,Lansbury Court,Rototuna North,Hamilton
3068377,2025,Lansdown Avenue,Papatoetoe,Auckland
1807359,3206,Lansdowne Crescent,Glenview,Hamilton
1800592,5810,Lansdowne Crescent,Lansdowne,Masterton
1777770,9822,Lansdowne Crescent,Riverton/Aparima,
1777772,9822,Lansdowne Place,Riverton/Aparima,
3066605,7081,Lansdowne Road,"Appleby,Richmond",Richmond
1815537,3129,Lansdowne Road,Katikati,
1831169,0622,Lansdowne Street,Bayswater,Auckland
1788525,7183,Lansdowne Street,Clifton,Takaka
1794991,7201,Lansdowne Street,Mayfield,Blenheim
1776563,9812,Lansdowne Street,Strathern,Invercargill
1843436,7615,Lansdowne Way,Rolleston,
1827849,2110,Lansdown Place,Papakura,
1837210,9305,Lansdown Street,Wanaka,
1832869,2016,Lansell Drive,East Tamaki Heights,Auckland
1824472,0600,Lansford Crescent,Avondale,Auckland
1818047,4312,Lantana Avenue,Bell Block,New Plymouth
1813574,3116,Lantana Place,Mount Maunganui,
1823412,0604,Lantana Road,"Green Bay,New Lynn",Auckland
1833096,0612,Lantern Court,Henderson,Auckland
1785667,8025,Lantern Lane,Halswell,Christchurch
1771359,9330,Lantern Way,Clyde,
3004842,0118,Lanyard Place,One Tree Point,Whangarei
1836760,3112,Lanyard Street,Pyes Pa,Tauranga
1799763,5024,Lanyon Place,Whitby,Porirua
1851016,7774,Lanz Vale Lane,Huntingdon,Ashburton
1784459,8052,La Perouse Place,Northcote,Christchurch
1828286,2010,La Perouse Street,Botany Downs,Auckland
3053980,9881,Lapham Road,"Tihaka,Waipango",Riverton/Aparima
2014329,1072,Lapilli Lane,Stonefields,Auckland
3080993,9391,Lapins Way,Waikerikeri,Alexandra
1820004,7805,L A Place,Greymouth,
1832199,2023,Lappington Road,Otara,Auckland
1787384,7985,Lapthorn Road,Hilton,Geraldine
1787717,8081,Lapwing Lane,Mount Pleasant,Christchurch
1829917,2121,Lapwood Road,Tuakau,
1939380,2019,Laquinta Place,Flat Bush,Auckland
1840494,0573,Lara Lane,Kaiwaka,
1784148,8042,Laramie Place,Broomfield,Christchurch
1771168,9396,Larch Avenue,Naseby,
1795241,5894,Larchbank Road,Tinui,
1771694,9300,Larch Court,Kelvin Heights,Queenstown
1774400,9320,Larch Crescent,Alexandra,
3081089,3377,Larches Lane,Kinloch,Taupo
1796239,5032,Larch Grove,Paraparaumu,
3006058,7999,Larch Grove Road,Aoraki/Mount Cook National Park,
1771689,9300,Larch Hill Place,Queenstown,
1955542,9371,Larchmont Close,Arthurs Point,Queenstown
1800133,5018,Larchmont Grove,Totara Park,Upper Hutt
1784447,8051,Larch Place,Casebrook,Christchurch
1770033,9305,Larch Place,Wanaka,
1788869,7095,Larch Road,Golden Downs,Wakefield
1786095,7395,Larch Road,Hanmer Forest,Hanmer Springs
1779032,7991,Larch Road,Kakahu,Geraldine
1824464,0600,Larch Street,Avondale,Auckland
1810359,3010,Larch Street,Victoria,Rotorua
1824467,1022,Larchwood Avenue,Westmere,Auckland
1812584,3330,Larchwood Grove,Rangatira Park,Taupo
1795492,8083,Larchwood Lane,Parklands,Christchurch
1780660,7678,Larcombs Road,Rolleston,
1810360,3010,Larcy Road,Lynmore,Rotorua
1778324,9812,Lardner Road,Tisbury,Invercargill
1839408,4120,Lardon Place,Frimley,Hastings
1792822,5018,Laredo Grove,Totara Park,Upper Hutt
1788210,7010,Larges Lane,The Brook,Nelson
1772036,9012,Largo Avenue,South Dunedin,Dunedin
1832197,2023,Largo Lane,Otara,Auckland
1774617,9400,Largo Street,Oamaru North,Oamaru
1777453,9816,Largs Street,Wallacetown,
1813794,3118,Larisa Grove,Papamoa Beach,Papamoa
1823407,0610,Larissa Avenue,Henderson,Auckland
3082104,8025,Larissa Road,Halswell,Christchurch
1784458,8042,Larkhill Place,Russley,Christchurch
1839670,9391,Larking Way,Earnscleugh,Alexandra
1829720,2014,Larkin Place,Somerville,Auckland
1791303,7271,Larkins Road,Wairau Valley,
1774921,9010,Larkins Street,Helensburgh,Dunedin
1838472,9371,Larkins Way,Arthurs Point,Queenstown
3080599,2571,Lark Lane,Whitford,
1801392,3112,Lark Place,Welcome Bay,Tauranga
1828274,2105,Larkspur Court,The Gardens,Auckland
1770271,9400,Lark Street,Oamaru,
1801251,4720,Lark Street,Taihape,
1772900,9012,Larkworthy Street,Saint Kilda,Dunedin
1838090,4675,Larlin Drive,Hawera,
1840496,4675,Larlin Heights,Hawera,
1976750,8023,Larmenier Court,Sydenham,Christchurch
1853333,0810,Larmer Drive,"Huapai,Kumeu",Kumeu
1820363,0481,Larmer Road,"Herekino Forest,Kaitaia","Kaitaia,Northland Conservation Park"
3013582,9013,Larnach Road,"Shiel Hill,Vauxhall,Waverley",Dunedin
1807360,3200,Larnach Street,St Andrews,Hamilton
1784453,8083,Larnach Street,Waimairi Beach,Christchurch
3082129,8025,Larnder Lane,Kennedys Bush,Christchurch
1828266,2010,Larne Avenue,"Pakuranga,Pakuranga Heights",Auckland
1840741,8051,Larne Place,Belfast,Christchurch
1777465,9884,Larne Street,Waikawa,Tokanui
1823410,0610,Larnoch Road,Henderson,Auckland
1829537,0627,La Roche Place,Northcote,Auckland
1823414,0604,La Rosa Street,"Green Bay,Titirangi",Auckland
1790701,7875,Larrikins Road,Dillmanstown,Greymouth
1791877,4414,Larsen Court,Roslyn,Palmerston North
1793524,5028,Larsen Crescent,Tawa,Wellington
1816366,4312,Larsen Place,Merrilands,New Plymouth
1841848,4994,Larsen Road,Eketahuna,
1825886,1072,Larsen Road,Panmure,Auckland
1804407,4274,Larsen Road,Tikokino,
1806830,3682,Larsen Road,Waikino,Waihi
1784146,8025,Larsens Road,Halswell,Christchurch
1837547,7892,Larsen Street,Cape Foulwind,
1795243,5882,Larsen Street,Mauriceville,
1828285,2025,Larsen Street,Otara,Auckland
1789579,7825,Larsen Street,Westport,
1816726,4310,La Salle Drive,Westown,New Plymouth
1818504,0794,Lascelles Drive,Dairy Flat,
1803396,4120,Lascelles Street,"Raureka,Saint Leonards",Hastings
1786724,8022,Lascelles Street,Saint Martins,Christchurch
1810361,3015,Lasenby Street,Fordlands,Rotorua
1837100,3110,La Sendero Way,Bethlehem,Tauranga
1822489,0629,Laser Place,Bayview,Auckland
1813575,3116,Lasiandra Place,Mount Maunganui,
1830318,0602,Lasque Place,Glen Eden,Auckland
1836695,7011,Lassen Place,Stoke,Nelson
1837225,8051,Lassiter Green,Northwood,Christchurch
1828255,2014,Lastel Place,Shelly Park,Auckland
1805473,4997,Last Road,Kumeroa,
3083650,4999,Latha Grove,Woodville,
1828272,2010,Latham Avenue,Pakuranga,Auckland
1807362,3204,Latham Court,Frankton,Hamilton
1840124,9710,Latham Lane,East Gore,Gore
1776120,9771,Latham Road,McNab,Gore
1792880,5013,Latham Road,York Bay,Lower Hutt
3034000,4110,Latham Street,"Maraenui,Marewa,Napier South",Napier
1804369,4210,Latham Stubbs Crescent,Waipawa,
1821109,0892,Lathrope Road,Kumeu,
1783133,8011,Latimer Square,Christchurch Central,Christchurch
1828281,2023,Latimer Street,Otara,Auckland
1843023,5012,Latimer Way,Petone,Lower Hutt
1792232,5024,Latitude Close,Whitby,Porirua
1810353,3015,La Trobe Place,Utuhina,Rotorua
1828275,2010,La Trobe Street,Pakuranga Heights,Auckland
1823420,0772,La Trobe Track,Karekare,Auckland
1810949,3720,Latta Place,Ngaruawahia,
1819379,0583,Latta Road,Whakapirau,
3080388,3173,Lattay Lane,Pyes Pa,Tauranga
1779653,7392,Latter Road,Balmoral,
1781752,7910,Latter Street,Timaru,
1831683,1023,Lauchlan Avenue,Epsom,Auckland
1824882,1060,Laud Avenue,Ellerslie,Auckland
1778443,9812,Lauder Crescent,Heidelberg,Invercargill
1777455,9774,Lauderdale Bush Road,Tuturau,
3082564,9305,Lauderdale Lane,Wanaka,
1831036,0626,Lauderdale Road,Birkdale,Auckland
3023613,5024,Lauderdale Road,"Papakowhai,Paremata",Porirua
1771141,9377,Lauder Flat Road,Becks,Omakau
3041598,9377,Lauder-Omakau Road,"Lauder,Omakau",Omakau
1776554,9812,Lauder Place,Heidelberg,Invercargill
3030116,9377,Lauder Road,"Lauder,Omakau",Omakau
1825081,1024,Lauder Road,Mount Eden,Auckland
1771140,9377,Lauder Station Road,Cambrians,Omakau
1775161,9073,Lauder Street,Berwick,Outram
1772030,9014,Lauder Street,Company Bay,Dunedin
2012851,9304,Lauder Street,Lake Hayes,Queenstown
1812582,3330,Laughton Street,Taupo,
1781755,7910,Laughton Street,Washdyke,Timaru
1771139,9332,Launceston Place,Ranfurly,
3078479,0616,Launch Road,Hobsonville,Auckland
1779033,7991,Launsborough Road,Kakahu,Geraldine
1800511,6021,Laura Avenue,Brooklyn,Wellington
1836537,3112,Laura Avenue,Ohauiti,Tauranga
1841600,5011,Laura Fergusson Grove,Fairfield,Lower Hutt
1841045,0932,Laura Jane Drive,Silverdale,
1785401,8023,Laura Kent Place,Woolston,Christchurch
1788127,7022,Laura Lane,Brightwater,
1805038,3510,Laura Place,Whitianga,
1823409,0602,Laura Street,Kelston,Auckland
1777461,9730,Laura Street,Lumsden,
3082287,2113,Laurel Drive,Rosehill,Papakura
1808551,3176,Laurel Drive,Whakamarama,
1793230,5010,Laurel Grove,Maungaraki,Lower Hutt
1828265,2104,Laurelia Place,Wiri,Auckland
1785041,7630,Laurel Lane,Kaiapoi,
1836018,8011,Laurel Lane,Linwood,Christchurch
1808638,0632,Laurel Oak Drive,Schnapper Rock,Auckland
1799250,4412,Laurel Place,Awapuni,Palmerston North
1812083,7614,Laurel Place,Rolleston,
1824991,1025,Laurel Street,Mount Albert,Auckland
1832053,2120,Laurelwood Avenue,Pukekohe,
1830087,2022,Laurence Stevens Drive,Auckland Airport,Auckland
1807363,3210,Laurence Street,"Chartwell,Queenwood",Hamilton
1809018,3112,Laurence Street,Gate Pa,Tauranga
1820999,0930,Laurence Street,Manly,Whangaparaoa
1783136,8011,Laurence Street,Waltham,Christchurch
1809020,3112,Laurence Street North,"Gate Pa,Tauranga South",Tauranga
1833117,2582,Lauren Grove,Papakura,
1830255,3400,Laurenson Drive,Matamata,
3077886,0618,Laurenson Road,Hobsonville,Auckland
3083877,2124,Laurenson Street,Paerata,Pukekohe
1804156,4112,Laurent Place,Greenmeadows,Napier
1794566,6021,Laurent Place,Kingston,Wellington
1795057,5810,Laurent Place,Kuripuni,Masterton
3020257,3493,Laurent Road,"Cambridge,Pukemoremore","Cambridge,Hamilton"
1817456,4610,Laurent VC Street,Hawera,
3019168,2025,Laureston Avenue,Papatoetoe,Auckland
1789983,7010,Lauria Way,Maitai,Nelson
1832122,2110,Laurie Avenue,Papakura,
1824473,1052,Laurie Avenue,Parnell,Auckland
1829582,2584,Laurie Drive,Hunua,
1806257,3500,Laurie Lane,Thames,
1832501,0185,Lauries Drive,Kauri,
1821007,0930,Laurie Southwick Parade,Gulf Harbour,Whangaparaoa
1772040,9011,Laurie Street,Mornington,Dunedin
1830914,0932,Laurie Street,Red Beach,
1812932,3800,Laurie Street,Te Awamutu,
1822496,0620,Laurina Road,Sunnynook,Auckland
1831170,0626,Lauris Place,Birkdale,Auckland
1824460,1050,Lauriston Avenue,Remuera,Auckland
3012921,7772,Lauriston Barrhill Road,"Barrhill,Lauriston",Lauriston
1774918,9013,Lauriston Street,Andersons Bay,Dunedin
1815191,3420,Lauriston Street,Tokoroa,
3077852,2676,Lauti Lane,Paerata,Pukekohe
3084066,8011,Lava Lane,Christchurch Central,Christchurch
1789288,7010,Laval Heights,Washington Valley,Nelson
1784777,8042,Lavandula Crescent,Burnside,Christchurch
1825885,1060,Lavas Place,Mount Wellington,Auckland
1800512,6023,Lavaud Street,Berhampore,Wellington
1822821,0612,Lavelle Road,Henderson,Auckland
3055725,4189,Lavendale Road,Mohaka,Wairoa
1836991,0632,Lavender Close,Fairview Heights,Auckland
3078849,4310,Lavender Close,Spotswood,New Plymouth
3068062,1072,Lavender Court,Saint Johns,Auckland
1793183,0632,Lavender Garden Lane,Oteha,Auckland
1799715,4412,Lavender Lane,Highbury,Palmerston North
1836555,8042,Lavender Lane,Wigram,Christchurch
1813789,3118,Lavender Place,Papamoa Beach,Papamoa
3049279,3210,Lavender Way,Huntington,Hamilton
1815691,3210,Lavenham Place,Rototuna North,Hamilton
3009971,4071,Lavenham Road,"Patutahi,Waipaoa,Waituhi",Gisborne
1779405,7583,Lavericks Ridge Road,"Le Bons Bay,Okains Bay",
1779404,7583,Lavericks Road,Le Bons Bay,
1822486,0632,Lavery Place,Sunnynook,Auckland
1779943,7481,Laverys Drive,Amberley,
1831625,1025,La Veta Avenue,Mount Albert,Auckland
3079195,2019,Lavey Road,Flat Bush,Auckland
3084245,2016,Lavina Court,East Tamaki Heights,Auckland
1828280,2024,Lavinia Crescent,Mangere East,Auckland
1798270,5036,Lavinia Grove,Waikanae Beach,Waikanae
1829798,0920,Lavinia Place,Kawau Island,
3078893,3210,Lavinias Way,Chartwell,Hamilton
1798269,4474,Laward Road,Shannon,
1813903,3875,Lawbrooke Lane,Te Awamutu,
1779945,7481,Lawcocks Road,"Amberley,Balcairn",Amberley
1815076,3288,Law Crescent,Horotiu,Hamilton
1832201,2022,Lawford Place,Mangere,Auckland
1780662,7675,Lawford Road,"Rolleston,West Melton",
1784481,8081,Law Lane,Mount Pleasant,Christchurch
1775263,9775,Lawlor Road,Crossans Corner,Gore
3069403,7805,Lawlor Road,"Marsden,Paroa",Greymouth
1795988,5583,Lawlors Road,Otaki,
1814818,3910,Lawlor Street,Te Kuiti,
1824462,1071,Lawndale Place,Saint Heliers,Auckland
3027226,4180,Lawn Road,"Clive,Mangateretere","Clive,Hastings"
1819809,0475,Lawn Street,Okaihau,
1811922,3320,Lawrence Avenue,Te Aroha,
1849296,2675,Lawrence Carter Drive,Bombay,
1828283,2102,Lawrence Crescent,Hillpark,Auckland
3008175,7614,Lawrence Drive,Rolleston,
1790974,7201,Lawrence Place,Blenheim,
1832203,2023,Lawrence Place,Otara,Auckland
1802181,4010,Lawrence Place,Outer Kaiti,Gisborne
1779102,7472,Lawrence Road,"Ashley,Ashley Forest","Loburn,Rangiora"
1778804,9874,Lawrence Road,Branxholme,Invercargill
1804153,4110,Lawrence Road,Hospital Hill,Napier
3032392,9281,Lawrence Road,"Kaitangata,Stirling",
1819378,0573,Lawrence Road,"Kaiwaka,Mangawhai",
1776912,9892,Lawrence Road,Oware,Wyndham
1791302,7282,Lawrence Road,Portage,Marlborough Sounds
1775770,9774,Lawrence Road,"Te Tipua,Waitane West","Gore,Mataura"
1805752,4274,Lawrence Road,Tikokino,
1827203,2694,Lawrence Road,Tuakau,
1815452,3610,Lawrence Road,Waihi,
1803398,4122,Lawrence Street,Akina,Hastings
1774166,9384,Lawrence Street,Bannockburn,Cromwell
1776028,9710,Lawrence Street,East Gore,Gore
1791304,7100,Lawrence Street,Havelock,
1824469,1011,Lawrence Street,Herne Bay,Auckland
1772029,9011,Lawrence Street,Mornington,Dunedin
1794573,6021,Lawrence Street,Newtown,Wellington
1804506,4202,Lawrence Street,Otane,
1807930,3900,Lawrence Street,Otorohanga,
1802180,4010,Lawrence Street,Outer Kaiti,Gisborne
1809955,3910,Lawrence Street,Te Kuiti,
3014767,9593,Lawrence Waitahuna Highway,"Forsyth,Lawrence,Waitahuna",Lawrence
1827463,2120,Lawrie Avenue,Pukekohe,
1830915,0982,Lawrie Road,"Snells Beach,Warkworth",
1773195,9092,Law Road,"Allanton,East Taieri,Owhiro",Mosgiel
1811078,3296,Law Road,Raglan,
1811390,3281,Law Road,Whitikahu,Taupiri
3084429,4702,Lawry Lane,Feilding,
1808546,3171,Lawry Lane,Omanawa,
1838248,7604,Lawry Place,Prebbleton,
1807931,3873,Lawry Road,Waikeria,Te Awamutu
3032733,4310,Lawry Street,"Blagdon,Marfell,Moturoa",New Plymouth
1824883,1051,Lawry Street,Ellerslie,Auckland
1806572,9600,Lawson Burrows Crescent,Te Anau,
3078593,0614,Lawson Creek Street,Massey,Auckland
1833014,0173,Lawson Drive,Tutukaka,Whangarei
1809028,3112,Lawson Place,Hairini,Tauranga
1794572,6011,Lawson Place,Mount Victoria,Wellington
1776928,9875,Lawson Road,Awarua Wetlands,Invercargill
1788865,7096,Lawson Road,Golden Downs,Wakefield
1773558,9281,Lawson Road,Inch Clutha,Kaitangata
1819147,0372,Lawson Road,Mamaranui,Dargaville
1833601,9471,Lawson Road,Merton,Waikouaiti
3042544,4787,Lawson Street,Crofton,Marton
1797856,4910,Lawson Street,Pahiatua,
3042541,9011,Lawson Street,Roslyn,Dunedin
1783140,8023,Lawson Street,Sydenham,Christchurch
1827675,2103,Lawson Way,Weymouth,Auckland
1804151,4112,Laws Place,Pirimai,Napier
1804760,4972,Laws Road,"Dannevirke,Ruahine Forest Park",
1771138,9395,Laws Road,Wedderburn,Ranfurly
1772048,9012,Law Street,Caversham,Dunedin
1831074,0630,Law Street,Torbay,Auckland
1841071,4010,Law Street,Wainui,Gisborne
1807932,3889,Lawton Drive,Kawhia,
1799734,4775,Lawton Road,Newbury,Feilding
3072527,9013,Lawyers Head Road,"Andersons Bay,Lawyers Head",Dunedin
1833267,0985,Lax Crescent,Leigh,
1828289,2025,Laxon Avenue,"Hauraki Gulf / Tikapa Moana,Otara",Auckland
3058074,3289,Laxon Road,"Rotokauri,Whatawhata",Hamilton
1825420,1050,Laxon Terrace,"Parnell,Remuera",Auckland
3082480,7271,Laxton Lane,Renwick,
1831527,1026,Layard Street,Avondale,Auckland
1817329,4616,Layard Street,Opunake,
3066555,9810,Layard Street,"Waverley,Windsor",Invercargill
3079453,0112,Layby Lane,Te Kamo,Whangarei
3080813,0582,Layci Lane,Waipu,
1813544,3508,Laycock Road,Tairua,
3079018,3178,Layla Place,Katikati,
1842401,2120,Laylin Place,Pukekohe,
1834477,9371,Layton Lane,Lower Shotover,Queenstown
3055106,0930,Layton Road,"Manly,Stanmore Bay",Whangaparaoa
1842882,7910,Lazarette Loop,Gleniti,Timaru
1772042,9010,Lazar Street,North East Valley,Dunedin
3078121,8025,Lazarus Lane,Halswell,Christchurch
1833038,0614,Lazurite Drive,Westgate,Auckland
1836005,8051,Leabridge Mews,Harewood,Christchurch
3061449,7572,Leaches Road,"Hororata,Windwhistle",Hororata
1779767,7011,Leach Place,Enner Glynn,Nelson
1779652,7391,Leachs Road,Rotherham,
3013268,,Leach Street,New Plymouth,
1820648,0478,Leacock Road,Kaeo,
1786993,8053,Leacroft Street,Bishopdale,Christchurch
1791061,5018,Leader Lane,Upper Hutt Central,Upper Hutt
1809429,3191,Leader Road,Poroporo,Whakatane
3026148,7384,Leader Road East,"Ferniehurst,Waiau","Cheviot,Waiau"
1779651,7395,Leader Road West,Waiau,
1948495,2110,Leadership Crescent,Papakura,
1775329,9587,Leader Street,Heriot,Tapanui
3078374,8083,Leader Street,Marshland,Christchurch
1777769,9822,Leader Street,Riverton/Aparima,
1804360,7010,Leader Way,Atawhai,Nelson
1834368,8971,Leading Light Lane,Governors Bay,
1793533,5028,Leadley Lane,Tawa,Wellington
3039222,7674,Leadleys Road,"Halswell,Prebbleton","Christchurch,Prebbleton"
1843009,5024,Leadline Place,Whitby,Porirua
1793893,0612,Leafield Crescent,Henderson,Auckland
1819465,0594,Leaf Road,Matakohe,
1816839,5572,Lea Grove,Levin,
3079860,8011,League Lane,Phillipstown,Christchurch
1806258,3592,Leah Road,Wharekaho,Whitianga
1819814,0211,Leaity Street,Moerewa,
3077479,4471,Lealands Lane,Aokautere,
1821005,0930,Leal Place,Manly,Whangaparaoa
1832007,2122,Leaming Place,Clarks Beach,
1840129,3432,Leamington Mews,Leamington,Cambridge
1779690,7382,Leamington Road,Lowry Hills Range,Cheviot
1825082,1024,Leamington Road,Mount Eden,Auckland
1787478,8024,Leamington Street,Addington,Christchurch
1796967,4501,Leamington Street,Castlecliff,Whanganui
1786096,7334,Leamington Street,Hanmer Springs,
1778508,9778,Leamington Street,Waikaia,
1832494,2578,Leamy Way,Karaka,Papakura
1815462,3210,Leander Place,Flagstaff,Hamilton
1796306,4414,Leander Place,Milson,Palmerston North
1831175,0622,Leander Road,Bayswater,Auckland
1806259,3620,Leander Road,Whangamata,
1808792,3116,Leander Street,Mount Maunganui,
1783141,8052,Leander Street,Northcote,Christchurch
3077914,9305,Leaning Rock Lane,Wanaka,
1841282,9393,Leaning Rock Road,Springvale,Alexandra
1838605,5036,Leanne Way,Waikanae Beach,Waikanae
1821003,0932,Lea Place,Stanmore Bay,Whangaparaoa
1821695,0626,Learmonth Avenue,Birkenhead,Auckland
3079545,7615,Learners Road,Rolleston,
1811670,3300,Lear Street,Morrinsville,
1812893,4332,Lear Street,Stratford,
1779034,7991,Leary Road,Kakahu,Geraldine
1772049,9011,Leary Street,Kenmure,Dunedin
1824468,1072,Leaside Lane,Glen Innes,Auckland
3032274,9818,Leask Bay Road,Stewart Island/Rakiura,Stewart Island
1774766,9377,Leask Road,Becks,Omakau
3007942,9376,Leask Street,Omakau,
1770270,9400,Lea Street,Oamaru North,Oamaru
1818048,4312,Leatham Avenue,Strandon,New Plymouth
1827842,2113,Leatham Crescent,Opaheke,Papakura
1791299,7271,Leatham Road,Wairau Valley,
3081293,0230,Leatham Terrace,Kerikeri,
3079317,2402,Leathem Crescent,Pokeno,
1810362,3073,Leathers Place,Kaingaroa Forest,Murupara
1814977,3700,Leather Street,Huntly,
1803725,4171,Leatherwood Road,Kereru,Hastings
3078639,2110,Leatherwood Road,Takanini,Auckland
1828270,2103,Leaver Place,Weymouth,Auckland
1786726,8083,Leaver Terrace,"New Brighton,North New Brighton",Christchurch
1819593,7672,Leavington Close,Lincoln,
1809022,3110,Lebanon Street,Judea,Tauranga
1785808,7583,Le Bons Bay Cemetery Road,Le Bons Bay,
1779414,7583,Le Bons Bay Road,Le Bons Bay,
1787178,7583,Le Bons Valley Road,Le Bons Bay,
3035980,7777,Le Bretons Road,"Elgin,Wakanui",Ashburton
1818020,2016,Leburn Crescent,Flat Bush,Auckland
1785668,8011,Le Cascina Lane,Riccarton,Christchurch
1833340,0494,Leccino Valley Road,Mangonui,
1805207,4179,Lechlade Road,Sherenden,Hastings
3047715,9011,Leckhampton Court,"Clyde Hill,The Glen",Dunedin
1781753,7910,Leckie Street,Redruth,Timaru
3082465,3129,Lecky Lane,Katikati,
3079710,7676,Le Comte Lane,Prebbleton,
3080881,2571,Le Coz Road,Whitford,
1786481,7910,Le Cren Street,"Maori Hill,Seaview",Timaru
3070968,8083,Leda Place,North New Brighton,Christchurch
1842955,7615,Ledbury Drive,Rolleston,
1781163,7010,Ledbury Road,Atawhai,Nelson
1788871,7120,Ledger Avenue,Motueka,
1779992,7020,Ledger Close,Richmond,
1783786,8081,Ledger Lane,Mount Pleasant,Christchurch
1788212,7010,Ledger Road,Atawhai,Nelson
1780852,7776,Ledgerwoods Road,Methven,
3083135,9382,Lee Avenue,Cardrona,Wanaka
1806961,3600,Lee Avenue,Paeroa,
2014825,0892,Leebank Crescent,Riverhead,
3064817,9818,Lee Bay Road,Stewart Island/Rakiura,Stewart Island
3059802,9073,Lee Canal Road,Woodside,Outram
1785313,7400,Leech Place,Rangiora,
1826453,0193,Leech Road,Waiotira,
1773199,9073,Lee Creek Road,Momona,Mosgiel
1774141,9300,Leeds Lane,Queenstown,
1795053,5810,Leeds Place,Solway,Masterton
1805325,4112,Leeds Place,Tamatea,Napier
1790155,7201,Leeds Quay,Mayfield,Blenheim
3066334,8011,Leeds Street,"Christchurch Central,Phillipstown",Christchurch
1799246,4414,Leeds Street,Milson,Palmerston North
1807368,3216,Leeds Street,Silverdale,Hamilton
1794569,6011,Leeds Street,Te Aro,Wellington
1798870,4787,Leedstown Road,"Hunterville,Marton",
1790980,7201,Leefield Street,Blenheim,
1774072,9074,Lee Flat Road,"Lee Flat,Waipori",Outram
1831704,1023,Leek Street,Newmarket,Auckland
1784776,8051,Leeman Place,Redwood,Christchurch
1811386,3493,Lee Martin Road,Tamahere,Hamilton
1797563,4473,Leen Road,Rongotea,
1807366,3206,Lee Place,Bader,Hamilton
3081105,0505,Lee Place,Mangawhai Heads,Mangawhai
1807367,3289,Lee Road,Burbush,Hamilton
3004836,9472,Lee Road,Goodwood,Palmerston
3004839,3010,Lee Road,"Hannahs Bay,Owhata",Rotorua
1778459,9877,Lee Road,Motu Rimu,Invercargill
1803726,4179,Lee Road,Otamauri,Hastings
1804154,4112,Lee Road,Taradale,Napier
1808167,2693,Lee Road,Te Kohanga,
1809956,3985,Lees Block Road,Hangatiki,Te Kuiti
3011000,9074,Lee School Road,Lee Stream,Outram
1836174,2113,Lees Cove,Karaka,Papakura
1813194,3920,Leese Street,Taumarunui,
1789986,7871,Lees Ferry Road,Atarau,Blackball
1793420,5014,Lees Grove,Wainuiomata,Lower Hutt
1826873,2684,Lees Gully Road,Pollok,
1828257,2022,Leeson Place,Mangere,Auckland
3037395,5884,Lees Pakaraka Road,"Te Ore Ore,Te Whiti","Gladstone,Masterton"
1797565,4775,Lees Road,Feilding,
1770356,9483,Lees Road,Green Valley,Palmerston
1806260,3591,Lees Road,Hahei,Whitianga
1785318,7691,Lees Road,Kaiapoi,
1783139,8052,Lees Road,Strowan,Christchurch
1772050,9016,Lees Street,Dunedin Central,Dunedin
1776558,9810,Lees Street,Gladstone,Invercargill
3083080,0932,Lees Street,Wainui,
1780237,,Leeston and Lake Road,Leeston,
3022208,,Leeston Dunsandel Road,"Dunsandel,Leeston",
3036178,,Leeston Road,"Doyleston,Leeston,Springston",
1780824,7700,Leeston Street,Hampstead,Ashburton
3006492,7683,Leeston Taumutu Road,"Leeston,Southbridge",
3039832,9074,Lee Stream-Outram Road,"Lee Stream,Outram,Woodside",Outram
3051589,9074,Lee Stream Road,"Lee Flat,Lee Stream",Outram
1791581,7201,Lee Street,Blenheim,
1776245,9814,Lee Street,Bluff,
1796973,4501,Lee Street,Castlecliff,Whanganui
1814631,3116,Lee Street,Mount Maunganui,
1796602,4625,Lee Street,Ohakune,
1824466,1052,Lee Street,Parnell,Auckland
1780236,7602,Lee Street,Southbridge,
1808690,3119,Lee Street,Te Puke,
1814219,3510,Lee Street,Whitianga,
1783816,7495,Lees Valley Road,"Coopers Creek,Glentui,Lees Valley,Starvation Hill",Oxford
1814665,3110,Lees Way,Otumoetai,Tauranga
1852067,3187,Leet Crescent,Papamoa Beach,Papamoa
1804504,4200,Leeton Drive,Waipukurau,
1776570,9810,Leet Street,Invercargill,
3056719,7091,Lee Valley Road,"Brightwater,Lee Valley,Wairoa Valley",Brightwater
1800057,5024,Leeward Drive,Whitby,Porirua
1840178,3510,Leeward Drive,Whitianga,
3080958,0110,Leeward Terrace,Port Whangarei,Whangarei
1828267,2010,Leewood Place,Pakuranga Heights,Auckland
1786227,7510,Le Fleming Street,Darfield,
1801724,6011,Left Bank,Te Aro,Wellington
1788875,7096,Left Branch Sherry River Road,Tapawera,Wakefield
1832785,0612,Legacy Drive,Henderson,Auckland
3084384,7614,Legends Lane,Rolleston,
1813719,3875,Leger Grove,Te Awamutu,
1982815,0932,Leggett Lane,Red Beach,
1784149,7678,Leggett Road,Templeton,Christchurch
1785316,7473,Leggitts Road,Waikuku,
1780232,7683,Leggs Road,Leeston,
1803514,4130,Legorne Lane,Havelock North,
1828291,2112,Le Havre Place,Takanini,Auckland
1811391,3784,Le Heron Road,Te Hoe,Tahuna
1785314,7471,Lehmans Road,Fernside,Rangiora
1805324,4112,Leicester Avenue,Tamatea,Napier
1786725,8025,Leicester Crescent,Hoon Hay,Christchurch
1832204,2014,Leicester Parade,Somerville,Auckland
3077464,4501,Leicester Place,Springvale,Whanganui
1792234,5024,Leicester Street,Cannons Creek,Porirua
1770495,9410,Leicester Street,Hampden,
3080373,9371,Leicester Street,Jacks Point,Queenstown
1772041,9010,Leicester Street,North East Valley,Dunedin
1817679,4520,Leicester Street,Patea,
1791365,7220,Leicester Street,Picton,
1788213,7011,Leicester Street,Stoke,Nelson
1801277,4410,Leicester Street,Terrace End,Palmerston North
1818403,0629,Leiden Place,Totara Vale,Auckland
1799248,4412,Leigh Place,Awapuni,Palmerston North
1799902,5032,Leigh Place,Paraparaumu Beach,Paraparaumu
1820997,0985,Leigh Road,"Big Omaha,Leigh,Matakana,Ti Point,Whangateau","Big Omaha,Leigh,Matakana,Whangateau"
1788872,7095,Leigh Road,Foxhill,Wakefield
1786196,7677,Leighs Road,Springston,
3060942,0478,Leigh Street,Kaeo,
1822523,0629,Leigh Terrace,"Bayview,Glenfield",Auckland
1839301,5010,Leighton Avenue,Waiwhetu,Lower Hutt
1787498,8051,Leighton Place,Redwood,Christchurch
1806261,3620,Leighton Road,Whangamata,
1818866,1021,Leighton Street,Grey Lynn,Auckland
3083357,1072,Leiite Setefano Way,Point England,Auckland
1827848,2110,Leilani Place,Red Hill,Papakura
1828262,2019,Leila Place,Clover Park,Auckland
1814630,3116,Leinster Avenue,Mount Maunganui,
1796238,5032,Leinster Avenue,Raumati South,Paraparaumu
1783143,8014,Leinster Road,Merivale,Christchurch
1824463,0600,Leinster Street,New Windsor,Auckland
1780233,7608,Leinster Terrace,Lincoln,
1779246,7991,Leishman Road,Kakahu,Geraldine
1781596,7991,Leishman Street,Kakahu,Geraldine
1783144,8025,Leistrella Road,Hoon Hay,Christchurch
3038021,7183,Leisure Lane,Ligar Bay,Takaka
3082703,9384,Leitch Lane,Cromwell,
1809957,3971,Leitch Road,Mangaotaki,Piopio
3009966,8024,Leitch Street,"Somerfield,Sydenham",Christchurch
1794576,6023,Leith Avenue,Island Bay,Wellington
1772039,9016,Leithbank,North Dunedin,Dunedin
1828268,2104,Leith Court,Papatoetoe,Auckland
1790282,7805,Leith Crescent,Greymouth,
1835971,7472,Leith Drive,Loburn,
1770088,9775,Leithen Road,"Greenvale,Leithen Bush","Gore,Tapanui"
1777774,9630,Leithen Street,Nightcaps,
1793233,5011,Leithen Street,Waterloo,Lower Hutt
1785463,7481,Leithfield Road,"Balcairn,Leithfield","Amberley,Leithfield"
1774773,9500,Leitholm Place,Roxburgh,
1779162,8024,Leith Place,Spreydon,Christchurch
1812255,3420,Leith Place,Tokoroa,
1778389,9781,Leith Road,Lochiel,Winton
1817096,4374,Leith Road,Okato,
1810364,3010,Leith Road,Owhata,Rotorua
1804897,4998,Leith Road,Papatawa,Woodville
3015359,9016,Leith Street,"Dunedin Central,North Dunedin",Dunedin
3015356,4010,Leith Street,"Gisborne,Te Hapara",Gisborne
1776559,9810,Leith Street,"Glengarry,Windsor",Invercargill
1772783,9024,Leith Street,Kinmont Park,Mosgiel
1826301,0110,Leith Street,Morningside,Whangarei
1770274,9400,Leith Street,Oamaru North,Oamaru
1815307,3800,Leith Street,Te Awamutu,
1775160,9510,Leith Street,Waikouaiti,
1791483,7201,Leith Terrace,Blenheim,
1775371,9010,Leithton Close,Glenleith,Dunedin
3046085,9010,Leith Valley Road,"Glenleith,Leith Valley,Upper Waitati","Dunedin,Waitati"
3046909,9016,Leith Walk,North Dunedin,Dunedin
1821929,0630,Leith Way,Rothesay Bay,Auckland
3004469,7201,Leitrim Street,Redwoodtown,Blenheim
1774740,9310,Leitrum Street,Cromwell,
1836246,2013,Leixlep Lane,East Tamaki,Auckland
1779412,7520,Le Lievre Lane,Akaroa,
1861420,9384,Le Mans Grove,Cromwell,
1773403,9220,Leman Street,Milton,
1828288,2019,Lema Place,Clover Park,Auckland
1788214,7011,Lemari Avenue,Stoke,Nelson
1824465,1022,Lemington Road,Westmere,Auckland
1794770,6012,Lemnos Avenue,Karori,Wellington
1823571,0604,Lemnos Place,Titirangi,Auckland
3041082,0295,Lemon Grove,Waipapa,
1809027,3110,Lemon Grove Avenue,Otumoetai,Tauranga
1793827,0632,Lemon Grove Lane,Greenhithe,Auckland
1808550,3189,Lemon Road,Paengaroa,
1807369,3204,Lemon Street,Frankton,Hamilton
1816729,,Lemon Street,"New Plymouth,Strandon",New Plymouth
1800771,5512,Lemon Street,Otaki,
1818320,4310,Lemont Place,Westown,New Plymouth
1821004,0977,Lemon Tree Bay Road,Tapora,
3047837,2019,Lemon Tree Lane,Flat Bush,Auckland
1788531,7110,Lemon Tree Lane,Takaka,
3077427,7615,Lemonwood Drive,Rolleston,
1791744,5010,Lemonwood Grove,Maungaraki,Lower Hutt
3082531,3377,Lemonwood Lane,Kinloch,Taupo
1828290,2105,Lemonwood Place,The Gardens,Auckland
3082641,0178,Lemonwood Rise,Puwera,Whangarei
3078184,6037,Lemonwood Way,Woodridge,Wellington
3081559,4189,Lemuel Road,Raupunga,
3017965,9679,Lena Lane,Fiordland National Park,
1797968,4814,Lena Place,Foxton,
3082876,7614,Lenborough Drive,Rolleston,
1827462,2120,Len Brown Place,Pukekohe,
1804152,4112,Len Davis Terrace,Pirimai,Napier
1827621,2025,Lendenfeld Drive,Papatoetoe,Auckland
1822822,0612,Lendic Avenue,Henderson,Auckland
1833364,2013,Leneford Drive,East Tamaki,Auckland
1827847,2113,Len Garlick Place,Pahurehure,Papakura
1838735,8083,Len Hale Place,Parklands,Christchurch
1808689,3119,Lenihan Drive,Te Puke,
3071787,0627,Lenihan Street,"Hillcrest,Northcote",Auckland
1796968,4500,Lenihan Street,Whanganui East,Whanganui
2004370,0810,Len Ireland Drive,Kumeu,
1794776,6012,Lennel Road,Wadestown,Wellington
1988699,3800,Lennie Lane,Kihikihi,Te Awamutu
1795247,5871,Lennie Road,Opaki,
1780866,7775,Lennies Road,Lismore,Ashburton
1830917,0993,Lennon Access Road,Stillwater,Silverdale
3080074,7614,Lennon Drive,Rolleston,
1804923,4130,Lennon Grove,Havelock North,
1841327,3118,Lennon Way,Papamoa Beach,Papamoa
1836043,0632,Lennox Lane,Rosedale,Auckland
1797315,4702,Lennox Place,Feilding,
1798669,4592,Lennox Road,Waverley,
1778353,9710,Lennox Street,Gore,
1774920,9010,Lennox Street,North East Valley,Dunedin
1781587,7985,Lennox Street,Winchester,
1829729,2024,Lenore Road,Favona,Auckland
1800549,6037,Lenox Grove,Johnsonville,Wellington
3077773,0230,Lensvelt Lane,Kerikeri,
3082598,3385,Lens Way,Acacia Bay,Taupo
1807933,3889,Lentfer Road,Kawhia,
1783153,8061,Lenton Street,Aranui,Christchurch
1821008,0994,Lenzen Road,Puhoi,Warkworth
1837279,2022,Leonard Isitt Drive,Auckland Airport,Auckland
2001290,7583,Leonardo Lane,Le Bons Bay,
1814403,3204,Leonard Place,Dinsdale,Hamilton
1814664,3112,Leonard Place,Gate Pa,Tauranga
1831868,0110,Leonard Place,Onerahi,Whangarei
1828260,2023,Leonard Place,Otara,Auckland
3040725,8022,Leonard Place,Saint Martins,Christchurch
1776925,9892,Leonard Road,Glenham,Wyndham
1818867,1060,Leonard Road,Mount Wellington,Auckland
1810365,3010,Leonard Road,Ngongotaha,Rotorua
1776665,9874,Leonard Road,West Plains,Invercargill
3048196,5371,Leonards Road,Mangaroa,Upper Hutt
1790281,7805,Leonard Street,Greymouth,
1777564,9818,Leonard Street,Halfmoon Bay / Oban,Stewart Island
1830718,0210,Leonard Street,Kawakawa,
1806799,3503,Leonard Street,Ngatea,
1779648,7332,Leonard Street,Waiau,
1782261,7924,Leonard Street,Waimate,
1827576,2123,Leonard Street,Waiuku,
1794779,6037,Leona Way,Paparangi,Wellington
1824993,1025,Leone Terrace,Mount Albert,Auckland
1807370,3204,Leong Avenue,Dinsdale,Hamilton
1841817,7671,Leonie Lane,West Melton,
1783151,8061,Leonie Place,Aranui,Christchurch
1836881,1060,Leon Leicester Avenue,Mount Wellington,Auckland
1818103,4320,Leon Place,Waitara,
1839184,0179,Leons Lane,Maunu,Whangarei
1802177,4010,Leon Street,Riverdale,Gisborne
1814892,3010,Leo Place,Kawaha Point,Rotorua
1790702,7886,Leopold Street,Okarito,Whataroa
1802971,4122,Leo Street,Akina,Hastings
1784771,8051,Leo Street,Bishopdale,Christchurch
1822776,0602,Leo Street,Glen Eden,Auckland
1814536,3611,Leo Street,Waihi Beach,
3084148,5018,Leo Waikari Crescent,Wallaceville,Upper Hutt
1817841,4386,Lepper Road Lower,Inglewood,
3016575,4386,Lepper Road Upper,"Egmont Village,Inglewood,Kaimiro",
1807364,3214,Le Quesne Place,Fairfield,Hamilton
1803859,4104,Le Quesne Road,Bay View,Napier
1834912,3434,Le Quesnoy Place,Cambridge,
1787632,8051,Le Roi Way,Harewood,Christchurch
1825673,1081,Le Roy Road,Onetangi,Waiheke Island
1821698,0626,Le Roy Terrace,Birkenhead,Auckland
3007203,0110,Le Ruez Place,Maunu,Whangarei
3083315,3196,Lerwick Lane,Nukuhou,
1804158,4112,Lerwick Street,Tamatea,Napier
3006286,6023,Lerwick Terrace,"Lyall Bay,Melrose",Wellington
1822820,0612,Lesa Annis Place,Henderson,Auckland
1832990,2120,Les Fisher Place,Pukekohe,
1798272,5036,Lesley Grove,Waikanae,
1843377,8042,Lesley Keast Place,Hornby,Christchurch
1799255,4412,Leslie Avenue,Cloverlea,Palmerston North
1824994,1025,Leslie Avenue,"Morningside,Sandringham",Auckland
1810366,3015,Leslie Avenue,Western Heights,Rotorua
3079597,4130,Leslie Court,Havelock North,
1785977,8011,Leslie Hills Drive,Riccarton,Christchurch
3047114,,Leslie Hills Road,"Emu Plain,Leslie Hills,Mount Culverden","Culverden,Waiau"
1786094,7395,Leslie Pass Road,Hanmer Springs,
1807371,3206,Leslie Place,Deanwell,Hamilton
1828254,2023,Leslie Place,Otara,Auckland
1820362,0420,Leslie Road,Cable Bay,
1774073,9593,Leslie Road,"Johnston,Waitahuna",Lawrence
1826417,0178,Leslie Road,Maungakaramea,
3052885,,Leslie Road,"Ngatira,Tapapa","Mamaku,Tirau"
1817754,4678,Leslie Road,Otakeho,Hawera
1785193,7471,Leslies Road,Cust,
1791023,7178,Leslies Road,Okaramio,Havelock
1779649,7392,Leslie Street,Culverden,
1813047,3800,Leslie Street,Kihikihi,Te Awamutu
1819377,0505,Leslie Street,Mangawhai,
1815245,3330,Leslie Street,Taupo,
1784775,8041,Leslie Street,Upper Riccarton,Christchurch
1794763,6012,Leslie Street,Wadestown,Wellington
1779650,7332,Leslie Street,Waiau,
1817095,4320,Leslie Street,Waitara,
1833098,2120,Les Marston Place,Pukekohe,
1809834,3127,Les Martin Drive,Kawerau,
1782626,3986,Les Munro Place,Te Kuiti,
1772608,9011,Lesney Street,Maryhill,Dunedin
3079072,7615,Lesser Close,Rolleston,
1832854,0110,Lester Heights Drive,Woodhill,Whangarei
1784209,8011,Lester Lane,Addington,Christchurch
1832202,2023,Lester Lane,Otara,Auckland
1836595,7201,Lester Place,Witherlea,Blenheim
1841554,0616,Lester Street,Hobsonville,Auckland
3003616,7173,Les Wakefield Road,Mapua,
3084497,7676,Letelle Street,West Melton,
3077666,3210,Letford Road,Chartwell,Hamilton
1772711,9018,Lethaby Street,Abbotsford,Dunedin
1780854,7772,Lethams Road,Mitcham,Ashburton
1814404,3204,Lethborg Street,Dinsdale,Hamilton
1799731,4474,Lethbridge Lane,Tokomaru,Palmerston North
3030621,4779,Lethbridge Road,"Feilding,Halcombe",
1795987,5581,Lethbridge Road,Otaki,
3030622,3873,Lethbridge Road,"Parawera,Waikeria,Wharepuhunga","Parawera,Te Awamutu"
1771363,9383,Lethbridge Road,Tarras,Cromwell
1797316,4702,Lethbridge Street,Feilding,
1794775,6012,Lethenty Way,Karori,Wellington
3081895,8083,Letitia Street,Burwood,Christchurch
1824461,0600,Letterkenny Place,Blockhouse Bay,Auckland
1820996,0920,Lett Road,Snells Beach,
3006019,9393,Letts Gully Road,"Letts Gully,Springvale",Alexandra
1795246,5889,Letts Road,Tauweru,Masterton
1817100,4374,Lett Street,Koru,New Plymouth
1800593,5810,Lett Street,Lansdowne,Masterton
3082183,2025,Leuluai Lane,Papatoetoe,Auckland
3084185,3400,Levante Drive,Matamata,
1792235,5024,Levant Street,Cannons Creek,Porirua
1828261,2012,Levaut Place,Half Moon Bay,Auckland
3036559,4371,Levee Lane,Hurworth,New Plymouth
1829868,0632,Leveloff Road,Paremoremo,Auckland
1773397,9292,Level Road,Akatore,Milton
3066184,7975,Levels Plain Road,"Kerrytown,Levels",Timaru
3025988,7975,Levels Store Road,"Levels,Levels Valley",Timaru
1776918,9791,Level Street,Dipton,
1778829,9730,Level Street,Lumsden,
1781591,7974,Levels Valley Road,Levels Valley,Timaru
1815566,3110,Leven Close,Bethlehem,Tauranga
1839248,1060,Levene Place,Mount Wellington,Auckland
3049547,2105,Leven Lane,Totara Heights,Auckland
1779503,7920,Levens Lane,Temuka,
1776565,9810,Leven Street,"Avenal,Invercargill",Invercargill
1774616,9400,Leven Street,"Holmes Hill,South Hill",Oamaru
1781751,7910,Leven Street,Marchwiel,Timaru
1771167,9396,Leven Street,Naseby,
1770273,9400,Leven Street,Oamaru North,Oamaru
1772610,9010,Leven Street,Roslyn,Dunedin
3004234,8083,Leverett Place,North New Brighton,Christchurch
1809019,3110,Levers Road,Matua,Tauranga
1804155,4110,Lever Street,Ahuriri,Napier
1794762,6022,Leveson Street,Strathmore Park,Wellington
1821694,0626,Levesque Street,Birkdale,Auckland
1821012,0972,Levet Road,Wellsford,
1800963,4777,Levett Line,Beaconsfield,Feilding
1789908,7010,Levien Way,The Wood,Nelson
1794755,6021,Levina Avenue,Aro Valley,Wellington
1840012,8024,Levinge Lane,Hillmorton,Christchurch
1801567,5010,Levin Grove,Kelson,Lower Hutt
1779696,7310,Levin Road,Cheviot,
3027413,4893,Levin Road,Foxton,
1779692,7310,Levin Street,Cheviot,
1801009,4779,Levin Street,Halcombe,
1798278,4821,Levin Street,Shannon,
3032331,4470,Levi Place,Kelvin Grove,Palmerston North
1833704,,Levi Road,Rolleston,
1808552,3129,Levley Lane,Katikati,
1824995,1022,Levonia Street,Morningside,Auckland
1822778,0602,Levy Road,Glen Eden,Auckland
1794768,6011,Levy Street,Mount Victoria,Wellington
3077881,0800,Lewann Lane,Helensville,
1820651,0478,Lewer Road,Whangaroa,Kaeo
1794774,6012,Lewer Street,Karori,Wellington
1825531,1023,Lewin Road,"Epsom,Royal Oak",Auckland
1780857,7782,Lewins Road,Pudding Hill,Methven
1773392,9230,Lewin Street,Balclutha,
1796970,4500,Lewis Avenue,Aramoho,Whanganui
3078001,7471,Lewis Close,Rangiora,
1779695,7383,Lewis Crescent,Domett,
1842461,7614,Lewis Crescent,Rolleston,
1787159,8052,Lewisham Park,St Albans,Christchurch
3038005,2010,Lewisham Street,"Botany Downs,Highland Park",Auckland
1830024,0793,Lewis Lane,Coatesville,
1805789,4189,Lewis Lane,Raupunga,
1826325,0112,Lewis Lane,Te Kamo,Whangarei
3013160,,Lewis Pass Road,"Doubtful Range,Island Hills,Lewis Pass,Poplars Range,Tekoa Range","Hanmer Springs,Reefton"
1799256,4412,Lewis Place,Highbury,Palmerston North
1826877,2580,Lewis Road,Karaka,Papakura
1774851,9300,Lewis Road,Kelvin Heights,Queenstown
1772629,9077,Lewis Road,Lower Portobello,Dunedin
1814893,3010,Lewis Road,Lynmore,Rotorua
1832618,0475,Lewis Road,Okaihau,
1812039,3485,Lewis Road,Okoroire,Tirau
1814728,3193,Lewis Road,Otakiri,Whakatane
3043618,2682,Lewis Road,"Otaua,Waiuku",
1818868,2010,Lewis Road,Pakuranga,Auckland
1786449,7992,Lewis Road,Rangitata,Geraldine
1771362,9393,Lewis Road,Springvale,Alexandra
1787055,7495,Lewis Road,View Hill,Oxford
3039121,0600,Lewis Street,Blockhouse Bay,Auckland
1788528,7073,Lewis Street,Collingwood,
1773196,9082,Lewis Street,Deborah Bay,Port Chalmers
1778505,9875,Lewis Street,Fortrose,Tokanui
1781252,7930,Lewis Street,Geraldine,
1776557,9810,Lewis Street,"Gladstone,Windsor",Invercargill
1807373,3206,Lewis Street,Glenview,Hamilton
1776030,9710,Lewis Street,Gore,
1782369,8025,Lewis Street,Hoon Hay,Christchurch
1787976,7871,Lewis Street,Ikamatua,Reefton
1802021,4010,Lewis Street,Kaiti,Gisborne
1770506,9495,Lewis Street,Kakanui,Oamaru
1773197,9471,Lewis Street,Karitane,Waikouaiti
1786125,7891,Lewis Street,Mokihinui,Westport
1806962,3600,Lewis Street,Paeroa,
1790977,7201,Lewis Street,Redwoodtown,Blenheim
1826332,0112,Lewis Street,Te Kamo,Whangarei
1811772,3393,Lewis Street,Waihou,Te Aroha
1794754,6011,Lewisville Terrace,Thorndon,Wellington
3079117,3434,Lewis Way,Cambridge,
3044112,4112,Lewis Way,Poraiti,Napier
1990997,0810,Lewis Younie Road,Kumeu,
3025387,3118,Lewknor Drive,Papamoa Beach,Papamoa
1785855,7591,Lewthwaites Road,Little River,
1831361,0604,Lex Avenue,Green Bay,Auckland
2015696,5571,Lexie Lane,Levin,
1828269,2010,Lexington Drive,Botany Downs,Auckland
1785711,8061,Lexington Place,Shirley,Christchurch
1777580,9822,Lex Street,Riverton/Aparima,
3070208,5036,Leybourne Avenue,Waikanae,
1823695,1072,Leybourne Circle,Glen Innes,Auckland
3055604,8011,Leyden Street,"Phillipstown,Waltham",Christchurch
1772626,9013,Leyden Terrace,Andersons Bay,Dunedin
3003840,7692,Leyland Crescent,Swannanoa,
3079136,8025,Leyland Lane,Halswell,Christchurch
1803724,4102,Leyland Road,Te Awanga,
1808545,3176,Leyland Road,Whakamarama,
1805546,4110,Leyland Street,Onekawa,Napier
1781588,7982,Ley Road,Kakahu,Geraldine
1823677,1050,Leys Crescent,Remuera,Auckland
1784841,7982,Leys Estate Road,Totara Valley,Pleasant Point
1807374,3200,Leyton Place,Nawton,Hamilton
1828277,2104,Leyton Way,Manukau,Auckland
1832200,2012,Liam Place,Half Moon Bay,Auckland
1810368,3015,Liane Place,Mangakakahi,Rotorua
1794784,,Liardet Street,"Berhampore,Vogeltown",Wellington
1816727,4310,Liardet Street,New Plymouth,
3081990,0614,Liban Place,Massey,Auckland
1809645,3434,Libby Crescent,Cambridge,
3020477,7692,Libby Drive,Swannanoa,
3081688,2010,Libby Lane,Howick,Auckland
1785995,7520,Libeau Lane,Akaroa,
3033230,3210,Libeau Road,Chartwell,Hamilton
1948492,2110,Liberation Road,Papakura,
3079683,0931,Libertia Lane,Orewa,
1812258,3420,Liberton Place,Tokoroa,
1839242,2018,Liberty Crescent,Beachlands,Auckland
1838411,4414,Liberty Grove,Kelvin Grove,Palmerston North
3083132,9305,Liberty Lane,Wanaka,
3081738,3591,Liberty Place,Cooks Beach,Whitianga
3081797,3187,Liberty Street,Papamoa,
3028492,8042,Liberty Street,Wigram,Christchurch
1830319,2019,Libnai Avenue,Clover Park,Auckland
1810369,3010,Libra Place,Kawaha Point,Rotorua
1830129,0632,Library Lane,Albany,Auckland
1802835,4022,Library Road,Te Karaka,
1840222,4472,Library Road,Turitea,Palmerston North
1822777,0602,Libra Street,Glen Eden,Auckland
1830235,0272,Lichen Grove,Russell,
3013587,9382,Lichen Lane,Lake Hawea,
3018734,3074,Lichenstein Road,Okere Falls,Rotorua
1805322,4112,Lichfield Crescent,Tamatea,Napier
1809030,3110,Lichfield Grove,Bethlehem,Tauranga
1826323,0110,Lichfield Place,Raumanga,Whangarei
1813704,3482,Lichfield Road,"Lichfield,Putaruru",Putaruru
1823699,1052,Lichfield Road,Parnell,Auckland
1780681,8011,Lichfield Street,Christchurch Central,Christchurch
1788215,7011,Lichfield Street,Stoke,Nelson
1814405,3200,Lickfold Lane,Pukete,Hamilton
1823678,1026,Lidcombe Place,Avondale,Auckland
1794771,6023,Liddel Grove,Island Bay,Wellington
1814220,3691,Liddell Road,Whangamata,
1773401,9091,Liddells Road,Taieri Beach,Taieri Mouth
1801080,4814,Liddell Street,Foxton,
1822121,0627,Liddell Street,Hillcrest,Auckland
1776564,9810,Liddel Street,"Invercargill,West Invercargill",Invercargill
1832915,2110,Liddesdale Place,Papakura,
1856051,7615,Liddington Drive,Rolleston,
1780858,7775,Liddles Road,Hinds,Ashburton
1771186,9500,Liddle Street,Roxburgh,
1814027,3121,Liddon Cove,Ohope,
1832121,2110,Liddy Place,Papakura,
1777585,9610,Liemen Street,Otautau,
3077504,0932,Lien Lane,Silverdale,
3077505,0932,Lien Lane,Silverdale,
1833113,2120,Lieshout Way,Pukekohe,
3077352,2110,Lieutenant Lane,Papakura,
1794777,6023,Liffey Crescent,Island Bay,Wellington
1835295,2013,Liffey Drive,East Tamaki,Auckland
3070561,7608,Liffeyfields Drive,Lincoln,
1780117,7608,Liffey Place,Lincoln,
1842072,7608,Liffey Springs Drive,Lincoln,
1778820,9810,Liffey Street,Avenal,Invercargill
1776246,9814,Liffey Street,Bluff,
1794769,6023,Liffey Street,Island Bay,Wellington
3021859,,Liffiton Street,Gonville,Whanganui
1801278,4412,Lifford Place,Awapuni,Palmerston North
1825302,1041,Lifford Place,Mount Roskill,Auckland
1805522,3116,Liftan Place,Mount Maunganui,
3082100,7610,Ligget Place,Woodend,
1786469,8061,Liggins Street,Burwood,Christchurch
3072071,7022,Lightband Road,"Brightwater,Hope","Brightwater,Richmond"
1842906,8042,Lightbody Lane,Wigram,Christchurch
2000749,3210,Lighter Place,Flagstaff,Hamilton
1814894,3010,Lightheart Street,Glenholme,Rotorua
1785992,8971,Lighthouse Lane,Governors Bay,
1779460,7520,Lighthouse Road,Akaroa,
1804150,4110,Lighthouse Road,Bluff Hill,Napier
1786126,7892,Lighthouse Road,Cape Foulwind,
1791025,7285,Lighthouse Road,Lake Grassmere,Seddon
1826879,2684,Lighthouse Road,Manukau Heads,Awhitu
1770508,9482,Lighthouse Road,Moeraki,
1841735,7010,Lighthouse View,Atawhai,Nelson
3080635,8025,Light Mood Road,Halswell,Christchurch
1835985,8042,Lightning Close,Wigram,Christchurch
1841014,4294,Lightning Ridge View,Waimarama,
1842989,7614,Lignite Drive,Rolleston,
1810865,3700,Lignite Street,Huntly,
3083341,2579,Lignite Street,Ramarama,Drury
1839419,3434,Lilac Close,Cambridge,
1825504,1042,Lilac Grove,Hillsborough,Auckland
1801361,4412,Lilac Lane,Highbury,Palmerston North
1800264,5010,Lilac Lane,Maungaraki,Lower Hutt
3078804,0632,Lilac Lane,Oteha,Auckland
1809032,3110,Lilac Place,Otumoetai,Tauranga
1807375,3206,Lilac Street,Melville,Hamilton
1841856,7011,Lilac Way,Stoke,Nelson
1855752,5018,Lila Gillies Lane,Riverstone Terraces,Upper Hutt
1823568,0614,Lilburn Crescent,Massey,Auckland
1826882,2583,Lilburne Road,Hunua,
3078997,7610,Lilburne Street,Woodend,
1821011,0910,Lilburn Street,Warkworth,
1823696,1050,Liley Place,Remuera,Auckland
1828279,2012,Lilford Place,Half Moon Bay,Auckland
1828282,2012,Lilian Place,Farm Cove,Auckland
1801000,4473,Lilian Street,Glen Oroua,
3025136,7630,Lilian Street,Kaiapoi,
1826326,0112,Lilian Street,Te Kamo,Whangarei
1833726,2022,Lili Chen Way,Mangere Bridge,Auckland
1862669,0112,Lilicoe Lane,Kensington,Whangarei
3081451,9393,Lilico Lane,Springvale,Alexandra
1840001,2121,Lili Road,Tuakau,
3027390,9691,Lillburn Monowai Road,"Dean,Rowallan",Tuatapere
3017938,9691,Lillburn Valley Road,"Fiordland National Park,Lillburn,Rowallan","Fiordland National Park,Tuatapere"
1813438,3784,Lilley Lane,Ohinewai,Huntly
1780855,7730,Lilley Place,Methven,
1981095,0618,Lilley Terrace,Whenuapai,Auckland
1821009,0931,Lillian Place,Orewa,
1800265,5010,Lillian Street,Belmont,Lower Hutt
1784147,8025,Lillian Street,Halswell,Christchurch
3077722,7614,Lilli Lane,Rolleston,
1823692,1050,Lillington Road,Remuera,Auckland
1806263,3506,Lillis Lane,Coromandel,
1780860,7778,Lills Road,Tinwald,Ashburton
1785195,7471,Lilly Road,Fernside,Rangiora
1801066,3582,Lil Place,Whangapoua,Coromandel
1836653,2013,Lilybank Crescent,East Tamaki,Auckland
1797056,4571,Lilybank Road,Brunswick,
1782005,7999,Lilybank Road,Tekapo,Lake Tekapo
1793439,5026,Lily Close,Camborne,Porirua
3082294,0932,Lily Place,Silverdale,
1838362,0204,Lily Pond Lane,Haruru,
1811001,3225,Lily Street,Raglan,
3079700,7011,Lilyvale Crescent,Stoke,Nelson
3079562,3112,Lily Way,Pyes Pa,Tauranga
1835222,3210,Limber Hill,Flagstaff,Hamilton
3042149,8042,Limbrick Crescent,Wigram,Christchurch
1791957,4410,Limbrick Street,Terrace End,Palmerston North
1804371,4210,Limbrick Street,Waipawa,
1786280,8024,Limburg Lane,Spreydon,Christchurch
1820995,0794,Lime Access Road,Dairy Flat,
1780859,7782,Lime Avenue,Barrhill,Lauriston
1823574,0618,Limeburners Close,Hobsonville,Auckland
1826318,0110,Limeburners Street,Morningside,Whangarei
1830437,2110,Lime Crescent,Papakura,
3034570,5010,Lime Grove,Maungaraki,Lower Hutt
3078569,2019,Lime Hill Rise,Flat Bush,Auckland
3068093,9782,Limehills Browns Road,"Browns,Limehills,Otapiri",Winton
3029357,9483,Limekiln Road,Makareao,Palmerston
1773398,9291,Limekiln Street,Milburn,Milton
3077875,0230,Limelight Lane,Kerikeri,
3083433,7482,Limeloader Lane,Glasnevin,Amberley
1792236,5024,Limerick Grove,Ascot Park,Porirua
1835733,3210,Limerick Lane,Huntington,Hamilton
1774484,9300,Limerick Lane,Queenstown,
1832576,2016,Limerick Place,Dannemora,Auckland
1774727,9320,Limerick Street,Alexandra,
3079358,0110,Limerock Lane,Port Whangarei,Whangarei
1835997,8083,Limes Avenue,Parklands,Christchurch
1811302,3710,Limestone Crescent,Te Kauwhata,
3082568,0616,Limestone Drive,Hobsonville,Auckland
1815471,3900,Limestone Drive,Otorohanga,
1782262,7978,Limestone Hills Road,Waimate,
1826329,0110,Limestone Place,Raumanga,Whangarei
3072002,9683,Limestone Plains Road,"Hazletts,Isla Bank,Thornbury","Otautau,Riverton/Aparima"
3082713,4175,Limestone Rise,Roys Hill,Hastings
1797688,4774,Limestone Road,Apiti,
1786159,7892,Limestone Road,Cape Foulwind,
1779693,7381,Limestone Road,Cheviot,
1788530,7073,Limestone Road,Kaihoka,Collingwood
1781254,7991,Limestone Road,Kakahu,Geraldine
1782263,7972,Limestone Road,Maungati,Southburn
1779944,7383,Limestone Road,Motunau,Greta Valley
1804660,4971,Limestone Road,Weber,
1789987,7805,Limestone Track,Marsden,Greymouth
1786529,7987,Limestone Valley Road,Albury,
1781253,7974,Limestone Valley Road,Cave,
3009121,9812,Lime Street,"Heidelberg,Newfield",Invercargill
1770498,9492,Lime Street,Reidston,Oamaru
1785813,8051,Lime Tree Lane,Harewood,Christchurch
3027811,3285,Limeworks Loop Road,"Karamu,Te Pahu",
3034435,9782,Limeworks Road,"Browns,Thomsons Crossing",Winton
3034436,9291,Limeworks Road,"Circle Hill,Milburn",Milton
3034438,7096,Limeworks Road,"Glenhope,Kahurangi National Park","Kahurangi National Park,St. Arnaud"
3034440,0176,Limeworks Road,Purua,Whangarei
3034437,7491,Limeworks Road,"Pyramid Valley,Waikari",Waikari
1826413,0193,Limeworks Road,Waiotira,
1836052,7812,Lime Works Road,Ross,
1785158,7495,Lime Works Road,View Hill,Oxford
1822102,0632,Limmer Place,"Browns Bay,Torbay",Auckland
3068077,3288,Limmer Road,Te Kowhai,Hamilton
1828259,2105,Limond Street,Randwick Park,Auckland
1814118,3200,Limousin Place,Grandview Heights,Hamilton
1804370,4275,Limpus Road,Waipawa,
1837457,5028,Linacre Way,Tawa,Wellington
1827575,2123,Lina Place,Waiuku,
3079237,0975,Lin Avenue,Hakaru,Kaiwaka
1804368,4273,Linburn Road,Waipawa,
1793231,5011,Lincoln Avenue,"Boulcott,Epuni",Lower Hutt
1800339,5028,Lincoln Avenue,Tawa,Wellington
1830376,0630,Lincoln Close,Northcross,Auckland
1799251,4410,Lincoln Court,Hokowhitu,Palmerston North
1795676,5032,Lincoln Court,Paraparaumu,
1816562,4389,Lincoln East Road,Everett Park,Inglewood
1836540,0610,Lincoln Garden Close,Henderson,Auckland
1800058,5024,Lincoln Grove,Cannons Creek,Porirua
1793422,5014,Lincoln Grove,Wainuiomata,Lower Hutt
3084450,7608,Lincoln Grove Road,Lincoln,
1780678,8011,Lincoln Lane,Addington,Christchurch
1823569,0614,Lincoln Park Avenue,Massey,Auckland
1798526,5510,Lincoln Place,Levin,
1826324,0112,Lincoln Place,Te Kamo,Whangarei
3050211,,Lincoln Road,"Addington,Hillmorton",Christchurch
1805650,4110,Lincoln Road,Bluff Hill,Napier
1800642,5713,Lincoln Road,Carterton,
1818024,4389,Lincoln Road,"Everett Park,Huirangi,Inglewood","Inglewood,New Plymouth"
1831220,0610,Lincoln Road,Henderson,Auckland
3081982,9371,Lincoln Road,Jacks Point,Queenstown
1832198,2102,Lincoln Road,Manurewa East,Auckland
1795052,5810,Lincoln Road,Masterton,
3050210,9874,Lincoln Road,"Oporo,Spar Bush",Invercargill
3050214,4501,Lincoln Road,"Springvale,Westmere",Whanganui
1806264,3620,Lincoln Road,Whangamata,
1780114,7678,Lincoln Rolleston Road,Rolleston,
3014672,5016,Lincolnshire Road,"Horokiwi,Woodridge",Wellington
1796331,4810,Lincoln Street,Ashhurst,
1794756,6021,Lincoln Street,Brooklyn,Wellington
1778629,9792,Lincoln Street,Castlerock,Lumsden
1778628,9682,Lincoln Street,Feldwick,Otautau
3019222,3204,Lincoln Street,"Frankton,Nawton",Hamilton
1823700,1021,Lincoln Street,"Grey Lynn,Ponsonby",Auckland
1775035,9010,Lincoln Street,Halfway Bush,Dunedin
1770501,9410,Lincoln Street,Hampden,
1830641,0505,Lincoln Street,Mangawhai Heads,Mangawhai
1781948,7910,Lincoln Street,Marchwiel,Timaru
1815106,3300,Lincoln Street,Morrinsville,
1817677,4520,Lincoln Street,Patea,
1791329,7220,Lincoln Street,Picton,
1776920,9776,Lincoln Street,Riversdale,
1788216,7011,Lincoln Street,Stoke,Nelson
1773974,9522,Lincoln Street,Tapanui,
1777588,9883,Lincoln Street,Waimatuku,Riverton/Aparima
3000408,7672,Lincoln Tai Tapu Road,"Lincoln,Tai Tapu",
1773393,9230,Lincoln Terrace,Balclutha,
1809035,3112,Lincoln Terrace,Gate Pa,Tauranga
1799258,4410,Lincoln Terrace,Hokowhitu,Palmerston North
1841998,5024,Linda Burke Way,Aotea,Porirua
1840978,5036,Lindale Grove,Waikanae Beach,Waikanae
1811672,3300,Lindale Street,Morrinsville,
1828287,2023,Linda Place,Otara,Auckland
1796972,4501,Linda Place,Saint Johns Hill,Whanganui
1817097,4314,Linda Street,Oakura,
1816732,4312,Lindaver Grove,Merrilands,New Plymouth
3025652,3177,Lindemann Road,"Katikati,Tahawai",
1793534,5028,Linden Avenue,Tawa,Wellington
1793633,4182,Linden Close,Eskdale,Napier
1789222,7020,Linden Court,Richmond,
1840016,8024,Linden Grove Avenue,Hillmorton,Christchurch
1789082,7198,Linden Place,Brooklyn,Motueka
1839209,3015,Linden Place,Matipo Heights,Rotorua
1791026,7273,Lindens Road,Mount Pleasant,
1813049,3800,Linden Street,Kihikihi,Te Awamutu
1811671,3300,Linden Street,Morrinsville,
1825304,1041,Linden Street,Mount Roskill,Auckland
1801522,5010,Lindis Close,Kelson,Lower Hutt
1774660,9412,Lindis Crescent,Otematata,
3038832,,Lindisfarne Street,"Georgetown,Richmond,Turnbull Thomson Park",Invercargill
1818723,3110,Lindis Lane,Bethlehem,Tauranga
1839674,5010,Lindis Lane,Kelson,Lower Hutt
1779053,8083,Lindis Lane,New Brighton,Christchurch
3081501,0112,Lindis Lane,Te Kamo,Whangarei
3041860,9383,Lindis Pass-Tarras Road,"Lindis Pass,Lindis Valley,Tarras","Cromwell,Lindis Pass"
1829232,2022,Lindis Place,Mangere Bridge,Auckland
3007847,4112,Lindis Place,Poraiti,Napier
3080524,9305,Lindis Road,Wanaka,
1775708,9371,Lindmore Lane,Lower Shotover,Queenstown
1808549,3174,Lindoch Avenue,Te Puna,Tauranga
1785194,7400,Lindon Street,Rangiora,
1790297,7803,Lindop Street,Runanga,
1786593,8024,Lindores Street,Addington,Christchurch
1819376,0594,Lindquist Road,Ararua,Matakohe
1772620,9022,Lindsay Avenue,Ravensbourne,Dunedin
1839604,9683,Lindsay Calcium Road,Isla Bank,Otautau
1807377,3200,Lindsay Crescent,Nawton,Hamilton
1838247,7604,Lindsay Drive,Prebbleton,
1825303,1042,Lindsay Place,Hillsborough,Auckland
1778213,9679,Lindsay Place,Manapouri,
1774850,9305,Lindsay Place,Wanaka,
3001493,9011,Lindsay Road,"Balaclava,Caversham,Lookout Point",Dunedin
1785159,7495,Lindsay Road,Eyrewell,West Eyreton
1778221,9682,Lindsay Road,Feldwick,Otautau
1801082,5510,Lindsay Road,Levin,
1775201,9291,Lindsay Road,Milton,
1844655,9092,Lindsay Road,Riverside,Mosgiel
3001497,4283,Lindsay Road,"Waipawa,Waipukurau",
1806265,3620,Lindsay Road,Whangamata,
1815073,3289,Lindsay Road,Whatawhata,Hamilton
1787409,7980,Lindsays Road,Waimate,
1803533,4130,Lindsay Street,Havelock North,
1781939,7910,Lindsay Street,Marchwiel,Timaru
3082716,3300,Lindsay Street,Morrinsville,
1781549,8014,Lindsay Street,St Albans,Christchurch
1778139,9720,Lindsay Street,Winton,
1779946,7387,Lindsay Terrace,Motunau,Greta Valley
3080288,9810,Lindsay Way,Grasmere,Invercargill
1796966,4501,Lindsey Crescent,Springvale,Whanganui
1839084,0483,Lindsey Way,Karikari Peninsula,
1800976,4777,Lind Street,Kimbolton,
1780294,7608,Lindum Place,Lincoln,
1794758,6011,Lindum Terrace,"Oriental Bay,Roseneath",Wellington
1789759,7175,Lindup Road,Lower Moutere,
1781946,7910,Lindus Street,Highfield,Timaru
1820216,0474,Lindvart Street,Kaikohe,
1789884,7893,Linehams Road,Karamea,
1823479,3875,Linehan Road,Te Awamutu,
3050365,1072,Line Road,"Glen Innes,Point England",Auckland
3050364,,Line Road,"Lauriston,Methven",
3083953,9391,Lines Drive,Clyde,
3055279,,Lineside Road,"Flaxton,Kaiapoi,Rangiora","Kaiapoi,Rangiora"
1799668,6021,Lingard Grove,Brooklyn,Wellington
1780673,8052,Lingard Street,St Albans,Christchurch
1823685,1050,Lingarth Street,Remuera,Auckland
1789301,7020,Lingfield Place,Richmond,
1822525,0629,Lingfield Street,Glenfield,Auckland
1812256,3420,Lingfield Street,Tokoroa,
1822098,0630,Lingham Crescent,"Northcross,Torbay",Auckland
1789988,7804,Lingrins Terrace,Blackball,Greymouth
1829818,2103,Linicro Place,Wattle Downs,Auckland
1821000,0932,Link Crescent,Stanmore Bay,Whangaparaoa
1838076,7614,Link Drive,Rolleston,
1822522,0627,Link Drive,"Totara Vale,Wairau Valley",Auckland
1809031,3110,Linklater Avenue,Bellevue,Tauranga
1798542,4815,Linklater Avenue,Foxton Beach,Foxton
3060638,3591,Link Road,"Hahei,Whenuakite",Whitianga
1784773,8083,Link Road,Kainga,Christchurch
1810373,3010,Link Road,Lynmore,Rotorua
1774485,9593,Link Road,Manuka Creek,Lawrence
1794781,6037,Link Road,Newlands,Wellington
1779135,7495,Link Road,Okuku,
1821010,0892,Link Road,Riverhead,
1815101,3401,Link Road,Waharoa,
1815244,3384,Link Road,Wairakei,Taupo
3060640,0874,Link Road,Woodhill Forest,South Head
1814641,3116,Links Avenue,Mount Maunganui,
1816389,4312,Links Drive,Waiwhakaiho,New Plymouth
1835795,3300,Links Road,Morrinsville,
1822898,0600,Links Road,New Lynn,Auckland
1842178,9879,Links Road,Oreti Beach,Invercargill
3024211,4183,Links Road,"Pakowhai,Waiohiki",Napier
1808544,3114,Links View Drive,Omokoroa,
1836552,8083,Linkwater Way,Parklands,Christchurch
1775805,9305,Link Way,Wanaka,
1819313,0391,Linley Crescent,Te Kopuru,
1831176,0627,Linley Place,Hillcrest,Auckland
1798525,5510,Linley Place,Levin,
1809034,3110,Linley Terrace,Judea,Tauranga
1775159,9510,Linlithgow Street,Waikouaiti,
1799254,4410,Linmor Place,Terrace End,Palmerston North
3080534,9305,Linnburn Road,Wanaka,
1771005,9398,Linnburn Runs Road,"Paerau,Serpentine",Patearoa
1826420,0179,Linnell Road,Poroti,Whangarei
1818682,2024,Linnet Place,Mangere East,Auckland
1799086,4720,Linnet Street,Taihape,
1782264,7978,Linnfield Road,Hunter,Waimate
1770982,9310,Linrosa Place,Cromwell,
1823688,1072,Lintaine Place,Glen Innes,Auckland
1823687,1072,Linthorpe Crescent,Glen Innes,Auckland
1814406,3216,Linthorpe Place,Hillcrest,Hamilton
1778182,9794,Lintley District Road,Lintley,Lumsden
1778181,9794,Lintley Road,Lintley,Lumsden
1809021,3110,Linton Crescent,Matua,Tauranga
1806266,3620,Linton Crescent,Whangamata,
1797999,4472,Linton Drain Road,"Linton,Tokomaru",Palmerston North
3084446,7495,Linton Lane,"Oxford,Starvation Hill",Oxford
1812254,3420,Linton Place,Tokoroa,
1820998,0981,Linton Road,Kaipara Flats,Warkworth
1819380,0583,Linton Road,Maungaturoto,
1830642,0583,Linton Road West,Maungaturoto,
3006666,7274,Lintons Road,Seddon,
1796299,4472,Linton Station Road,Linton,Palmerston North
1790979,7201,Linton Street,Mayfield,Blenheim
1799249,4410,Linton Street,"Palmerston North,West End",Palmerston North
3083767,7630,Lintott Street,Kaiapoi,
3071434,,Linwood Avenue,"Bromley,Linwood,Woolston",Christchurch
1822521,0620,Linwood Avenue,Forrest Hill,Auckland
1824992,1025,Linwood Avenue,Mount Albert,Auckland
1796237,5032,Linwood Drive,Paraparaumu,
3022075,2580,Linwood Road,"Karaka,Kingseat","Papakura,Pukekohe"
1800544,6023,Linwood Way,Island Bay,Wellington
1792656,5018,Lion Court,Upper Hutt Central,Upper Hutt
1812061,3491,Lion Drive,Tokoroa,
1789925,7005,Lionel Place,Mapua,
1827386,2120,Lionel Sharp Place,Pukekohe,
1786594,8061,Lionel Street,Avonside,Christchurch
1778630,9822,Lionel Street,Riverton/Aparima,
1823694,1023,Lion Place,Epsom,Auckland
3079263,3187,Lion Place,Papamoa,
1803082,4108,Lion Street,Wairoa,
1834424,0174,Lion View Road,Whangarei Heads,
1794757,6011,Lipman Street,Mount Victoria,Wellington
3078319,2402,Lippiatt Crescent,Pokeno,
1831793,1062,Lippiatt Road,Otahuhu,Auckland
1829482,2025,Lipscombe Avenue,Papatoetoe,Auckland
1803534,4130,Lipscombe Crescent,Havelock North,
1826870,2473,Lipscombe Road,Kaiaua,
1811923,3320,Lipsey Street,Te Aroha,
1827844,2113,Lipton Grove,Opaheke,Papakura
1804217,4110,Lipton Place,Onekawa,Napier
1845275,0616,Liquidambar Drive,Hobsonville,Auckland
1973523,0875,Liquidambar Lane,Kaukapakapa,
3081887,8025,Liquidambar Street,Halswell,Christchurch
1939550,7604,Lira Place,Prebbleton,
1810374,3015,Lisa Crescent,Mangakakahi,Rotorua
1838997,2019,Lisa-Marie Court,Flat Bush,Auckland
1816018,3110,Lisa Place,Brookfield,Tauranga
1829234,2012,Lisa Rise,Half Moon Bay,Auckland
1781938,7910,Lisava Avenue,Seaview,Timaru
1808923,3112,Lisbon Street,Greerton,Tauranga
1772622,9012,Lisburn Avenue,Caversham,Dunedin
1823683,1071,Lisburn Avenue,Glendowie,Auckland
1773402,9220,Lisburn Street,Milton,
1778923,9884,Lisburn Street,Waikawa,Tokanui
1837796,2019,Liscooly Place,Flat Bush,Auckland
1836633,3377,Lisland Drive,Kinloch,Taupo
2008588,2120,Lisle Farm Drive,Pukekohe,
1772616,9010,Lismore Lane,Kaikorai,Dunedin
1808646,3188,Lismore Lane,Rangiuru,Te Puke
1780865,7775,Lismore Mayfield Road,"Lismore,Mayfield",Ashburton
1829216,2025,Lismore Place,Papatoetoe,Auckland
1780853,7775,Lismore School Road,"Lismore,Westerfield",Ashburton
1773938,9532,Lismore Street,Lawrence,
3012376,4312,Lismore Street,"Merrilands,Strandon",New Plymouth
1770272,9400,Lismore Street,Oamaru North,Oamaru
1780675,8011,Lismore Street,Waltham,Christchurch
1775537,9305,Lismore Street,Wanaka,
1839154,0632,Lismore Way,Oteha,Auckland
2010168,2019,Lisnoble Road,Flat Bush,Auckland
1825080,1024,Lisnoe Avenue,Mount Eden,Auckland
3077665,3210,Lissaman Place,Chartwell,Hamilton
1811301,3286,Lissette Road,Newstead,Hamilton
1833399,2013,Lissleton Drive,East Tamaki,Auckland
1840846,2019,Listack Drive,Flat Bush,Auckland
1805343,4110,Lister Crescent,Maraenui,Napier
3083131,9305,Lister Lane,Wanaka,
1804219,4110,Lister Place,Maraenui,Napier
1802022,4010,Lister Place,Outer Kaiti,Gisborne
1831381,1022,Lister Street,Point Chevalier,Auckland
1812581,3330,Liston Avenue,Hilltop,Taupo
1828033,2014,Liston Crescent,Cockle Bay,Auckland
1807378,3216,Liston Crescent,Hillcrest,Hamilton
3041567,0627,Liston Street,"Hillcrest,Northcote",Auckland
1816733,4310,List Street,Welbourn,New Plymouth
1770983,9310,Litany Street,Cromwell,
1831954,2122,Litchfield Place,Clarks Beach,
1789989,7805,Litchfield Street,Kaiata,Greymouth
1790976,7201,Litchfield Street,Redwoodtown,Blenheim
1839671,4500,Lithgow Drive,Otamatea,Whanganui
1776562,9810,Lithgow Place East,Glengarry,Invercargill
1776561,9810,Lithgow Place West,Glengarry,Invercargill
1776560,9810,Lithgow Street,"Glengarry,Hawthorndale",Invercargill
3078789,3118,Litsea Way,Papamoa Beach,Papamoa
3062019,7618,Litten Lane,West Melton,
1828032,2014,Litten Road,Cockle Bay,Auckland
1821001,0984,Littin Road,Tauhoa,Wellsford
1779463,7583,Little Akaloa Road,"Duvauchelle,Little Akaloa",
3077825,9305,Little Alpha Loop,Wanaka,
1820994,0930,Little Barrier Avenue,Manly,Whangaparaoa
1814221,3584,Little Bay Drive,Waikawau,Coromandel
1772609,9010,Littlebourne Road,Roslyn,Dunedin
1804227,4110,Little Burke Street,Hospital Hill,Napier
1803794,4184,Little Bush Road,"Patoka,Puketitiri",Napier
1793532,5028,Little Collins Street,Tawa,Wellington
1826224,0920,Little Compton Mews,Snells Beach,
3082378,5510,Little Footway,Levin,
1949559,8025,Little Gem Road,"Hornby,Wigram",Christchurch
1799955,3510,Little George Place,Whitianga,
3041056,1010,Little George Street,"Newmarket,Parnell",Auckland
1794761,6011,Little George Street,Thorndon,Wellington
3049038,0991,Little Goat Road,Great Barrier Island (Aotea Island),
1813319,3110,Little John Drive,Bellevue,Tauranga
1815417,3674,Littlejohn Lane,Karangahake,
1825156,1042,Littlejohn Street,Hillsborough,Auckland
3084405,3600,Little Kiwi Drive,Paeroa,
3070850,9396,Little Kyeburn Road,"Kyeburn,Kyeburn Diggings,Naseby","Kyeburn,Naseby"
1817843,4389,Little Lepper Road,"Inglewood,Waiongana",Inglewood
1807379,3204,Little London Lane,Hamilton Central,Hamilton
3003313,0991,Little Mahuki Island,"Hauraki Gulf / Tikapa Moana,Little Mahuki Island",
3078995,5510,Little Mallet Lane,Levin,
1839194,9382,Little Maude Drive,Lake Hawea,
3083137,9382,Little Meg Lane,Cardrona,Wanaka
1774320,9305,Little Oak Common,Wanaka,
1839729,8042,Little Oaks Drive,Yaldhurst,Christchurch
1817755,4678,Little Oeo Road,Auroa,Hawera
1773899,9271,Little Omaru Road,"Glenomaru Valley,Katea","Kaka Point,Owaka"
3078027,9382,Little Orchard Way,Wanaka,
3031115,7882,Little Paddock Road,Blue Spur,Hokitika
3010174,6011,Little Palmer Street,Aro Valley,Wellington
1778275,9600,Little Park Lane,Te Anau,
1779462,7583,Little Pigeon Bay Road,Pigeon Bay,
1794760,6011,Little Pipitea Street,Thorndon,Wellington
1789760,7196,Little Pokororo Road,Motueka Valley,Motueka
1819572,0202,Little Queen Street,Russell,
1788110,7825,Little Queen Street,Westport,
1818144,4610,Little Regent Street,Hawera,
1781262,7984,Little Road,Cave,
1804896,4997,Little Road,Kumeroa,
3009195,9491,Little Road,"Livingstone,Tokarahi",Oamaru
1816287,3920,Little Road,Taumarunui,
1782265,9498,Little Roderick Road,Station Peak,Hakataramea Valley
1807380,3216,Littler Place,Hamilton East,Hamilton
1779827,7420,Littles Drive,Waikari,
1789413,7095,Little Siberia Road,Golden Downs,Wakefield
1785681,7610,Littles Lane,Woodend,
1771696,9371,Littles Road,"Arthurs Point,Coronet Peak,Dalefield",Queenstown
1785157,7495,Littles Road,Oxford,
1799673,4481,Little Street,Bunnythorpe,Palmerston North
1812060,3410,Little Street,Tirau,
1771691,9305,Little Street,Wanaka,
1789083,7198,Little Sydney Road,Brooklyn,Motueka
3033577,4675,Little Tempsky Road,"Matapu,Okaiawa",Hawera
1840704,7071,Little Todd Valley Road,Todds Valley,Nelson
1774737,9392,Little Valley Road,"Alexandra,Little Valley",Alexandra
1817410,4673,Little Waihi Road,Hawera,
1814608,3189,Little Waihi Road,Maketu,
1786158,7893,Little Wanganui Wharf Road,Little Wanganui,Karamea
1802352,4087,Littleworth Road,"Raukumara Conservation Park,Te Araroa",
1803260,4120,Liverpool Crescent,Flaxmere,Hastings
1804226,4112,Liverpool Crescent,Tamatea,Napier
1823690,1010,Liverpool Street,Auckland Central,Auckland
1796969,4500,Liverpool Street,"College Estate,Whanganui",Whanganui
1819055,0310,Liverpool Street,Dargaville,
1775038,9016,Liverpool Street,Dunedin Central,Dunedin
1825158,1023,Liverpool Street,Epsom,Auckland
3024357,3204,Liverpool Street,"Hamilton Central,Whitiora",Hamilton
3024345,9410,Liverpool Street,Hampden,
1809835,3127,Liverpool Street,Kawerau,
1770500,9435,Liverpool Street,Kurow,
1798523,5510,Liverpool Street,Levin,
1794786,6022,Liverpool Street,Miramar,Wellington
1827921,2110,Liverpool Street,Papakura,
1791022,7274,Liverpool Street,Riverlands,
1776924,9776,Liverpool Street,Riversdale,
1795133,5810,Liverpool Street,Solway,Masterton
1791960,4412,Liverpool Street,Takaro,Palmerston North
1814819,3910,Liverpool Street,Te Kuiti,
1792657,5018,Liverpool Street,Trentham,Upper Hutt
1827503,2121,Liverpool Street,Tuakau,
1837964,7011,Liverpool Terrace,Stoke,Nelson
1837023,9305,Liverpool Way,Wanaka,
1784772,8053,Liverton Crescent,Bishopdale,Christchurch
1793006,5010,Liverton Road,Kelson,Lower Hutt
3079835,0782,Livery Lane,Taupaki,
1782266,7988,Livesys Road,Saint Andrews,
3045369,5024,Livet Place,Papakowhai,Porirua
1807381,3200,Livingstone Avenue,Nawton,Hamilton
1839418,3800,Livingstone Brothers Lane,Te Awamutu,
1954997,3118,Livingstone Drive,"Papamoa,Papamoa Beach",Papamoa
3002877,9491,Livingstone-Duntroon Road,"Duntroon,Island Cliff,Livingstone","Duntroon,Oamaru"
3079789,9300,Livingstone Lane,Frankton,Queenstown
1817678,4598,Livingstone Lane,Patea,
3083942,7400,Livingstone Place,Rangiora,
1791526,7201,Livingstone Place,Springlands,Blenheim
1803269,4120,Livingstone Road,Flaxmere,Hastings
1813050,3290,Livingstone Road,Ngahinapouri,Ohaupo
1811627,3473,Livingstone Road,Te Poi,Matamata
3061200,9781,Livingstone Road,"Thomsons Crossing,Winton",Winton
1777593,9883,Livingstone Road,Waimatuku,Riverton/Aparima
1794818,6021,Livingstone Street,Brooklyn,Wellington
3069643,8011,Livingstone Street,"Christchurch Central,Phillipstown",Christchurch
1804662,4930,Livingstone Street,Dannevirke,
1770497,9494,Livingstone Street,Duntroon,
1790352,7810,Livingstone Street,Hokitika,
1822524,0620,Livingstone Street,Milford,Auckland
1775596,9483,Livingstone Street,Nenthorn,Macraes Flat
3069642,7910,Livingstone Street,"Seaview,West End",Timaru
1801437,5889,Livingstone Street,Tauweru,Masterton
1823691,1022,Livingstone Street,Westmere,Auckland
1789086,7091,Livingston Road,Brightwater,
3036455,4671,Livingston Road,Tokaora,Hawera
1833010,0632,Living Stream Road,Albany Heights,Auckland
1772625,9011,Lixmont Street,Bradford,Dunedin
3082955,8051,Lizard Lane,Casebrook,Christchurch
1830320,2019,Lizzie Lane,Clover Park,Auckland
1840655,3283,Llennoc Lane,Matangi,Hamilton
3084308,8051,Llew Summers Street,Belfast,Christchurch
1825034,1025,Lloyd Avenue,Mount Albert,Auckland
1832440,2025,Lloyd Avenue,Papatoetoe,Auckland
3082317,3015,Lloyd Crescent,Pukehangi,Rotorua
1807382,3200,Lloyd Drive,Nawton,Hamilton
1833268,0994,Lloyd Drive,Wainui,
1802074,9382,Lloyd Dunn Avenue,Wanaka,
1798724,4010,Lloyd George Road,Wainui,Gisborne
1799774,5032,Lloyd Place,Paraparaumu Beach,Paraparaumu
1781258,7992,Lloyd Road,"Arundel,Peel Forest","Geraldine,Mount Peel"
1830916,0793,Lloyd Road,Riverhead,
1842656,7614,Lloyds Close,Rolleston,
1805010,3173,Lloyds Lane,Oropi,
1780856,7773,Lloyds Road,Coldstream,Ashburton
1797058,4572,Lloyd Street,Fordell,
1808931,3112,Lloyd Street,Parkvale,Tauranga
1782371,8052,Lloyd Street,Strowan,Christchurch
3079702,7010,Lloyds Way,Washington Valley,Nelson
1789084,7196,Lloyd Valley Road,Thorpe,Motueka
1779694,7384,Llywelyn Road,Conway Flat,Cheviot
1771807,9382,Loach Road,Hawea Flat,Lake Hawea
3078177,4720,Loader Avenue,Taihape,
3083304,8081,Loader Lane,Clifton,Christchurch
3078321,2402,Loader Place,Pokeno,
1799821,4501,Loader Place,Tawhero,Whanganui
3047874,7886,Loan Block Road,Whataroa,
1773198,9073,Loan Metal Road,Momona,Mosgiel
1794773,6037,Loasby Crescent,Newlands,Wellington
1795659,5712,Loasby Place,Greytown,
1816386,7020,Lobank Place,Richmond,
3083498,9300,Lobb Lane,Queenstown Hill,Queenstown
1816974,4310,Lobb Lane,Westown,New Plymouth
1829785,2105,Lobelia Rise,Goodwood Heights,Auckland
1808926,3112,Lobelia Terrace,Hairini,Tauranga
1785022,7472,Loburn Kowai Road,Loburn,
1785018,7472,Loburn Terrace Road,Loburn,
1785017,7472,Loburn Whiterock Road,Loburn,
1825035,1025,Locarno Avenue,Sandringham,Auckland
1780676,8023,Locarno Street,Opawa,Christchurch
1816223,3330,Lochaber Drive,Nukuhau,Taupo
1782006,7987,Lochaber Road,Fairlie,
1839937,0510,Lochalsh Drive,Waipu,
3083780,3173,Lochanvale Lane,Oropi,
3043043,9383,Lochar Road,"Mount Pisa,Queensberry",Cromwell
1839314,3112,Lochay Place,Pyes Pa,Tauranga
1798496,9372,Lochburn Avenue,Glenorchy,
3031083,3377,Locheagles Rise,Kinloch,Taupo
1784782,8041,Lochee Road,Upper Riccarton,Christchurch
1842082,9872,Lochend Close,Waihopai,Invercargill
1818574,2010,Lochend Place,Highland Park,Auckland
1772603,9013,Lochend Street,Musselburgh,Dunedin
3011080,7910,Lochern Rise,Marchwiel,Timaru
1851013,7774,Loch Green,Huntingdon,Ashburton
2019106,3377,Loch Haven Lane,Kinloch,Taupo
3080591,8025,Lochhead Avenue,Halswell,Christchurch
1780861,7730,Lochhead Crescent,Methven,
1808647,3176,Lochhead Road,Te Puna,Tauranga
3053642,7683,Lochheads Road,"Doyleston,Leeston",
1785917,7771,Lochheads Road,Mount Somers,
3022965,4120,Lochhead Street,Mahora,Hastings
3013623,9781,Lochiel Branxholme Road,"Branxholme,Lochiel,Ryal Bush","Invercargill,Winton"
3016185,9781,Lochiel Bridge Road,"Lochiel,Northope","Invercargill,Winton"
1836053,7334,Lochiel Drive,Hanmer Springs,
1832841,0112,Lochiel Place,Te Kamo,Whangarei
1794765,6035,Lochiel Road,Khandallah,Wellington
1823681,1050,Lochiel Road,Remuera,Auckland
1813048,3282,Lochiel Road,Rukuhia,Hamilton
1805070,4198,Lochiel Street,Mahia,
3044307,9273,Lochindorb Runs Road,"Clinton,Lochindorb","Balclutha,Clinton"
1808935,3112,Lochinvar Place,Hairini,Tauranga
3078473,9024,Lochinvar Street,Mosgiel,
1782949,7999,Lochinver Avenue,Lake Tekapo,
1813498,3200,Lochinver Drive,Nawton,Hamilton
3005075,2025,Lochinver Road,Papatoetoe,Auckland
3041978,9498,Loch Laird Road,"Benmore,Otematata",Otematata
1808724,3420,Lochmaben Road,Tokoroa,
3064765,7282,Lochmara Bay,Lochmara Bay,Marlborough Sounds
1796303,4472,Lochmoigh Road,Linton,Palmerston North
1786992,8051,Lochmore Street,Bishopdale,Christchurch
1837358,9304,Lochnagar Drive,Lake Hayes,Queenstown
3080273,3385,Lochnivar Lane,Acacia Bay,Taupo
3082530,3377,Lochridge Drive,Kinloch,Taupo
1841910,2402,Lochside Lane,Pokeno,
1823698,1050,Loch Street,Remuera,Auckland
3079155,8042,Loch Tanna Way,"Broomfield,Yaldhurst",Christchurch
1827384,2120,Lochview,Pukekohe,
1837730,3385,Loch Views Road,Acacia Bay,Taupo
1771706,9300,Lochy Road,Fernhill,Queenstown
1793354,5012,Lochy Street,Petone,Lower Hutt
3083310,7774,Lockburn Lane,Tinwald,Ashburton
1837026,8022,Lock Crescent,Hillsborough,Christchurch
3079515,7630,Lock Crescent,Kaiapoi,
1825160,1041,Locke Avenue,Mount Roskill,Auckland
1813286,3289,Lockerbie Lane,Whatawhata,Hamilton
1772604,9012,Lockerbie Street,Kew,Dunedin
3080854,3300,Lockerbie Street,Morrinsville,
1776291,9810,Lockerbie Street,Turnbull Thomson Park,Invercargill
1826322,0110,Lockesley Place,Onerahi,Whangarei
1803083,4108,Locke Street,Wairoa,
3048938,0629,Locket Road,"Glenfield,Wairau Valley",Auckland
3001438,9772,Lockett Road,"Clinton,Kaiwera","Clinton,Gore"
1793005,5011,Lockett Street,Waterloo,Lower Hutt
1799259,4414,Lockhart Avenue,Milson,Palmerston North
1829956,1060,Lockhart Place,Mount Wellington,Auckland
1816053,3210,Lockhart Place,Rototuna,Hamilton
1806267,3575,Lockhart Place,Thornton Bay,Thames
3065416,9386,Lockhart Road,"Idaburn,Oturehua",Oturehua
1774071,9593,Lockharts Road,Waitahuna,Lawrence
3010525,7095,Lockheads Road,"Golden Downs,Kikiwa","St. Arnaud,Wakefield"
1826327,0110,Lockheed Place,Onerahi,Whangarei
3024828,0618,Lockheed Street,Hobsonville,Auckland
1788217,7010,Locking Street,Nelson South,Nelson
1788218,7010,Locking Terrace,Nelson South,Nelson
1832886,0612,Lockington Avenue,Henderson,Auckland
1808650,3178,Lockington Road,"Aongatete,Kaimai Mamaku Conservation Park",
3068737,3496,Lockley Road,Cambridge,
3071687,8061,Locksley Avenue,"Burwood,Dallington",Christchurch
1816103,3216,Locksley Lane,Hamilton East,Hamilton
1798802,4782,Locks Road,Hunterville,
1776029,9710,Lock Street,Gore,
1776297,9812,Lock Street,Kingswell,Invercargill
1772601,9012,Lock Street,Saint Clair,Dunedin
1789906,7010,Lock Way,The Wood,Nelson
1793007,5011,Lockwood Crescent,Taita,Lower Hutt
1803084,4108,Lockwood Point,Wairoa,
1802353,4079,Lockwood Road,Anaura Bay,Tokomaru Bay
1826876,2583,Lockwood Road,Hunua,
1797442,4475,Lockwood Road,Kairanga,
3039789,8025,Lockwood Street,Halswell,Christchurch
1858521,0810,Lockyer Road,Kumeu,
1789078,7198,Lodder Lane,Riwaka,Motueka
1834188,7271,Loddon Lane,Wairau Valley,
1770984,9310,Lode Lane,Cromwell,
3036649,8042,Lodestar Avenue,Wigram,Christchurch
1803156,5024,Lodestar Lane,Whitby,Porirua
3010449,5032,Lodestar Place,Paraparaumu,
1779960,7020,Lodestone Road,Richmond,
1808879,3116,Lodge Avenue,Mount Maunganui,
1841754,3503,Lodge Drive,Ngatea,
1799773,5032,Lodge Drive,Paraparaumu Beach,Paraparaumu
1955301,9330,Lodge Lane,Clyde,
3084712,7700,Lodge Lane,Elgin,Ashburton
1836559,2010,Lodge Lane,Sunnyhills,Auckland
3078198,3800,Lodge Lane,Te Awamutu,
1784774,8041,Lodge Place,Ilam,Christchurch
1792238,5022,Lodge Place,Porirua City Centre,Porirua
3009074,9371,Lodge Road,Jacks Point,Queenstown
1804220,4110,Lodge Road,"Maraenui,Onekawa",Napier
3009075,7072,Lodge Road,"Nelson Lakes National Park,St. Arnaud",
1778506,9782,Lodge Road,Winton,
1776034,9712,Lodge Street,Mataura,
1827385,2120,Lodge Street,Pukekohe,
1819574,0475,Lodore Road,Okaihau,
1842706,7614,Loeb Place,Rolleston,
1939329,7410,Loe Place,Amberley,
1780586,7571,Loes Road,Darfield,
1833805,9382,Loess Lane,Hawea Flat,Lake Hawea
3082678,9018,Loess Place,Concord,Dunedin
1785632,7483,Loffhagen Drive,Waipara,
1839903,0810,Loft Place,Kumeu,
1842571,3210,Loftus Place,Flagstaff,Hamilton
1782378,8053,Loftus Street,Papanui,Christchurch
1788617,7096,Loftys Road,Stanley Brook,Wakefield
3003127,4110,Logan Avenue,"Marewa,Napier South",Napier
1812583,3330,Logan Avenue,Wharewaka,Taupo
1771003,9398,Loganburn Ford Road,Paerau,Patearoa
1826414,0185,Logan Cameron Road,Kauri,
1787549,7604,Logan Close,Prebbleton,
1816084,3210,Logan Court,Chartwell,Hamilton
1826874,2684,Logan Drive,Manukau Heads,Awhitu
1801962,4702,Logan Grove,Feilding,
1829225,1025,Logan Lane,Mount Albert,Auckland
1830056,0932,Logan Lane,Stanmore Bay,Whangaparaoa
1831884,0184,Logan Nicks Place,Whangaruru,Russell
3015949,9016,Logan Park Drive,"Dunedin Central,North Dunedin",Dunedin
1790975,7201,Logan Place,Blenheim,
1801704,4414,Logan Place,Kelvin Grove,Palmerston North
1826331,0112,Logan Place,Te Kamo,Whangarei
1806268,3500,Logan Place,Thames,
1827578,2123,Logan Place,Waiuku,
1781263,7992,Logan Road,Belfield,Geraldine
1826878,2677,Logan Road,Buckland,Pukekohe
1814333,3600,Logan Road,"Komata,Paeroa",Paeroa
1804505,4271,Logan Road,Omakere,
1808209,2696,Logan Road,"Onewhero,Pukekawa",
1773894,9586,Logan Road,Owaka,
1811608,3118,Logan Road,Papamoa Beach,Papamoa
3002637,3592,Logans Lane,Kuaotunu,Whitianga
1813051,3495,Logans Lane,Leamington,Cambridge
3015696,7692,Logans Road,"Ohoka,Swannanoa",
1819056,0310,Logan Street,Dargaville,
3026396,9016,Logan Street,"Dunedin Central,Roslyn",Dunedin
1792655,5018,Logan Street,"Ebdentown,Upper Hutt Central",Upper Hutt
1810375,3015,Logan Street,Fairy Springs,Rotorua
1797441,4822,Logan Street,Tangimoana,
1812259,3420,Logan Street,Tokoroa,
1823693,1052,Logan Terrace,Parnell,Auckland
1801741,4414,Logan Views,Kelvin Grove,Palmerston North
1801705,4414,Logan Way,Kelvin Grove,Palmerston North
1789840,7871,Logburn Road,Atarau,Blackball
1786277,8062,Logie Place,Bromley,Christchurch
1772630,9010,Logie Street,North East Valley,Dunedin
1800209,5019,Logie Street,Stokes Valley,Lower Hutt
1834800,8051,Logistics Drive,Harewood,Christchurch
1823566,0772,Log Race Road,Piha,
3023654,0110,Logyard Road,Port Whangarei,Whangarei
1794764,6035,Lohia Street,Khandallah,Wellington
1802023,4010,Loisel Street,Riverdale,Gisborne
3079755,3591,Lois Lane,Hahei,Whitianga
1780682,8013,Lois Place,Richmond,Christchurch
1820096,0420,Loke Crescent,Coopers Beach,
1814198,3800,Lola Lee Heights,Te Awamutu,
1832900,2024,Lolim Place,Favona,Auckland
3083240,7615,Lolite Lane,Rolleston,
1829222,2012,Loloma Drive,"Bucklands Beach,Half Moon Bay",Auckland
1787099,3330,Loloma Way,Wharewaka,Taupo
3083807,0814,Lomandra Street,Westgate,Auckland
1829221,2102,Lomas Place,Manurewa,Auckland
1838781,0632,Lomas Way,Albany,Auckland
1787469,8042,Lomax Place,Islington,Christchurch
3078166,3119,Lomay Place,Te Puke,
1836227,2113,Lombardia Way,Karaka,Papakura
1784780,8042,Lombard Place,Avonhead,Christchurch
1790279,7805,Lombard Street,Greymouth,
1817939,4394,Lombard Street,Midhirst,Stratford
1799253,4410,Lombard Street,Palmerston North,
1823686,1071,Lombard Street,Saint Heliers,Auckland
1794772,6011,Lombard Street,Te Aro,Wellington
3082514,9382,Lombardy Lane,Lake Hawea,
1816973,4310,Lombardy Place,Whalers Gate,New Plymouth
1772600,9013,Lombardy Street,Ocean Grove,Dunedin
1832386,2018,Lomeer Way,Beachlands,Auckland
1800547,6037,Lomita Road,Johnsonville,Wellington
1812257,3420,Lomond Avenue,Tokoroa,
1791605,3112,Lomond Court,Pyes Pa,Tauranga
1771708,9300,Lomond Crescent,Queenstown,
1837732,3385,Lomond Grove,Acacia Bay,Taupo
1775086,9024,Lomond Place,Mosgiel,
1804224,4112,Lomond Place,Tamatea,Napier
1780672,8062,Lomond Place,Woolston,Christchurch
1775039,9012,Lomond Street,Caversham,Dunedin
1771001,9396,Lomond Street,Naseby,
1800548,6037,Lomond Street,Newlands,Wellington
1822526,0622,Lomond Street,Takapuna,Auckland
3080401,7615,Lomu Way,Rolleston,
1775348,9300,London Lane,Queenstown,
1808932,3110,London Place,Judea,Tauranga
1804229,4112,London Place,Tamatea,Napier
1791330,7220,London Quay,Picton,
1793377,5012,London Road,Korokoro,Lower Hutt
1799735,4777,Londons Ford Road,"Kimbolton,Pohangina","Ashhurst,Kimbolton"
1796965,,London Street,"Aramoho,College Estate,Springvale,Tawhero,Whanganui",Whanganui
1782376,8013,London Street,"Christchurch Central,Richmond",Christchurch
1804659,4930,London Street,Dannevirke,
1770089,9016,London Street,"Dunedin Central,North Dunedin",Dunedin
1817348,4322,London Street,Eltham,
1807383,3204,London Street,Hamilton Central,Hamilton
3034057,9410,London Street,Hampden,
1802019,4010,London Street,Kaiti,Gisborne
1797428,4774,London Street,Kimbolton,
1780007,8082,London Street,Lyttelton,
1817622,4598,London Street,Patea,
1827383,2120,London Street,Pukekohe,
1831380,1011,London Street,Saint Marys Bay,Auckland
1831358,0610,London Street,Te Atatu Peninsula,Auckland
1770496,9401,London Street,Weston,Oamaru
1799245,4412,London Terrace,Awapuni,Palmerston North
1812077,3411,London Terrace,Putaruru,
1817903,4312,London Terrace,Welbourn,New Plymouth
3083209,0230,Lone Gum Lane,Kerikeri,
1823565,0772,Lone Kauri Road,"Karekare,Piha","Auckland,Piha"
3036064,,Lonely Track Road,"Albany Heights,Dairy Flat,Fairview Heights,Redvale","Auckland,Dairy Flat"
1830217,0610,Lone Tree Avenue,Te Atatu Peninsula,Auckland
1800208,5010,Lone Tree Grove,Kelson,Lower Hutt
1991280,3129,Long Acre Close,Katikati,
3079812,8022,Long Acre Drive,Cracroft,Christchurch
1841727,9305,Long Acre Drive,Wanaka,
3053918,4582,Longacre Road,"Okoia,Upokongaro","Upokongaro,Whanganui"
1822096,0630,Long Bay Drive,"Long Bay,Torbay",Auckland
3064627,7583,Long Bay Road,"Akaroa,Goughs Bay,Long Bay,Takamatua","Akaroa,Takamatua"
1806269,,Long Bay Road,"Coromandel,Wyuna Bay",Coromandel
1796971,4501,Longbeach Drive,Castlecliff,Whanganui
3048707,7774,Longbeach Road,"Eiffelton,Tinwald,Willowby",Ashburton
1803543,9884,Longbeach Road,Progress Valley,Tokanui
1819575,0202,Long Beach Road,Russell,
1823572,0602,Longbill Place,Glendene,Auckland
1838010,3611,Longboard Drive,Waihi Beach,
1842530,3210,Longbow Terrace,Flagstaff,Hamilton
1823567,0610,Longburn Road,Henderson,Auckland
3078176,4475,Longburn Rongotea Road,"Awapuni,Kairanga,Longburn","Kairanga,Palmerston North"
3046224,,Longbush Road,"Gladstone,Hinakura,Longbush","Gladstone,Longbush,Martinborough"
1833076,0610,Longbush Road,Te Atatu Peninsula,Auckland
1820914,0793,Long Bush Road,Riverhead,
3038468,9877,Longbush South Road,"Awarua Wetlands,Longbush,Mokotua,Rimu,Waimatua",Invercargill
3077432,7615,Longcot Drive,Rolleston,
1794759,6037,Longcroft Terrace,Newlands,Wellington
3050927,9483,Longdale Road,"Hyde,Macraes","Kyeburn,Macraes Flat"
1780588,7510,Longden Street,Darfield,
1823697,1071,Long Drive,Saint Heliers,Auckland
1805344,4110,Longfellow Avenue,Maraenui,Napier
1823564,0604,Longfellow Parade,Glen Eden,Auckland
1818127,4616,Longfellow Road,Opunake,
1812826,3432,Longfellow Street,Leamington,Cambridge
1780902,8023,Longfellow Street,Sydenham,Christchurch
1815142,3320,Longfellow Street,Te Aroha,
1792653,5018,Longfellow Street,Trentham,Upper Hutt
1789845,7022,Longfields Road,Brightwater,
3083036,7608,Longfields Road,Lincoln,
1805029,3200,Longford Court,Forest Lake,Hamilton
1830102,2112,Longford Park Drive,Takanini,Auckland
1776293,9879,Longford Road,"Invercargill Airport,New River Ferry",Invercargill
1773289,9598,Longford Road,Middlemarch,
1825878,1060,Longford Street,Mount Wellington,Auckland
3082214,2019,Long George Drive,Totara Park,Auckland
1838723,9382,Long Grass Place,Hawea Flat,Lake Hawea
1789081,7096,Long Gully Road,Golden Downs,Wakefield
1838895,9377,Long Gully Road,Saint Bathans,
1838894,9383,Long Gully Road,Tarras,Cromwell
3081486,2019,Longhorn Drive,Flat Bush,Auckland
1783897,8022,Longhurst Terrace,Cashmere,Christchurch
1800059,5024,Longitude Place,Whitby,Porirua
1803792,4172,Longlands Road East,"Longlands,Pakipaki",Hastings
1803793,4175,Longlands Road West,Longlands,Hastings
2012850,9371,Longlands Street,Lake Hayes,Queenstown
1786903,8024,Longley Place,Addington,Christchurch
1785903,7583,Long Lookout Road,Little Akaloa,
1829796,0985,Long Meadow Lane,Matakana,
1799247,4412,Long Melford Road,Awapuni,Palmerston North
1794767,6037,Longmont Terrace,Churton Park,Wellington
1836535,0932,Longmore Lane,Silverdale,
1784778,8041,Longmuir Street,Ilam,Christchurch
1836607,3129,Longmynd Drive,Katikati,
3082887,7614,Longore Way,Rolleston,
1837114,4310,Long Place,Frankleigh Park,New Plymouth
1788563,7183,Long Plain Road,Takaka,
1779594,7392,Long Plantation Road,Balmoral,
1773897,9586,Long Point Road,"Purakaunui,Tarara",Owaka
3044281,,Long Range Road,"Blackhead,Omakere","Omakere,Porangahau"
2004294,3591,Longreach Drive,Cooks Beach,Whitianga
1823573,0612,Longreach Drive,Sunnyvale,Auckland
1771562,8081,Longridge Drive,Mount Pleasant,Christchurch
3083427,3600,Longridge Drive,Paeroa,
3051179,9776,Longridge Road,"Balfour,Longridge North","Balfour,Riversdale"
3051181,9092,Longridge Road,North Taieri,Mosgiel
1795176,5890,Longridge Road,Wainuioru,
1776922,9776,Longridge School Road,Longridge North,Riversdale
1776923,9776,Longridge Village Road,Longridge,Riversdale
1813054,3879,Long Road,Te Awamutu,
1831359,0781,Long Road,Waitakere,Auckland
1803869,4182,Long Road North,Poraiti,Napier
3046618,3200,Longrun Lane,Te Rapa,Hamilton
1781212,7776,Longs Ford Road,"Ashburton Forks,Methven","Ashburton,Methven"
3078590,0630,Longshore Drive,Long Bay,Auckland
3083537,2112,Long Spear Lane,Takanini,Auckland
1803735,8025,Longspur Avenue,Wigram,Christchurch
1786003,7472,Long Spur Road,Ashley Forest,Loburn
3052775,7777,Longs Road,"Dorie,Pendarves","Ashburton,Dorie"
1833173,0181,Longs Road,Hikurangi,
3079747,4312,Longstaff Drive,Bell Block,New Plymouth
1780121,7674,Longstaffs Road,"Halswell,Prebbleton","Christchurch,Prebbleton"
1809383,3118,Longstead Avenue,Papamoa Beach,Papamoa
1820558,0483,Long Street,Awanui,
1811000,3225,Long Street,Raglan,
1770502,9492,Long Street,Reidston,Oamaru
1822097,0630,Long Street,Torbay,Auckland
1782380,8023,Long Street,Woolston,Christchurch
3077777,8042,Longueval Lane,Broomfield,Christchurch
1771164,9398,Long Valley Ridge Road,"Paerau,Serpentine",Patearoa
1791024,7178,Long Valley Road,Okaramio,Havelock
1807935,3900,Long View Crescent,Otorohanga,
3083287,3484,Longview Drive,"Arapuni,Piarere","Putaruru,Tirau"
3083740,4674,Longview Drive,Hawera,
3082504,9382,Longview Drive,Lake Hawea,
1816977,4312,Longview Drive,Merrilands,New Plymouth
1838547,3118,Longview Drive,Papamoa Beach,Papamoa
2007244,7475,Long View Lane,Swannanoa,
3084520,2113,Longview Oak Lane,Rosehill,Papakura
1839646,8083,Longview Place,Burwood,Christchurch
1832850,0614,Longview Rise,Massey,Auckland
3046243,9775,Longview Road,"Merino Downs,Te Kiteroa",Gore
1805051,4182,Longview Road,Poraiti,Napier
1810377,3083,Longview Road,Reporoa,
1781264,7983,Longview Road,Sutherlands,Pleasant Point
1839907,0505,Longview Street,Mangawhai,
1772619,9011,Longwood Avenue,Mornington,Dunedin
3080834,5510,Longwood Court,Levin,
1840545,9720,Longwood Drive,Winton,
3050354,5771,Longwood East Road,South Featherston,Featherston
1808925,3110,Longwood Lane,Otumoetai,Tauranga
1822645,0620,Longwood Place,Forrest Hill,Auckland
1814158,3210,Longwood Place,Harrowfield,Hamilton
1771709,9300,Longwood Place,Queenstown,
3036557,9881,Longwood Road,"Longwood,Tihaka",Riverton/Aparima
1775751,9881,Longwood Street,Longwood,Riverton/Aparima
1800668,5771,Longwood West Road,South Featherston,Featherston
1775574,9010,Longworth Street,North East Valley,Dunedin
1794778,6022,Lonsdale Crescent,Rongotai,Wellington
1773896,9584,Lonsdale Road,Ashley Downs,Clinton
1772618,9011,Lonsdale Street,"Belleknowes,Mornington",Dunedin
1824890,1051,Lonsdale Street,Ellerslie,Auckland
1782356,8083,Lonsdale Street,New Brighton,Christchurch
1772621,9016,Lonsdale Terrace,Belleknowes,Dunedin
1779142,8022,Lookaway Lane,Huntsbury,Christchurch
1786855,8022,Lookaway Place,Huntsbury,Christchurch
3005519,7986,Looker Road,"Belfield,Clandeboye,Orton","Geraldine,Temuka"
1791524,7300,Lookers On Lane,Kaikoura,
1823575,0604,Lookout Drive,Laingholm,Auckland
1839017,9320,Lookout Drive,Little Valley,Alexandra
1835623,9371,Lookout Drive,Mount Creighton,Queenstown
1826555,0181,Lookout Road,Glenbervie Forest,Hikurangi
1839078,6021,Lookout Road,"Hataitai,Mount Victoria,Roseneath",Wellington
1774122,9587,Lookout Road,Kelso,Tapanui
1830901,0881,Lookout Road,Muriwai,
1804372,4278,Lookout Road,Ongaonga,
1826880,2682,Lookout Road,Otaua,
1789671,7182,Lookout Road,Parapara,Collingwood
1781259,7992,Lookout Road,Peel Forest,Mount Peel
1801208,4720,Lookout Road,Taihape,
3053741,0376,Lookout Road,Waipoua Forest,"Aranga,Northland Conservation Park"
1819571,0293,Lookout Road,Waitangi,Kerikeri
1812916,3800,Loomb Place,Te Awamutu,
1772606,9010,Loom Street,Kaikorai,Dunedin
1776224,9783,Looney Road,"Dunearn,South Hillend",Winton
3067736,3198,Looney Road,Waiotahe,Opotiki
1792239,5024,Loongana Street,Waitangirua,Porirua
1800613,5881,Loop Line,Opaki,
3016517,7882,Loopline Road,"Dillmanstown,Kapitia Reservoir",Greymouth
1789533,7892,Loopline Road,Lower Buller Gorge,Westport
1773396,9272,Loop Road,Benhar,Balclutha
1780318,7183,Loop Road,East Takaka,Takaka
1771704,9300,Loop Road,Kawarau Falls,Queenstown
1819577,0293,Loop Road,"Kerikeri,Waitangi",Kerikeri
1803017,4188,Loop Road,Kotemaori,
1808649,3176,Loop Road,Minden,Tauranga
1820912,0931,Loop Road,Orewa,
1826412,0170,Loop Road,Otaika,Whangarei
1826875,2682,Loop Road,Otaua,
1826871,2579,Loop Road,Ramarama,Drury
1810378,3083,Loop Road,Reporoa,
1775623,9273,Loop Road,Romahapa,Balclutha
1771207,9572,Loop Road,Teviot,Roxburgh
1775441,9483,Loop Road,Waihemo,Palmerston
1815726,3384,Loop Road,Wairakei,Taupo
1807936,3873,Loop Road,Wharepuhunga,Te Awamutu
3078948,4182,Lopdell Lane,Eskdale,Napier
1805783,4294,Lopez Lane,Waimarama,
3023601,9782,Lora Gorge Road,"Browns,Hokonui",Winton
3031357,9782,Lora River Road,"Hokonui,Otapiri Gorge",Winton
3082932,3118,Lorata Close,Papamoa Beach,Papamoa
1789080,7025,Lord Auckland Road,Wakefield,
1814727,3120,Lord Cobham Avenue,Whakatane,
1771703,9300,Lordens Place,Fernhill,Queenstown
3080261,0932,Lordland Road,Wainui,
1789246,7022,Lord Rutherford Road North,Brightwater,
1789245,7091,Lord Rutherford Road South,Brightwater,
1785433,8042,Lordship Place,Templeton,Christchurch
3055562,7692,Lords Road,"Clarkville,Swannanoa","Kaiapoi,Swannanoa"
1790280,7805,Lord Street,Greymouth,
1792499,5019,Lord Street,Stokes Valley,Lower Hutt
1805562,4284,Lord Street,Wanstead,Waipukurau
2018177,0932,Lords Way,Silverdale,
1827922,2113,Lorelei Place,Opaheke,Papakura
1823570,0618,Lorena Place,West Harbour,Auckland
1811002,3225,Lorenzen Bay Road,Raglan,
3014224,4470,Lorenzo Place,Kelvin Grove,Palmerston North
3084548,8025,Lorenzos Lane,Halswell,Christchurch
1841614,2016,Lorenzo Way,Flat Bush,Auckland
1829631,1050,Loreto Heights,Remuera,Auckland
1783946,8042,Loreto Place,Hornby,Christchurch
3011370,0932,Loretta Place,Red Beach,
1791849,5032,Lorien Court,Raumati Beach,Paraparaumu
1829239,2013,Lorien Place,East Tamaki,Auckland
1832509,0632,Lorikeet Place,Unsworth Heights,Auckland
1838933,0420,Lori Lane,Coopers Beach,
3051486,7692,Lorimas Road,Clarkville,Kaiapoi
1783637,7670,Lorimas Road,Coutts Island,Christchurch
1813722,3216,Lorimer Lane,Hillcrest,Hamilton
1789487,7020,Lorimer Lane,Richmond,
3082093,7610,Lorimer Street,Woodend,
1829742,0614,Lori Place,Massey,Auckland
1789855,7805,Loris Place,Karoro,Greymouth
1836573,2110,Loris Place,Papakura,
1801608,5032,Lorna Irene Drive,Raumati South,Paraparaumu
1837112,8083,Lorna Lane,Brooklands,Christchurch
1808933,3110,Lorna Place,Brookfield,Tauranga
1816968,4310,Lorna Street,Lynmouth,New Plymouth
1803263,4120,Lorne Crescent,Flaxmere,Hastings
3040509,,Lorne Dacre Road,"Anderson Park,Dacre,Lorneville,Mabel Bush,Rakahouka,Roslyn Bush",Invercargill
1803264,4120,Lorne Place,Flaxmere,Hastings
1831382,1010,Lorne Street,Auckland Central,Auckland
1819054,0310,Lorne Street,Dargaville,
1817349,4679,Lorne Street,Kaponga,Hawera
2012848,9304,Lorne Street,Lake Hayes,Queenstown
3056424,3206,Lorne Street,Melville,Hamilton
1811682,3300,Lorne Street,Morrinsville,
1775695,9024,Lorne Street,Mosgiel,
1794785,6011,Lorne Street,"Mount Victoria,Te Aro",Wellington
1804661,4977,Lorne Street,Ormondville,
1772623,9012,Lorne Street,South Dunedin,Dunedin
1812915,3800,Lorne Street,Te Awamutu,
1776299,9810,Lorn Street,"Glengarry,Turnbull Thomson Park",Invercargill
1776033,9712,Lorn Street,Mataura,
1831630,1025,Lorraine Avenue,Mount Albert,Auckland
1807385,3206,Lorraine Place,Glenview,Hamilton
1806270,3620,Lorraine Place,Whangamata,
1802766,4010,Lorraine Street,Outer Kaiti,Gisborne
3077375,2471,Lorrie Lane,Pokeno,
1813669,3112,Lorrigan Way,Welcome Bay,Tauranga
3080067,0174,Lort Point Lane,Whangarei Heads,
3079611,9382,Lost Burn Road,Lake Hawea,
1838939,0181,Lost Bush Track,Hikurangi,
1832564,2103,Lothian Brae,Wattle Downs,Auckland
1776292,9812,Lothian Crescent,Strathern,Invercargill
1781251,7930,Lothian Lane,Geraldine,
1784781,8041,Lothian Street,Ilam,Christchurch
1775036,9010,Lothian Street,Maori Hill,Dunedin
1802341,3199,Lottin Point Road,Hicks Bay,
1805028,3116,Lotus Avenue,Mount Maunganui,
1829231,2024,Lotus Lane,Mangere East,Auckland
3081449,3495,Lotus Place,Te Awamutu,
3081303,8025,Lotus Place,Wigram,Christchurch
1819578,0474,Lotus Road,Awarua,Kaikohe
3082330,7020,Lotus Street,Appleby,Richmond
3082851,7025,Louden Place,Wakefield,
1775067,9018,Loudon Street,Green Island,Dunedin
1830497,0614,Loughanure Place,Massey,Auckland
1837419,2120,Lough Bourne Drive,Pukekohe,
1837248,0632,Lough Derg Place,Pinehill,Auckland
1830463,2103,Loughinisland Place,Weymouth,Auckland
1833069,0632,Loughros Place,Pinehill,Auckland
3038457,7910,Lough Street,"Seaview,West End",Timaru
1782372,8083,Loughton Street,Burwood,Christchurch
1805595,4122,Louie Street,Parkvale,Hastings
3082319,0230,Louisa Boulevard,Kerikeri,
3067079,8011,Louisa Chandler Lane,Linwood,Christchurch
1792240,5024,Louisa Grove,Waitangirua,Porirua
1832967,0112,Louisa Lane,Te Kamo,Whangarei
3080264,0932,Louisa Lane,Wainui,
1776289,9810,Louisa Street,Gladstone,Invercargill
1840442,2019,Louis Braille Lane,Flat Bush,Auckland
1838491,4320,Louis Drive,Waitara,
3081607,7371,Louis Edgar Place,Hapuku,Kaikoura
1836623,3112,Louise Drive,Ohauiti,Tauranga
1806271,3584,Louise Lane,Waikawau,Coromandel
1822101,0630,Louise Place,Browns Bay,Auckland
1807387,3216,Louise Place,Riverlea,Hamilton
1823563,0618,Louise Place,West Harbour,Auckland
1805409,4977,Louise Street,Ormondville,
1842699,7614,Louis Lane,Rolleston,
1810379,3015,Louis Place,Hillcrest,Rotorua
1788219,7011,Louisson Avenue,Stoke,Nelson
1782359,8023,Louisson Place,Opawa,Christchurch
1838742,5018,Louis Street,Trentham,Upper Hutt
1775200,9220,Loup Street,Milton,
1835031,4412,Lourdes Court,Takaro,Palmerston North
1805753,4274,Lourie Road,Tikokino,
1839224,4410,Lourie Way,Fitzherbert,Palmerston North
3050027,1041,Louvain Avenue,"Mount Roskill,Sandringham",Auckland
1833271,0632,Louvain Place,Greenhithe,Auckland
1809421,3120,Louvain Street,Whakatane,
1774598,9400,Loval Place,Oamaru North,Oamaru
1803532,4130,Lovat Street,Havelock North,
3000201,0112,Lovatt Crescent,Kensington,Whangarei
1830678,0281,Lovatt Road,Pipiwai,Whangarei
1803268,4120,Lovedale Road,Saint Leonards,Hastings
3061069,4972,Loveday Road,"Maharahara,Ruahine Forest Park","Dannevirke,Ruahine Forest Park"
1829223,2023,Lovegrove Crescent,Otara,Auckland
1811716,3393,Lovegrove Road,Te Aroha,
1811303,3721,Lovell Avenue,Taupiri,
1830317,0632,Lovell Court,Rosedale,Auckland
1826418,0176,Lovell Road,Ruatangata West,Whangarei
1804899,4998,Lovell Road,Woodville,
1805935,3496,Lovells Road,Cambridge,
1825058,1024,Lovelock Avenue,Mount Eden,Auckland
1772602,9016,Lovelock Avenue,"North Dunedin,Opoho",Dunedin
3080412,7615,Lovelock Avenue,Rolleston,
1807388,3210,Lovelock Place,Chartwell,Hamilton
1775360,9771,Lovelock Road,Pomahaka,Gore
1782360,8061,Lovelock Street,Dallington,Christchurch
1809428,3120,Lovelock Street,Whakatane,
3079991,2102,Lovely Lane,Manurewa,Auckland
1813657,3300,Loveridge Place,Morrinsville,
3061418,7991,Love Road,"Kakahu,Pleasant Valley",Geraldine
1826328,0110,Lovers Lane,"Avenues,Whangarei",Whangarei
1841060,7371,Lovers Lane,Hapuku,Kaikoura
1829885,1010,Lovers Lane,Parnell,Auckland
1832517,0974,Lovers Lane,Wellsford,
1841184,9372,Lovers Leap Road,Glenorchy,
1789390,7095,Loves Road,Golden Downs,Wakefield
3064884,4470,Loveston Lane,Kelvin Grove,Palmerston North
1781220,7775,Lovetts Road,Winslow,Ashburton
1798541,4815,Low Avenue,Foxton Beach,Foxton
1833436,0510,Lowburn Avenue,Waipu,
1829552,2019,Lowburn Place,Clover Park,Auckland
1833843,9384,Lowburn Terrace,Lowburn,Cromwell
1771255,9384,Lowburn Valley Road,"Cromwell,Lowburn",Cromwell
1806272,3500,Lowe Avenue,Thames,
1818395,0614,Lowell Place,Massey,Auckland
1812636,3330,Lowell Place,Waipahihi,Taupo
1806273,3579,Lowe Park Lane,Pauanui,
1787533,7400,Lowe Place,Rangiora,
1818382,4374,Lower Ahu Ahu Road,Kaitake,New Plymouth
1831383,1010,Lower Albert Street,Auckland Central,Auckland
1812827,3434,Lower Alpha Street,Cambridge,
1817624,4598,Lower Ball Road,Kakaramea,Patea
3028804,7774,Lower Beach Road,"Ashton,Eiffelton,Lowcliffe",Ashburton
1798769,4710,Lower Beaven Street,Marton,
3039704,,Lower Buller Gorge Road,"Inangahua,Lower Buller Gorge,Westport","Reefton,Westport"
1785334,7630,Lower Camside Road,Kaiapoi,
1838417,2471,Lower Church Road,Pokeno,
1829887,1010,Lower Domain Drive,"Auckland Central,Parnell",Auckland
1936725,4930,Lower Domain Road,Dannevirke,
3067960,7778,Lower Downs Road,"Cavendish,Montalto,Ruapuna,Surrey Hills","Ashburton,Mount Somers"
3005338,4675,Lower Duthie Road,"Kaponga,Kapuni",Hawera
1804955,4179,Lower Flag Range Road,"Dartmoor,Sherenden","Hastings,Napier"
1779593,7332,Lower Flat Road,Waiau,
2003051,7071,Lower Flowers Road,Whangamoa,Rai Valley
1774749,9395,Lower Gimmerburn Road,"Gimmerburn,Ranfurly",Ranfurly
1818195,4678,Lower Glenn Road,Kaupokonui,Hawera
3078994,5510,Lower Green Lane,Levin,
1798632,4592,Lower Herengawe Road,Waverley,
1780585,7673,Lower High Street,Coalgate,
1801201,4710,Lower High Street,Marton,
1831379,1010,Lower Hobson Street,Auckland Central,Auckland
1775345,9679,Lower Hollyford Road,Fiordland National Park,
1782268,7978,Lower Hook Road,"Makikihi,Waimate",Waimate
3077521,4673,Lower Hunter Road,"Eltham,Matapu","Eltham,Hawera"
3062066,4671,Lower Inaha Road,Manaia,
1830898,0794,Lower Jeffs Road,Dairy Flat,
1817626,4597,Lower Kaharoa Road,Patea,
1817269,4681,Lower Kahui Road,Rahotu,Opunake
1817271,4681,Lower Kina Road,Oaonui,Opunake
1817094,4372,Lower King Road,Tarurutangi,New Plymouth
1780115,7683,Lower Lake Road,Leeston,
1792241,5022,Lower Main Drive,Kenepuru,Porirua
1771256,9393,Lower Manorburn Dam Road,Galloway,Alexandra
1817625,4598,Lower Manutahi Road,Manutahi,Patea
3078545,7395,Lower Mason Road,Waiau,
1811590,4591,Lower Moeawatea Road,Moeawatea,Waverley
1825452,1061,Lower Municipal Place,Onehunga,Auckland
3006993,0604,Lower Nihotupu Dam Road,"Nihotupu,Parau",Auckland
1794783,6012,Lower North Terrace,Kelburn,Wellington
1776914,9893,Lowe Road,"Ashers,Oteramika,Seaward Downs","Invercargill,Wyndham"
1826419,0181,Lowe Road,"Glenbervie Forest,Hikurangi",Hikurangi
3035471,4820,Lowe Road,Linton,Palmerston North
1809425,3196,Lowe Road,"Nukuhou,Waimana",
1813046,3282,Lowe Road,Rukuhia,Hamilton
1808648,3180,Lowe Road,Whakamarama,
1798631,4592,Lower Okotuku Road,Waverley,
3025642,4783,Lower Pakihikura Road,"Ohingaiti,Waituna West","Feilding,Kimbolton"
3046277,4685,Lower Parihaka Road,Pungarehu,
1817101,4374,Lower Pitone Road,Pitone,New Plymouth
1851095,4381,Lower Puniho Road,Warea,
3045390,,Lower Queen Street,Richmond,
3050269,9682,Lower Scotts Gap Road,"Scotts Gap,Waikoura",Otautau
3063367,7472,Lower Sefton Road,"Ashley,Sefton","Rangiora,Sefton"
3033606,9371,Lower Shotover Road,"Lake Hayes,Lower Shotover,Speargrass Flat",Queenstown
1820911,0975,Lower Silver Hill Road,Wellsford,
1817887,4673,Lower Stuart Road,Eltham,
3049015,8083,Lower Styx Road,"Bottle Lake,Brooklands,Marshland,Spencerville",Christchurch
1826330,0110,Lower Tarewa Road,"Morningside,Whangarei",Whangarei
1817623,4598,Lower Taumaha Road,Manutahi,Patea
1801709,6035,Lower Tyers Road,Ngauranga,Wellington
1801179,4592,Lower Waiau Road,Waverley,
1815973,3720,Lower Waikato Esplanade,Ngaruawahia,
1791027,7202,Lower Wairau Road,Grovetown,Blenheim
1791407,7300,Lower Ward Street,Kaikoura,
1793874,6012,Lower Watt Street,Wadestown,Wellington
1825157,1041,Lowery Avenue,Mount Roskill,Auckland
1774323,9593,Lowery Road,Waitahuna West,Lawrence
3057185,7775,Lowerys Road,"Tinwald,Winslow",Ashburton
1773400,9291,Lowery Street,Milton,
1795130,5810,Lowes Place,Solway,Masterton
1787885,7892,Lowes Road,Charleston,Cape Foulwind
1786371,7778,Lowes Road,Maronan,Ashburton
1786170,7614,Lowes Road,Rolleston,
1798114,4412,Lowestoft Place,West End,Palmerston North
1774496,9230,Lowestoft Street,Balclutha,
1784236,8011,Lowe Street,Addington,Christchurch
1776296,9810,Lowe Street,Avenal,Invercargill
1822642,0622,Lowe Street,Belmont,Auckland
1803259,4120,Lowe Street,Camberley,Hastings
1802765,4010,Lowe Street,Gisborne,
1772611,9010,Lowe Street,Liberton,Dunedin
1789076,7120,Lowe Street,Motueka,
1770789,9493,Lowe Street,Waitaki Bridge,
1806274,3620,Lowe Street,Whangamata,
1786856,8022,Lowick Avenue,Cashmere,Christchurch
1805014,4112,Lowndes Place,Taradale,Napier
1777578,9683,Low Road,Otautau,
1786994,8051,Lowry Avenue,Redwood,Christchurch
1793002,5019,Lowry Crescent,Stokes Valley,Lower Hutt
1838883,5019,Lowry Heights,Stokes Valley,Lower Hutt
1786084,7391,Lowry Peaks Road,Amuri Plain,Culverden
1838867,4120,Lowry Place,Frimley,Hastings
1827279,2675,Lowry Road,Bombay,
1808643,3183,Lowry Road,Te Puke,
1841097,2675,Lowry Road West,Bombay,
1789077,7020,Lowry Street,Richmond,
1779589,7332,Lowry Street,Waiau,
1804222,4110,Lowry Terrace,Marewa,Napier
1797427,4777,Lows Road,Kimbolton,
1782269,7980,Lows Road,Waimate,
1773901,9534,Low Street,Clinton,
1788220,7010,Low Street,Port Nelson,Nelson
3081111,7201,Lowther Drive,Witherlea,Blenheim
1823098,0614,Lowtherhurst Road,Massey,Auckland
1833385,0530,Lowther Place,Ruawai,
1805342,4112,Lowther Place,Taradale,Napier
1776917,9793,Lowther Road,Lowther,
1789251,7072,Lowther Road,St. Arnaud,
1776915,9793,Lowther Siding Road,Lowther,
1770180,9400,Lowther Street,Oamaru North,Oamaru
1783942,8042,Lowther Street,Sockburn,Christchurch
1796716,4500,Lowther Street,Whanganui,
1955363,7608,Loxley Place,Lincoln,
3078050,2578,Loxton Lane,Paerata,Pukekohe
1841307,7730,Loyal Nurse Lane,Methven,
1772605,9012,Loyalty Street,"Caversham,Forbury",Dunedin
3006399,0981,L Phillips Road,"Dome Forest,Dome Valley",Warkworth
1829235,2014,Luana Way,Bucklands Beach,Auckland
1823100,0612,Luanda Drive,Ranui,Auckland
1771165,9396,Lua Street,Naseby,
1815875,3330,Luberon Way,Nukuhau,Taupo
1772615,9010,Lucan Street,North East Valley,Dunedin
3078700,0632,Lucas Creek View Way,"Albany,Schnapper Rock",Auckland
1787035,7481,Lucas Drive,Leithfield,
1787640,7334,Lucas Lane,Hanmer Springs,
1779065,8022,Lucas Lane,Hillsborough,Christchurch
1816978,4312,Lucas Lane,New Plymouth,
1825879,1072,Lucas Lane,Panmure,Auckland
1810380,3010,Lucas Place,Fenton Park,Rotorua
1774156,9300,Lucas Place,Frankton,Queenstown
1829217,2103,Lucas Place,Weymouth,Auckland
1836078,0632,Lucas Point,Albany,Auckland
1819573,0211,Lucas Road,Moerewa,
1787977,7830,Lucas Street,Reefton,
1790420,7201,Lucas Street,Riversdale,Blenheim
3011440,7010,Lucas Terrace,Stepneyville,Nelson
1832519,0632,Lucas Way,Albany,Auckland
1838152,2019,Lucca Crescent,Flat Bush,Auckland
3079003,7615,Lucca Crescent,Rolleston,
3084513,0992,Lucent Lane,Wainui,
1813482,3112,Lucerne Place,Welcome Bay,Tauranga
1823689,1050,Lucerne Road,Remuera,Auckland
3081112,5012,Lucern Lane,Petone,Lower Hutt
1832722,1072,Lucia Glade,Meadowbank,Auckland
3025059,3204,Lucianna Lane,Hamilton Central,Hamilton
1830316,0612,Lucienne Drive,Ranui,Auckland
1783899,8022,Lucienne Place,Hillsborough,Christchurch
1815049,3792,Lucien Place,Whitikahu,Taupiri
3083014,4376,Lucina Rise,Peacocke,Hamilton
1822755,0602,Lucinda Place,Glen Eden,Auckland
1812831,3494,Luck At Last Road,Maungatautari,Cambridge
1825159,1042,Luck Crescent,Hillsborough,Auckland
1823103,0618,Luckens Road,West Harbour,Auckland
3077575,9300,Luckie Lane,Queenstown Hill,Queenstown
1793507,5028,Luckie Street,Tawa,Wellington
1823684,0600,Lucknow Place,Blockhouse Bay,Auckland
1783896,8022,Lucknow Place,Cashmere,Christchurch
1805165,4130,Lucknow Road,Havelock North,
1796717,4500,Lucknow Street,Aramoho,Whanganui
1777579,9822,Lucknow Street,Riverton/Aparima,
1803085,4108,Lucknow Street,Wairoa,
1804225,4110,Lucknow Terrace,Hospital Hill,Napier
1793868,6035,Lucknow Terrace,Khandallah,Wellington
1782270,7980,Lucks Road,Waimate,
3081167,8025,Luck Street,Halswell,Christchurch
1814139,3434,Lucombe Place,Cambridge,
1813576,3116,Luculia Drive,Mount Maunganui,
1830900,0932,Lucy Foster Lane,Red Beach,
1830144,1010,Lucy Lane,Auckland Central,Auckland
1837962,7011,Lucy Murcott Place,Stoke,Nelson
1804232,4110,Lucy Road,Bluff Hill,Napier
1806275,3575,Lucy Road,Waiomu,Thames
1775413,9305,Lucys Way,Wanaka,
1819576,0472,Ludbrook Road,Pakaraka,Moerewa
1783944,8042,Ludecke Place,Sockburn,Christchurch
1770787,9494,Ludemann Road,"Papakaio,Peebles",Waitaki Bridge
1784827,8051,Ludhiana Street,Casebrook,Christchurch
1793004,5010,Ludlam Crescent,Woburn,Lower Hutt
3018772,5710,Ludlam Street,Featherston,
1793887,6022,Ludlam Street,Seatoun,Wellington
1838965,5512,Ludlam Way,Otaki,
1835481,7371,Ludley Drive,Kaikoura Flat,Kaikoura
1837139,7774,Ludlow Drive,Huntingdon,Ashburton
1794152,7400,Ludlow Lane,Rangiora,
1816979,4312,Ludlow Place,Bell Block,New Plymouth
1836603,3129,Ludlow Place,Katikati,
1784824,8083,Ludlow Place,Parklands,Christchurch
1808383,2120,Ludlow Place,Pukekohe,
1777583,9883,Ludlow Street,Flints Bush,Otautau
3034535,0627,Ludlow Terrace,Totara Vale,Auckland
1791408,,Ludstone Road,"Kaikoura,Kaikoura Flat",Kaikoura
1788221,7071,Lud Valley Road,Hira,
3023979,7495,Luers Road,"Coopers Creek,Oxford",Oxford
3078583,0630,Luff Place,Long Bay,Auckland
1810912,3720,Luff Place,Ngaruawahia,
1789574,7825,Luff Place,Westport,
1792242,5024,Luff Place,Whitby,Porirua
3080238,7580,Luge Loop,Castle Hill,
3039683,,Luggate-Cromwell Road,"Cromwell,Lake Dunstan,Lowburn,Luggate,Mount Pisa,Queensberry","Cromwell,Wanaka"
3029614,9383,Luggate-Tarras Road,"Hawea Flat,Luggate,Tarras","Cromwell,Lake Hawea,Wanaka"
1807389,3200,Lugton Street,Nawton,Hamilton
3084001,7610,Luisetti Lane,Woodend,
1842261,7614,Luke Lane,Rolleston,
1832384,2012,Luke Place,Eastern Beach,Auckland
1810381,3015,Luke Place,Fairy Springs,Rotorua
1832383,2023,Luke Place,Otara,Auckland
1809427,3193,Luke Road,Awakeri,Whakatane
1793871,6011,Lukes Lane,Te Aro,Wellington
1786063,7583,Lukes Road,Little Akaloa,
1808929,3110,Luke Street,Brookfield,Tauranga
1772607,9013,Luke Street,Ocean Grove,Dunedin
1825776,1062,Luke Street,Otahuhu,Auckland
1825775,1062,Luke Street East,Otahuhu,Auckland
1781947,7910,Lukeys Lane,Waimataitai,Timaru
3069496,3210,Lulu Avenue,Chartwell,Hamilton
1787011,7395,Lulus Lane,Lyford,Waiau
1786862,8025,Lulworth Lane,Westmorland,Christchurch
3078208,0810,Lumbarda Drive,Kumeu,
3083923,0110,Lumbarda Lane,Maunu,Whangarei
3082208,0614,Lumber Rise,Swanson,Auckland
1837751,0612,Lumino Lane,Henderson,Auckland
3083022,3206,Lumino Terrace,Peacocke,Hamilton
1773990,9593,Lumley Street,Waitahuna,Lawrence
3056774,,Lumsden Dipton Highway,"Caroline,Dipton,Josephville,Lintley,Lumsden","Balfour,Dipton,Lumsden"
3026839,9810,Lumsden Drive,Waikiwi,Invercargill
1803266,4122,Lumsden Place,Akina,Hastings
3064053,,Lumsden Riversdale Highway,"Balfour,Kingston Crossing,Lintley,Longridge,Lumsden,Riversdale,St Patricks,Waimea","Balfour,Lumsden,Riversdale"
1803265,4122,Lumsden Road,"Akina,Parkvale",Hastings
1805966,3771,Lumsden Road,"Ohinewai,Rangiriri","Huntly,Te Kauwhata"
1808930,3112,Lumsden Street,Greerton,Tauranga
1833394,0612,Luna Place,Henderson,Auckland
1837343,9304,Luna Place,Lake Hayes,Queenstown
1776777,9730,Luna Street,Lumsden,
1781323,7983,Lundie Road,Sutherlands,Pleasant Point
3063982,9010,Lundie Street,"Kaikorai,Roslyn",Dunedin
1808651,3178,Lund Road,Aongatete,
1779136,7495,Lundy Road,Okuku,
1776290,9810,Lune Street,Hawthorndale,Invercargill
1770179,9400,Lune Street,"Oamaru,South Hill",Oamaru
1820560,0481,Lunjevich Road,Herekino,Kaitaia
1825772,1072,Lunn Avenue,"Mount Wellington,Remuera",Auckland
3083574,7632,Lunn Crescent,Leeston,
1783949,8024,Lunns Road,Middleton,Christchurch
1805915,3415,Lunn Street,Arapuni,Putaruru
1830162,0618,Lupetti Rise,West Harbour,Auckland
1841514,4591,Lupin Lane,Waverley,
1795733,5512,Lupin Road,Otaki,
1782364,8062,Lupins Lane,Bromley,Christchurch
1793506,5028,Lupin Terrace,Tawa,Wellington
1840712,0573,Lupis Way,Kaiwaka,
1828031,2014,Luplau Crescent,Cockle Bay,Auckland
3022411,0112,Lupton Avenue,"Kensington,Regent",Whangarei
1832381,2102,Lupton Road,Manurewa,Auckland
1820906,0874,Lupton Road,Woodhill Forest,South Head
1798633,4510,Lupton Street,Waverley,
1835296,2013,Lurgan Drive,East Tamaki,Auckland
1776072,9773,Lurgan Street,Waikaka,Gore
1823680,1023,Lurline Avenue,Epsom,Auckland
3064182,3972,Lurman Road,"Maihiihi,Otewa",Otorohanga
3041863,1072,Lush Avenue,Saint Johns,Auckland
1806128,9398,Lusher Road,Patearoa,
1829969,2013,Lushington Place,Huntington Park,Auckland
1785878,7581,Lushingtons Bay Road,Takamatua,
3022060,7991,Lushman Road,"Kakahu,Middle Valley","Fairlie,Geraldine"
3079224,2113,Lusitano Drive,Karaka,Papakura
1782370,8013,Lusk Place,Shirley,Christchurch
1830631,0592,Lusk Road,Ruawai,
3083057,7400,Lusk Street,Rangiora,
1809958,3910,Lusk Street,Te Kuiti,
3055343,2679,Lusk Way,Patumahoe,Pukekohe
3079156,8042,Lussa Close,Broomfield,Christchurch
1772628,9014,Luss Road,Company Bay,Dunedin
1789461,7011,Lusty Place,Stoke,Nelson
1829834,2013,Lutana Place,Burswood,Auckland
1778994,8083,Lutheran Close,Burwood,Christchurch
1829219,2010,Luton Avenue,Sunnyhills,Auckland
3043665,4410,Luton Street,"Hokowhitu,Terrace End",Palmerston North
1842944,3112,Luton Way,Pyes Pa,Tauranga
3065730,0371,Lutrell Road,"Aratapu,Te Kopuru","Dargaville,Te Kopuru"
3003936,3196,Luttrell Road,"Ruatoki,Waimana","Taneatua,Waimana"
1799687,5571,Lutz Road,Levin,
3077943,8025,Luxembourg Crescent,Halswell,Christchurch
1793876,6023,Luxford Street,Berhampore,Wellington
3028616,7910,Luxmoore Road,"Marchwiel,Waimataitai",Timaru
3032754,9600,Luxmore Drive,Te Anau,
1829539,0614,Luxor Place,Massey,Auckland
1810382,3015,Luxor Place,Pomare,Rotorua
1780683,8081,Luxton Place,Mount Pleasant,Christchurch
1785196,7400,Luxton Place,Rangiora,
1809423,3193,Luxton Road,Awakeri,Whakatane
3060432,7988,Lyalldale Middle Road,"Saint Andrews,Southburn",
1782274,7988,Lyalldale Road,Saint Andrews,
3080491,7604,Lyall Lane,Prebbleton,
1800394,6022,Lyall Parade,Lyall Bay,Wellington
1784830,8053,Lyall Place,Bryndwr,Christchurch
1782273,7988,Lyall Road,Saint Andrews,
1804286,4273,Lyall Street,Tikokino,
1781656,7920,Lyall Terrace,Temuka,
1790452,7201,Lybster Street,Blenheim,
1787157,8011,Lychgate Close,Linwood,Christchurch
1808936,3110,Lydbrook Place,Otumoetai,Tauranga
1784829,8083,Lydbury Place,Parklands,Christchurch
1831277,0602,Lydford Place,Glendene,Auckland
1816976,4310,Lydford Place,Spotswood,New Plymouth
3043337,0627,Lydia Avenue,Northcote,Auckland
1799691,4414,Lydia Place,Kelvin Grove,Palmerston North
3077431,7615,Lydiard Drive,Rolleston,
1844117,2571,Lydiard Place,Beachlands,Auckland
1807390,3210,Lydiard Place,Chartwell,Hamilton
1790672,7805,Lydia Street,Greymouth,
1776776,9730,Lydia Street,Lumsden,
1782379,8052,Lydia Street,Northcote,Christchurch
1793870,6012,Lydia Way,Karori,Wellington
1785831,7610,Lydney Lane,Woodend,
1792243,5022,Lydney Place North,Porirua City Centre,Porirua
1792244,5022,Lydney Place South,Porirua City Centre,Porirua
3013378,9392,Lye Bow Road,"Butchers Gully,Conroys Gully",Alexandra
1829226,2019,Lyell Court,Clover Park,Auckland
1802018,4010,Lyell Road,Outer Kaiti,Gisborne
1803261,4122,Lyell Street,Akina,Hastings
1822646,0620,Lyford Crescent,Sunnynook,Auckland
1778991,7901,Lyford Lane,Twizel,
1829230,2022,Lympne Lane,Mangere,Auckland
1773287,9019,Lynas Street,Outram,
1810383,3010,Lynbert Road,Lynmore,Rotorua
1813499,3200,Lynbrae Court,Nawton,Hamilton
1818870,0600,Lynbrooke Avenue,Blockhouse Bay,Auckland
1799664,5510,Lynch Grove,Levin,
3078909,9300,Lynch Lane,Queenstown Hill,Queenstown
1780674,8061,Lyn Christie Place,Wainoni,Christchurch
1777577,9689,Lynch Road,"Aparima,Wreys Bush",Otautau
1781255,7973,Lynch Road,Levels,Timaru
1778481,9776,Lynch Road,Longridge,Riversdale
1816385,4375,Lynch Road,Urenui,
1790236,7802,Lynch Street,Cobden,Greymouth
1823959,1022,Lynch Street,Point Chevalier,Auckland
1829240,2024,Lyncroft Street,Mangere East,Auckland
1793866,6037,Lynda Avenue,Paparangi,Wellington
1823967,1072,Lyndale Place,Glen Innes,Auckland
1798140,4414,Lyndale Place,Kelvin Grove,Palmerston North
1821858,0627,Lynden Avenue,Hillcrest,Auckland
1807391,3210,Lynden Court,Chartwell,Hamilton
1800397,6037,Lyndfield Lane,Newlands,Wellington
1814607,3189,Lyndhurst Avenue,Maketu,
1782363,8061,Lyndhurst Crescent,Aranui,Christchurch
3028693,7120,Lyndhurst Drive,Motueka,
1802972,4120,Lyndhurst Road,Frimley,Hastings
3016087,7776,Lyndhurst Road,"Highbank,Lauriston","Lauriston,Methven"
1793509,5028,Lyndhurst Road,Tawa,Wellington
1823096,0610,Lyndhurst Road,Te Atatu South,Auckland
1802020,4010,Lyndhurst Street,Awapuni,Gisborne
1797974,4412,Lyndhurst Street,Takaro,Palmerston North
3023677,1072,Lyndhurst Street,Wai o Taiki Bay,Auckland
1788086,7825,Lyndhurst Street,Westport,
1823955,1010,Lyndock Street,Auckland Central,Auckland
1829237,2102,Lyndon Place,Manurewa,Auckland
3052050,7572,Lyndon Road,"Lake Coleridge,Springfield",
1786083,7395,Lyndon Road,Waiau,
1805510,4122,Lyndon Road East,Hastings,
1803262,4122,Lyndon Road West,"Hastings,Saint Leonards",Hastings
1780589,7572,Lyndon Stock Road,Snowdon,Lake Coleridge
1779590,7392,Lyndon Street,Culverden,
1784237,,Lyndon Street,Riccarton,Christchurch
1779592,7332,Lyndon Street,Waiau,
1804285,4210,Lyndon Street,Waipawa,
3081154,7973,Lyndon Street,Washdyke,Timaru
1830502,2675,Lynd Road,"Ararimu,Mangatawhiri","Drury,Mangatawhiri"
1813053,3881,Lynds Road,Ohaupo,
1776002,9710,Lyne Street,Gore,
1777587,9630,Lyne Street,Nightcaps,
1832382,2022,Lynette Place,Mangere,Auckland
3080420,3579,Lynette Place,Pauanui,
1787004,8041,Lynfield Avenue,Ilam,Christchurch
1831656,1041,Lynfield Place,Mount Roskill,Auckland
3080034,3129,Lyngar Lane,Katikati,
1809384,3118,Lyn Grove,Papamoa Beach,Papamoa
1790388,7201,Lynley Crescent,Blenheim,
1841816,7671,Lynley Drive,West Melton,
1808733,3114,Lynley Park Drive,Omokoroa,
1829224,2010,Lynley Place,Pakuranga Heights,Auckland
1827382,2120,Lynley Terrace,Pukekohe,
1810384,3010,Lynmore Avenue,Lynmore,Rotorua
1829229,2102,Lynmore Drive,Hillpark,Auckland
1793872,6012,Lynmouth Avenue,Karori,Wellington
1816967,4310,Lynmouth Heights,Lynmouth,New Plymouth
1781205,7773,Lynnford Road,Hinds,Ashburton
1831114,0627,Lynngate Place,Hillcrest,Auckland
1840063,9384,Lynn Lane,Bannockburn,Cromwell
1936292,3210,Lynn Lane,Flagstaff,Hamilton
1786278,8013,Lynn Place,Mairehau,Christchurch
1829227,2023,Lynn Place,Otara,Auckland
1831198,0629,Lynn Road,Bayview,Auckland
1786380,7991,Lynn Road,Kakahu,Geraldine
1800393,6011,Lynn Road,Te Aro,Wellington
3011348,9010,Lynn Street,"Maori Hill,Wakari",Dunedin
3011350,7772,Lynn Street,Newland,Ashburton
1770178,9400,Lynn Street,Oamaru North,Oamaru
1816975,4310,Lyn Street,Lynmouth,New Plymouth
3022160,0793,Lynton Masters Lane,Coatesville,
1829236,2012,Lynton Road,Bucklands Beach,Auckland
1825773,1060,Lynton Road,Mount Wellington,Auckland
1816980,4310,Lynton Street,Upper Vogeltown,New Plymouth
1775040,9010,Lynwood Avenue,Maori Hill,Dunedin
1798084,4412,Lynwood Close,Takaro,Palmerston North
1806161,0792,Lynwood Grove,Dairy Flat,
1808934,3110,Lynwood Place,Brookfield,Tauranga
1807392,3210,Lynwood Place,Chedworth,Hamilton
1813473,3010,Lynwood Place,Owhata,Rotorua
1777590,9672,Lynwood Road,Hillside,Te Anau
1831226,0600,Lynwood Road,New Lynn,Auckland
1818363,7010,Lynwood Terrace,Bishopdale,Nelson
1825036,1025,Lyon Avenue,Mount Albert,Auckland
1830899,0883,Lyon Road,Waimauku,
1787205,7985,Lyon Road,Waitohi,Temuka
1822099,0630,Lyons Avenue,"Murrays Bay,Rothesay Bay",Auckland
1793882,6022,Lyons Crescent,Strathmore Park,Wellington
1830549,2471,Lyons Road,Mangatawhiri,
1793950,5710,Lyon Street,"Featherston,South Featherston",Featherston
1807393,3204,Lyon Street,Frankton,Hamilton
1776294,9810,Lyon Street,Glengarry,Invercargill
3044863,3800,Lyon Street,Kihikihi,Te Awamutu
1798770,4710,Lyon Street,Marton,
1819641,0200,Lyon Street,Opua,
1829218,2012,Lyren Place,Half Moon Bay,Auckland
1814069,3112,Lysaght Place,Welcome Bay,Tauranga
1817409,4672,Lysaght Road,Ohangai,Hawera
3041679,7991,Lysaght Road,"Orari Gorge,Woodbury",Geraldine
1781945,7910,Lysaght Street,Highfield,Timaru
1821774,0626,Lysander Crescent,Beach Haven,Auckland
1807394,3216,Lysander Place,Hillcrest,Hamilton
1812894,4332,Lysander Street,Stratford,
1820908,0985,Lysnar Road,Matakana,
1820907,0992,Lysnar Road,Wainui,
1802861,4010,Lysnar Street,Okitu,Gisborne
1805410,4970,Lys Road,Waitahora,Dannevirke
1792827,5018,Lyster Lane,Upper Hutt Central,Upper Hutt
1785712,8061,Lytham Green,Shirley,Christchurch
1829228,2024,Lytham Lane,Mangere East,Auckland
1792245,5022,Lyttelton Avenue,"Elsdon,Kenepuru,Porirua City Centre",Porirua
1822647,0620,Lyttelton Avenue,Forrest Hill,Auckland
1804221,4112,Lyttelton Crescent,Tamatea,Napier
3059375,8082,Lyttelton Marina,Lyttelton,
1782381,8024,Lyttelton Street,"Hillmorton,Somerfield,Spreydon",Christchurch
1790558,7811,Lyttelton Street,Kaniere,Hokitika
1786171,7608,Lyttelton Street,Lincoln,
1788085,7825,Lyttelton Street,Westport,
1830273,0910,Lyttle Lane,Warkworth,
3032575,4010,Lytton Road,"Awapuni,Elgin,Riverdale,Te Hapara",Gisborne
1831055,0624,Lytton Street,Devonport,Auckland
1797220,4702,Lytton Street,Feilding,
1810385,3010,Lytton Street,"Glenholme,Victoria",Rotorua
1793859,6012,Lytton Street,Wadestown,Wellington
1830846,0479,Lyver Road,Kaeo,
