road_id,postcode,name,locality,city
1839450,8025,Nabob Lane,Cracroft,Christchurch
3049997,8042,Nacelle Road,Wigram,Christchurch
1832639,1026,Nacton Lane,Avondale,Auckland
1793997,6035,Nadia Grove,Khandallah,Wellington
1828193,2022,Nadine Place,Mangere Bridge,Auckland
1837157,4312,Nadine Stanton Drive,Bell Block,New Plymouth
1832759,2016,Nad Place,East Tamaki Heights,Auckland
1791977,5011,Naenae Road,Naenae,Lower Hutt
1801071,4988,Naenae Road,Pahiatua,
1955003,3118,Naeo Close,Papamoa Beach,Papamoa
1810461,3010,Naera Place,Kawaha Point,Rotorua
1814122,3493,Nagar Lane,Cambridge,
3031863,0991,Nagle Cove,"Great Barrier Island (Aotea Island),Nagle Cove",Great Barrier Island (Aotea Island)
1833315,2013,Nagle Place,Golflands,Auckland
1793969,6035,Nagpur Terrace,Broadmeadows,Wellington
3080107,2110,Nagra Lane,Papakura,
1811243,2474,Naho Place,Meremere,Mercer
1806921,3600,Nahum Street,Paeroa,
1799355,4412,Nairn Crescent,Awapuni,Palmerston North
1832186,2023,Nairn Place,Otara,Auckland
1827328,2583,Nairn Road,Hunua,
1810462,3015,Nairn Road,Mangakakahi,Rotorua
1783673,8024,Nairn Street,"Addington,Spreydon",Christchurch
1775456,9302,Nairn Street,Arrowtown,
1774025,9591,Nairn Street,Beaumont,Lawrence
1793987,6011,Nairn Street,"Brooklyn,Mount Cook",Wellington
1777444,9875,Nairn Street,Fortrose,Tokanui
1772447,9010,Nairn Street,"Kaikorai,Wakari",Dunedin
1772831,9024,Nairn Street,Mosgiel,
1773085,9510,Nairn Street,Waikouaiti,
1773374,9230,Naish Street,Balclutha,
3083771,7630,Naish Street,Kaiapoi,
3079730,3210,Naismith Street,Chartwell,Hamilton
3084611,7183,Nakahi Lane,Pohara,Takaka
1829890,2105,Nakhle Place,Manurewa,Auckland
1803107,4189,Nakis Road,Mohaka,Wairoa
1793970,6022,Nakora Road,Karaka Bays,Wellington
1800416,6035,Nalanda Crescent,Broadmeadows,Wellington
1783663,8062,Nalder Place,Linwood,Christchurch
1777450,9877,Nally Road,Waimatua,Invercargill
1774687,9495,Nalsoe Street,Herbert,
3068655,1061,Namata Road,"One Tree Hill,Onehunga",Auckland
1840043,0632,Namsan Close,"Fairview Heights,Redvale",Auckland
3083818,3330,Namu Place,Richmond Heights,Taupo
1797941,4982,Namu Road,Mangatainoka,Pahiatua
1817314,4681,Namu Road,Opunake,
1790218,7805,Nancarrow Street,Greymouth,
2009572,7272,Nanchang Road,Burleigh,Blenheim
1842405,8025,Nancorne Lane,Halswell,Christchurch
1797293,4702,Nancy Avenue,Feilding,
1783677,,Nancy Avenue,Mairehau,Christchurch
3022506,9305,Nancy Lane,Wanaka,
1787545,9310,Nancy Place,Cromwell,
1804392,4203,Nancy Street,Takapau,
1841738,0420,Nancy Wake Place,Cable Bay,
3080418,7615,Nancy Wake Street,Rolleston,
2013503,2112,Nancy Wake Street,Takanini,Auckland
1822783,0602,Nandana Drive,Glen Eden,Auckland
3080811,6035,Nanda Way,Khandallah,Wellington
3078140,0612,Nandi Lane,Ranui,Auckland
1828171,2013,Nandina Avenue,East Tamaki,Auckland
1818520,2120,Nandina Lane,Pukekohe,
3082134,8025,Nandura Place,Wigram,Christchurch
1784657,8041,Nanette Street,Upper Riccarton,Christchurch
1989136,2120,Nanjing Road,Pukekohe,
1835293,2105,Nanleen Rise,Manurewa,Auckland
1797621,4775,Nannestads Line,Bunnythorpe,Palmerston North
1828194,2010,Nan Place,Pakuranga Heights,Auckland
1808364,3186,Nanric Lane,Pukehina,
1798352,5510,Nansen Place,Levin,
1787919,7891,Nansen Street,Millerton,Westport
1773068,9596,Nant Road,Ngapuna,Middlemarch
1777738,9610,Nantwich Street,Otautau,
1835225,3434,Naomi Place,Cambridge,
1828188,2102,Naomi Place,Manurewa,Auckland
1805287,4110,Naomi Street,Westshore,Napier
1832467,2016,Napa Court,Shamrock Park,Auckland
1779710,7383,Napenape Road,Domett,
1822333,0622,Napier Avenue,Takapuna,Auckland
1841430,8042,Napier Drive,Wigram,Christchurch
1801121,5036,Napier Grove,Waikanae Beach,Waikanae
1823949,1011,Napier Lane,Freemans Bay,Auckland
1775357,9495,Napier Place,Kakanui,Oamaru
3044263,,Napier Road,"Aokautere,Ashhurst,Ballance,Kelvin Grove,Papatawa,Roslyn,Terrace End,Whakarongo,Woodville","Aokautere,Ashhurst,Pahiatua,Palmerston North,Woodville"
3044261,,Napier Road,"Havelock North,Mangateretere","Hastings,Havelock North"
1812601,3330,Napier Road,"Hilltop,Maunganamu,Waipahihi",Taupo
1772459,9011,Napier Street,Belleknowes,Dunedin
1770650,9491,Napier Street,Enfield,Oamaru
1823953,1011,Napier Street,Freemans Bay,Auckland
1818303,4610,Napier Street,Hawera,
1803844,4112,Napier Street,Jervoistown,Napier
1793985,6022,Napier Street,Karaka Bays,Wellington
1787920,7891,Napier Street,Millerton,Westport
1817315,4616,Napier Street,Opunake,
1781884,7910,Napier Street,Parkside,Timaru
1777739,9822,Napier Street,Riverton/Aparima,
3008176,4110,Napier Terrace,"Bluff Hill,Hospital Hill",Napier
1810738,3981,Napinapi Road,Te Mapara,Te Kuiti
1795680,5711,Naples Street,Martinborough,
1800683,0632,Naples Way,Albany Heights,Auckland
1822328,0620,Napoleon Avenue,Milford,Auckland
1787631,8051,Napoleon Close,Harewood,Christchurch
1790066,7871,Napoleon Street,Ahaura,
1838387,7010,Napoli Way,The Wood,Nelson
3081665,3214,Napper Drive,Chartwell,Hamilton
3081272,8025,Napper Place,Halswell,Christchurch
1823230,0612,Napuka Road,Henderson Valley,Auckland
1828179,2025,Narada Place,Papatoetoe,Auckland
1793981,6035,Narbada Crescent,Khandallah,Wellington
1828175,2104,Narek Place,Manukau,Auckland
3046926,9291,Narrowdale Road,"Akatore,Milburn",Milton
3069399,5371,Narrow Neck Road,"Mangaroa,Whitemans Valley",Upper Hutt
1815940,3283,Narrows Lane,Tamahere,Hamilton
1813010,3282,Narrows Road,Rukuhia,Hamilton
1793449,5014,Naseby Grove,Wainuiomata,Lower Hutt
1838069,9396,Naseby Link Road,Naseby,
1783664,8014,Naseby Street,Merivale,Christchurch
1837402,7011,Nashi Place,Stoke,Nelson
1798599,4815,Nash Parade,Foxton Beach,Foxton
1800598,5810,Nash Place,Masterton,
1784081,8025,Nash Road,Aidanfield,Christchurch
3024166,4391,Nash Road,"Cardiff,Stratford",Stratford
1825239,1041,Nash Road,Mount Roskill,Auckland
1819218,0372,Nash Road,Tangowahine,Dargaville
1804010,4110,Nash Street,Marewa,Napier
1816766,4310,Nash Street,Marfell,New Plymouth
1801297,4410,Nash Street,Palmerston North,
1793129,5011,Nash Street,Taita,Lower Hutt
1770647,9495,Nasmyth Street,Kakanui,Oamaru
1793978,5028,Nassau Avenue,Grenada North,Wellington
1828172,2012,Nassau Court,Half Moon Bay,Auckland
1837514,2013,Nassipour Way,East Tamaki,Auckland
1784658,8051,Natalie Place,Harewood,Christchurch
1828174,2023,Natalie Place,Otara,Auckland
1791678,7201,Natalie Place,Witherlea,Blenheim
1788260,7010,Natalie Street,Toi Toi,Nelson
1793986,6012,Natalie Way,Karori,Wellington
1809636,3120,Natana Place,Whakatane,
1832685,0612,Natasha Lane,Henderson,Auckland
3078942,9371,Nathanael Place,Drift Bay,Queenstown
1796182,5032,Nathan Avenue,Paraparaumu Beach,Paraparaumu
1832485,2014,Nathan Close,Somerville,Auckland
3081582,7610,Nathaniel Archer Street,Woodend,
3082626,5888,Nathan Lane,Masterton,
1808362,3177,Nathan Place,Athenree,Waihi Beach
1800709,4478,Nathan Place,Bunnythorpe,Palmerston North
1784662,8051,Nathan Place,Harewood,Christchurch
1817542,3114,Nathan Place,Omokoroa,
1799366,4412,Nathan Place,West End,Palmerston North
1830655,0573,Nathan Road,Kaiwaka,
1819219,0376,Nathans Road,Waipoua,Aranga
1796834,4501,Nathan Street,Springvale,Whanganui
1791546,5028,Nathan Street,Tawa,Wellington
1772449,9085,Nathan Street,Upper Junction,Dunedin
1798252,4821,Nathan Terrace,Shannon,
1783680,8011,National Mutual Arcade,Christchurch Central,Christchurch
3082660,7832,National Street,Kumara,Greymouth
1808159,2696,Native Road,Pukekawa,
1805900,3216,Natland Street,Hamilton East,Hamilton
1792281,5024,Natone Street,Waitangirua,Porirua
1813585,3112,Nature Place,Greerton,Tauranga
1793131,5010,Natusch Road,Belmont,Lower Hutt
1825625,1081,Natzka Road,Ostend,Waiheke Island
1781424,7975,Naughton Road,Kerrytown,Timaru
1793979,6022,Naughton Terrace,Kilbirnie,Wellington
1832789,2016,Naul Place,East Tamaki Heights,Auckland
1801711,4586,Naumai Crescent,Mangamahu,Whanganui
1788800,7022,Naumai Place,Brightwater,
1816760,4310,Naumai Place,Spotswood,New Plymouth
1821346,0984,Naumai Road,Tauhoa,Wellsford
3084951,2582,Nau Mai Road,Clevedon,Clevedon
3032228,3295,Nau Mai Road,Raglan,
1789613,7010,Naumai Street,Atawhai,Nelson
1831432,1026,Naumai Street,Avondale,Auckland
1775889,9710,Naumai Street,Gore,
1789508,7120,Naumai Street,Motueka,
1819440,0592,Naumai Wharf Road,Ruawai,
1983055,5024,Naureen Palmer Grove,Aotea,Porirua
1830314,0204,Nautical Drive,Haruru,
1831228,0505,Nautical Heights,Mangawhai Heads,Mangawhai
3084726,0118,Nautical Lane,"One Tree Point,Ruakaka","Ruakaka,Whangarei"
1832571,0930,Nautilus Drive,Gulf Harbour,Whangaparaoa
1815842,3118,Nautilus Drive,Papamoa Beach,Papamoa
1835990,8083,Nautilus Place,Spencerville,Christchurch
1837414,7220,Nautique Place,Waikawa,Picton
1830322,2016,Navan Place,Dannemora,Auckland
3082111,8025,Navarra Road,Halswell,Christchurch
1823944,1071,Navarre Road,"Glen Innes,Glendowie",Auckland
3000938,5024,Naver Place,Papakowhai,Porirua
3085260,2585,Navigation Drive,Clevedon,Clevedon
3078752,3591,Navigation Drive,Cooks Beach,Whitianga
1799904,5024,Navigation Drive,Whitby,Porirua
1828185,2025,Navigator Place,Papatoetoe,Auckland
1831091,0630,Naviti Place,Browns Bay,Auckland
3079823,3118,Navy Lane,Papamoa,
1842717,7614,Navy Loop,Rolleston,
1781298,7011,Nayland Road,"Annesbrook,Stoke",Nelson
1783679,8081,Nayland Street,"Clifton,Sumner",Christchurch
1838888,9376,Naylor Loop Road,Matakanui,Omakau
1774792,9376,Naylor Road,Matakanui,Omakau
1776757,9793,Naylor Road,Nokomai,Athol
1837781,2022,Naylors Drive,Mangere,Auckland
1771309,9330,Naylor Street,Clyde,
1807475,3216,Naylor Street,Hamilton East,Hamilton
1782130,7924,Naylor Street,Waimate,
1785803,8024,Nazareth Avenue,Middleton,Christchurch
1804015,4112,Neagle Place,Greenmeadows,Napier
1822382,0629,Neal Avenue,Glenfield,Auckland
1804017,4110,Neal Crescent,Onekawa,Napier
3063400,4789,Neal Dow Street,"Crofton,Marton",Marton
1788261,7011,Neale Avenue,Stoke,Nelson
1831430,1010,Neales Lane,Auckland Central,Auckland
1828180,2013,Neales Road,East Tamaki,Auckland
1782321,7984,Neales Road,Maungati,Southburn
1791142,7273,Neal Road,"Rarangi,Spring Creek","Blenheim,Spring Creek"
1812091,3411,Neal Street,Putaruru,
1786070,7920,Neal Street,Temuka,
1831152,0627,Nea Place,Hillcrest,Auckland
1838002,0932,Neaptide Close,Red Beach,
1828192,2105,Nearco Street,Randwick Park,Auckland
2016741,9310,Neason Place,Cromwell,
1776741,9872,Neas Road,Waihopai,Invercargill
1804393,3597,Neate Road,Pipiroa,Ngatea
3083876,2124,Neate Street,Paerata,Pukekohe
1775114,9597,Neath Street,Middlemarch,
1770644,9482,Neath Street,Moeraki,
1779038,8042,Neathwest Avenue,Broomfield,Christchurch
1783656,8025,Neave Place,Hillmorton,Christchurch
1780647,7675,Neave Road,"Rolleston,West Melton",
1806357,3578,Neavesville Road,Puriri,Thames
1793977,6021,Nebraska Way,Brooklyn,Wellington
1830616,0370,Neck Road,Arapohue,Dargaville
1832805,0602,Nectar Avenue,Glen Eden,Auckland
3078734,0614,Nectarine Way,Massey,Auckland
1785720,8083,Nederland Avenue,Burwood,Christchurch
1818582,2013,Nedlands Place,Burswood,Auckland
3083515,8025,Ned Place,Halswell,Christchurch
1827330,2578,Needham Road,Paerata,Pukekohe
1791138,7285,Needles Road,Ward,
1773432,9210,Needles Street,Kaitangata,
1770649,9491,Need Road,Alma,Oamaru
1809842,3127,Neely Place,Kawerau,
1828186,2102,Neems Place,Manurewa,Auckland
1819442,0593,Neems Road,Tinopai,
1838659,0602,Neesons Way,Glendene,Auckland
1789660,7183,Nees Road,Takaka,
1804011,4112,Neeve Place,Taradale,Napier
1805285,4112,Neeve Road,Taradale,Napier
1787013,7691,Neeves Road,Kaiapoi,
1808365,3173,Neewood Road,Ohauiti,Tauranga
3081874,3210,Negus Avenue,Chartwell,Hamilton
1795910,3334,Nehi Grove,Turangi,
1783791,8022,Nehru Place,Cashmere,Christchurch
1823942,1071,Nehu Street,Orakei,Auckland
1795414,5713,Neiches Lane,Clareville,Carterton
1772452,9011,Neidpath Road,Mornington,Dunedin
1787918,7891,Neighbours Street,Waimangaroa,Westport
3081722,7999,Neil Anderson Way,Lake Tekapo,
1823237,0610,Neil Avenue,Te Atatu Peninsula,Auckland
1825624,1971,Neil Avenue,Waiheke Island,
3080637,9024,Neil Collins Lane,Mosgiel,
3078390,2112,Neilds Close,Takanini,Auckland
1840050,4478,Neil Lane,Milson,Palmerston North
1841777,2018,Neill Boak Place,Beachlands,Auckland
1818286,4679,Neill Road,Kaponga,Hawera
1802461,4075,Neill Road,Matawai,
1777449,9884,Neill Road,Tokanui,
1833793,4398,Neill Road East,Eltham,
1780317,7672,Neills Road,Lincoln,
3062383,9018,Neill Street,"Abbotsford,Green Island",Dunedin
1787916,7891,Neill Street,Denniston,Westport
1784079,8042,Neill Street,Hornby,Christchurch
1822026,0632,Neilon Place,Northcross,Auckland
1828181,2013,Neilpark Drive,East Tamaki,Auckland
1809165,3112,Neil Place,Gate Pa,Tauranga
1810464,3015,Neil Road,Fairy Springs,Rotorua
1827326,2682,Neil Road,Otaua,
1836031,7886,Neils Beach Road,Jackson Bay,Haast
1840301,7891,Neilsen Road,Waimangaroa,Westport
1790640,7805,Neilson Road,Gladstone,Greymouth
1811013,3793,Neilson Road,Te Akau,Ngaruawahia
3060199,1061,Neilson Street,"Onehunga,Penrose",Auckland
1789713,7096,Neils Road,Spooners Range,Wakefield
1791141,7100,Neil Street,Havelock,
1814320,3600,Neil Street,Paeroa,
1826146,0112,Neil Street,Regent,Whangarei
1788263,7011,Neinei Lane,Stoke,Nelson
3082538,3330,Neinei Place,Wharewaka,Taupo
3084868,0782,Neinei Street,Westgate,Auckland
1796628,4691,Nei Street,Rangataua,Ohakune
3080987,1041,Nekuneku Lane,Mount Roskill,Auckland
1823947,1071,Neligan Avenue,Kohimarama,Auckland
3077701,0810,Nellie Drive,Kumeu,
1826149,0110,Nell Place,Raumanga,Whangarei
1790068,7875,Nelly Road,Hohonu,Kumara
1804745,4977,Nelly Street,Ormondville,
3049832,9391,Nelsen Ridge Road,Waikerikeri,Alexandra
1834716,5024,Nelson Avenue,Aotea,Porirua
1822146,0627,Nelson Avenue,Northcote Point,Auckland
1825623,1081,Nelson Avenue,Surfdale,Waiheke Island
3072095,7872,Nelson Creek Road,"Hochstetter,Ngahere","Moana,Ngahere"
1800644,5713,Nelson Crescent,Carterton,
1804008,4110,Nelson Crescent,Napier South,Napier
1793447,5014,Nelson Crescent,Wainuiomata,Lower Hutt
3079291,3114,Nelson Lane,Omokoroa,
1791140,7204,Nelson Place,Renwick,
1804018,4110,Nelson Quay,Ahuriri,Napier
1790219,7802,Nelson Quay,Cobden,Greymouth
3053814,9231,Nelson Road,"Balclutha,Stirling",
1819638,0182,Nelson Road,Hukerenui,Hikurangi
3053813,9386,Nelson Road,"Idaburn,Oturehua",Oturehua
1804981,4171,Nelson Road,Kereru,Hastings
1775875,9781,Nelson Road,Lochiel,Winton
3053818,,Nelson Road,"Makauri,Riverdale",Gisborne
1823233,0782,Nelson Road,Taupaki,
1816441,4375,Nelson Road,Urenui,
3067621,7220,Nelson Square,Picton,
1782035,7984,Nelsons Road,Albury,
1804939,4288,Nelsons Road,Ashley Clinton,Takapau
1795469,5711,Nelsons Road,Martinborough,
1803814,4182,Nelsons Road,Te Haroto,Napier
1780381,7572,Nelsons Road,Windwhistle,Hororata
1823952,1010,Nelson Street,Auckland Central,Auckland
1772450,9012,Nelson Street,"Caversham,Forbury",Dunedin
1775284,9534,Nelson Street,Clinton,
1804744,4930,Nelson Street,Dannevirke,
1775977,9710,Nelson Street,East Gore,Gore
1801468,4702,Nelson Street,Feilding,
1798600,4815,Nelson Street,Foxton Beach,Foxton
3034652,9812,Nelson Street,"Georgetown,Strathern",Invercargill
1790217,7805,Nelson Street,Greymouth,
1807476,3216,Nelson Street,Hamilton East,Hamilton
3034658,7700,Nelson Street,Hampstead,Ashburton
1779902,7385,Nelson Street,Hawarden,
1817516,4610,Nelson Street,Hawera,
1830858,0800,Nelson Street,Helensville,
3034662,7872,Nelson Street,Hochstetter,Moana
1827988,2014,Nelson Street,Howick,Auckland
1798350,5510,Nelson Street,Levin,
3034665,7201,Nelson Street,"Mayfield,Springlands",Blenheim
1789539,7891,Nelson Street,Millerton,Westport
1789661,7182,Nelson Street,Milnthorpe,Golden Bay / Mohua
1773430,9291,Nelson Street,Milton,
1796798,3122,Nelson Street,Opotiki,
1825824,1062,Nelson Street,Otahuhu,Auckland
1827894,2110,Nelson Street,Papakura,
1800292,5012,Nelson Street,Petone,Lower Hutt
1832059,2120,Nelson Street,Pukekohe,
1784200,8011,Nelson Street,Riccarton,Christchurch
1782131,7924,Nelson Street,Waimate,
1804472,4200,Nelson Street,Waipukurau,
1817085,4320,Nelson Street,Waitara,
1788088,7825,Nelson Street,Westport,
1810465,3010,Nelson Street,Whakarewarewa,Rotorua
1814764,3120,Nelson Street,Whakatane,
1800877,4500,Nelson Street,Whanganui,
3034670,4920,Nelson Street,Woodville,
1803330,,Nelson Street North,"Hastings,Mahora",Hastings
1803332,4122,Nelson Street South,Hastings,
1781880,7910,Nelson Terrace,Seaview,Timaru
1796417,3992,Nelvin Avenue,Manunui,Taumarunui
1842404,2684,Nemo Drive,Awhitu,
1779582,7332,Nemona Street,Waiau,
1770215,9400,Nen Street,Oamaru,
3055962,9483,Nenthorn Road,"Macraes,Moonlight,Nenthorn",Macraes Flat
1786973,8053,Nepal Place,Burnside,Christchurch
1793996,6035,Nepal Place,Khandallah,Wellington
1825653,1971,Nepean Avenue,Waiheke Island,
1832758,2016,Nephin Place,East Tamaki Heights,Auckland
3078434,0610,Nephrite Lane,Henderson,Auckland
3080403,7615,Nepia Lane,Rolleston,
1797125,4572,Nepia Road,Marybank,Whanganui
1770966,9310,Neplusultra Street,Cromwell,
1792700,5019,Nepoui Crescent,Silverstream,Upper Hutt
1951428,0932,Neptune,Red Beach,
1821779,0626,Neptune Avenue,Beach Haven,Auckland
1799331,0174,Neptune Drive,Whangarei Heads,
1785507,8083,Neptune Place,Waimairi Beach,Christchurch
1804746,4930,Neptune Street,Dannevirke,
1841678,9016,Neptune Street,Dunedin Central,Dunedin
1828752,2112,Neralee Court,Conifer Grove,Takanini
2005733,0932,Nerehana Place,Red Beach,
3081361,0614,Neretva Avenue,Massey,Auckland
1822025,0630,Nereus Place,Mairangi Bay,Auckland
1836909,9372,Nereus Way,Glenorchy,
3077996,7886,Nerger Creek Drive,Haast,
1810466,3015,Neri Crescent,Pomare,Rotorua
1837347,9304,Nerin Square,Lake Hayes,Queenstown
1829584,2105,Nerissa Place,Randwick Park,Auckland
3078584,0630,Nerita Place,Long Bay,Auckland
3083652,4999,Nero Lane,Woodville,
1788803,7096,Nesbitts Road,Golden Downs,Wakefield
1785532,7672,Nesbitts Road,Lincoln,
1809635,3194,Nesbitt Street,Matata,
1828749,2104,Nesdale Avenue,Wiri,Auckland
3047382,5024,Ness Grove,Papakowhai,Porirua
1830849,0479,Ness Road,Totara North,Kaeo
1830689,0295,Ness Road,Waipapa,
1778314,9812,Ness Street,"Appleby,Invercargill,Kew",Invercargill
1774015,9591,Ness Street,Beaumont,Lawrence
1771182,9396,Ness Street,Naseby,
3058828,2585,Ness Valley Road,"Clevedon,Ness Valley",Clevedon
3079048,7615,Nestling Place,Rolleston,
1799883,6037,Neston Grove,Churton Park,Wellington
1832885,0612,Neta Grove,Henderson,Auckland
3084920,0373,Netana Panapa Lane,Kaihu,Kaihu
1814765,3191,Netana Road,Ruatoki,Taneatua
1785502,8061,Netherby Lane,Shirley,Christchurch
1772454,9011,Netherby Street,"Balaclava,Kenmure",Dunedin
3082877,7614,Nethercote Way,Rolleston,
1800414,6037,Nether Green Crescent,Johnsonville,Wellington
1822782,0602,Netherlands Avenue,Kelston,Auckland
1793982,6022,Netherleigh Street,Seatoun,Wellington
1775327,9587,Netherton Road,Edievale,Tapanui
3078662,4295,Netherton Road,"Elsthorpe,Omakere",
1823940,0600,Netherton Street,New Windsor,Auckland
1783675,8061,Netley Place,Aranui,Christchurch
1814826,3910,Nettie Street,Te Kuiti,
1842985,7615,Nettleship Way,Rolleston,
1788806,7096,Nettletons Road,Tapawera,Wakefield
1808744,3119,Nettlingham Place,Te Puke,
3083893,2402,Netu Lane,Pokeno,
3042009,7175,Neudorf Road,"Dovedale,Upper Moutere","Upper Moutere,Wakefield"
3031034,0210,Neumann Street,Kawakawa,
1808415,7901,Neuman Road,Twizel,
1798979,4789,Neumans Line,Marton,
1828747,2010,Nevada Avenue,Pakuranga Heights,Auckland
1816768,4312,Nevada Drive,Merrilands,New Plymouth
1792703,5018,Nevada Grove,Totara Park,Upper Hutt
1807477,3216,Nevada Road,Silverdale,Hamilton
1777745,9689,Nevada Street,Wreys Bush,Otautau
1839261,4414,Nevada Way,Kelvin Grove,Palmerston North
1778606,9875,Neva Street,Fortrose,Tokanui
3025820,9782,Neva Street,Limehills,Winton
3009667,6022,Nevay Road,"Karaka Bays,Maupuia,Miramar,Seatoun",Wellington
1816761,4312,Neve Place,Strandon,New Plymouth
3078747,8025,Nevermore Place,Halswell,Christchurch
1831913,0193,Neville Road,Waiotira,
3072056,9012,Neville Street,"Caversham,South Dunedin",Dunedin
1778607,9893,Neville Street,Dacre,Invercargill
1793967,6037,Neville Street,Johnsonville,Wellington
1822942,0600,Neville Street,New Lynn,Auckland
1823934,1022,Neville Street,Point Chevalier,Auckland
1783670,8024,Neville Street,Spreydon,Christchurch
1821357,0910,Neville Street,Warkworth,
3072058,7274,Neville Street,Witherlea,Blenheim
1774790,9387,Nevill Lane,Moa Creek,
1823303,0616,Nevill Road,Hobsonville,Auckland
1776345,9810,Nevis Crescent,Grasmere,Invercargill
1812266,3420,Nevis Crescent,Tokoroa,
1786819,8061,Nevis Place,Avondale,Christchurch
1832288,2022,Nevis Place,Mangere,Auckland
1774364,9793,Nevis Road,"Kingston,Lower Nevis,Nevis","Cromwell,Kingston"
1771585,9372,Nevis Street,Kinloch,Glenorchy
1793339,5012,Nevis Street,Petone,Lower Hutt
1783662,8052,Newall Avenue,Bryndwr,Christchurch
1788265,7011,Newall Avenue,Stoke,Nelson
1795092,5810,Newall Place,Solway,Masterton
1818226,4381,Newall Road,"Newall,Warea",Warea
1807479,3216,Newall Street,Hamilton East,Hamilton
1809843,3127,Newall Street,Kawerau,
1792284,5022,Newall Street,Porirua City Centre,Porirua
1813506,3112,Newark Close,Gate Pa,Tauranga
1828751,2013,Newark Place,Otara,Auckland
1777446,9874,Newark Street,Wrights Bush,Invercargill
1773373,9230,Newarp Street,Balclutha,
1829940,2103,Newbegin Place,Weymouth,Auckland
1812600,3330,Newberry Place,Richmond Heights,Taupo
1783676,8023,Newbery Street,Opawa,Christchurch
1776342,9812,Newbie Place,Heidelberg,Invercargill
1778411,9812,Newbie Street,Heidelberg,Invercargill
1832796,2016,Newbliss Crescent,East Tamaki Heights,Auckland
1824914,1021,New Bond Street,Kingsland,Auckland
1791563,7201,Newbourne Crescent,Redwoodtown,Blenheim
1784656,8041,Newbridge Place,Ilam,Christchurch
3031301,,New Brighton Road,"Burwood,New Brighton,Shirley",Christchurch
1825827,1062,New Brighton Road,Mount Wellington,Auckland
1841829,7510,Newbrook Terrace,Darfield,
1793448,5014,Newburn Grove,Wainuiomata,Lower Hutt
3004529,0630,Newburn Road,Waiake,Auckland
1778141,9778,Newburn Street,Waikaia,
3083416,8051,Newbury Lane,Casebrook,Christchurch
1797548,4478,Newbury Line,"Bunnythorpe,Newbury","Feilding,Palmerston North"
1839058,3210,Newbury Place,Huntington,Hamilton
1837249,0632,Newbury Place,Schnapper Rock,Auckland
1837334,4112,Newbury Place,Taradale,Napier
1817086,4320,Newbury Place,Waitara,
1799368,4412,Newbury Street,Awapuni,Palmerston North
1772457,9014,Newbury Street,Company Bay,Dunedin
1828746,2023,Newbury Street,Otara,Auckland
3019036,,Newcastle Road,"Dinsdale,Grandview Heights,Nawton",Hamilton
1774867,9382,Newcastle Road,Hawea Flat,Lake Hawea
1771291,9330,Newcastle Street,Clyde,
1790739,7802,Newcastle Street,Cobden,Greymouth
3021435,9810,Newcastle Street,"Glengarry,Windsor",Invercargill
1770612,9410,Newcastle Street,Hampden,
1799369,4410,Newcastle Street,"Hokowhitu,Terrace End",Palmerston North
1803108,4198,Newcastle Street,Mahia,
1810942,3720,Newcastle Street,Ngaruawahia,
1783681,8011,Newcastle Street,Phillipstown,Christchurch
3021436,9776,Newcastle Street,Riversdale,
3021441,7891,Newcastle Street,Waimangaroa,Westport
1824915,1025,Newcastle Terrace,Mount Albert,Auckland
1794331,6012,Newcombe Crescent,Karori,Wellington
3003288,3496,Newcombe Road,Cambridge,
3003289,2682,Newcombe Road,Otaua,
1817762,7802,Newcombes Access,Coal Creek,Greymouth
1779903,7481,Newcombes Road,Amberley,
1793130,5011,Newcombe Street,Naenae,Lower Hutt
1791145,7210,Newcome Street,Seddon,
1842704,7614,New Creek Mews,Rolleston,
1787915,7895,New Creek Road,Upper Buller Gorge,Westport
1842351,0632,New Dawn Lane,Albany Heights,Auckland
1808555,3189,Newdick Road,Maketu,
1812111,3411,Newell Place,Putaruru,
1811992,3491,Newell Road,"Kinleith,Tokoroa",Tokoroa
1815040,3283,Newell Road,Tamahere,Hamilton
1823945,1022,Newell Street,Point Chevalier,Auckland
3084554,2019,Newelm Lane,Flat Bush,Auckland
1817090,4335,New Era Place,Okato,
1815535,3214,Newfield Drive,Fairview Downs,Hamilton
1840060,0602,Newfound Way,Glen Eden,Auckland
1791642,7220,Newgate Street,Picton,
1823307,0612,Newham Place,Henderson,Auckland
1841498,7197,Newhaven Crescent,Marahau,Motueka
1799356,4414,Newhaven Place,Roslyn,Palmerston North
1773834,9585,Newhaven Road,"New Haven,Owaka",Owaka
1784666,8083,Newhaven Street,Burwood,Christchurch
1824863,1051,Newhaven Street,Ellerslie,Auckland
1775007,9010,Newhaven Street,Liberton,Dunedin
1822027,0630,Newhaven Terrace,Mairangi Bay,Auckland
1818388,5024,Newhaven Way,Whitby,Porirua
1832290,2102,Newhook Lane,Manurewa,Auckland
3069556,9010,Newington Avenue,"Maori Hill,Roslyn",Dunedin
1822837,0612,Newington Road,Henderson,Auckland
1832787,2016,Newinn Crescent,East Tamaki Heights,Auckland
3011296,4410,Newland Court,Palmerston North,
1823302,0610,Newland Grove,Henderson,Auckland
1791832,5810,Newland Place,Masterton,
3023498,7986,Newland Road,"Clandeboye,Orton",Temuka
1775498,9492,Newlands Road,Incholme,Oamaru
1794341,6037,Newlands Road,Newlands,Wellington
1817089,4388,Newland Street,Everett Park,Inglewood
1783682,8025,Newland Street,Hoon Hay,Christchurch
1788266,7011,Newlands Way,Stoke,Nelson
1805568,4977,Newling Road,Ormondville,
1816762,4312,Newlyn Place,Welbourn,New Plymouth
1788802,7022,Newman Avenue,Brightwater,
1788267,7011,Newman Drive,Enner Glynn,Nelson
3080408,9400,Newman Drive,Oamaru,
1798250,5510,Newman Esplanade,Waitarere Beach,Levin
3004279,4900,Newman Road,Eketahuna,
1776175,9775,Newman Road,Maitland,Gore
1811829,3375,Newman Road,Mangateparu,Morrinsville
1772982,9596,Newman Road,Middlemarch,
1795673,4071,Newman Road,Ormond,Gisborne
3004276,3873,Newman Road,"Parawera,Wharepuhunga","Parawera,Te Awamutu"
3004274,7273,Newman Road,"Rapaura,Renwick","Blenheim,Renwick"
1833706,7614,Newman Road,Rolleston,
1821349,0993,Newman Road,Stillwater,Silverdale
1804383,4278,Newman Street,Ongaonga,
1814342,3610,Newman Street,Waihi,
1786507,7910,Newman Street,Waimataitai,Timaru
1794329,6011,Newman Terrace,Thorndon,Wellington
1816809,4412,Newmarket Lane,Awapuni,Palmerston North
1786975,8053,Newmark Street,Bishopdale,Christchurch
3084517,5810,Newmia Lane,Solway,Masterton
1793567,5028,Newnham Court,Tawa,Wellington
1832888,1024,Newnham Lane,Mount Eden,Auckland
3001984,3174,Newnham Road,Te Puna,Tauranga
1787080,7400,Newnham Street,Rangiora,
1784665,8041,Newnham Terrace,Upper Riccarton,Christchurch
3046873,,New North Road,"Avondale,Eden Terrace,Kingsland,Morningside,Mount Albert",Auckland
1781075,7774,New Park Road,Eiffelton,Ashburton
1813582,3118,Newport Key,Papamoa Beach,Papamoa
1807480,3214,Newport Place,Enderley,Hamilton
1822386,0620,Newport Place,Forrest Hill,Auckland
1788811,7096,Newport Road,Tapawera,Wakefield
1788807,7096,Newports Road,Tapawera,Wakefield
1783674,8061,Newport Street,Avondale,Christchurch
1772455,9011,Newport Street,Belleknowes,Dunedin
1798349,5510,Newport Street,Levin,
1773427,9220,Newport Street,Milton,
1800472,6022,Newport Terrace,Seatoun,Wellington
1781527,7010,Newport Way,The Brook,Nelson
1783665,8011,New Regent Street,Christchurch Central,Christchurch
3043025,,New Renwick Road,"Burleigh,Fairhall,Redwoodtown","Blenheim,Fairhall"
1817765,7805,New River Road,Marsden,Greymouth
3015340,4392,New Road,"Douglas,Huinga,Toko",Stratford
1787917,7823,New Road,Granity,
1813195,3920,New Road,Taumarunui,
1785134,7495,New Road,View Hill,Oxford
1832699,2016,Newry Close,East Tamaki Heights,Auckland
3079351,4478,Newry Drive,Milson,Palmerston North
1796180,5032,Newry Road,Raumati Beach,Paraparaumu
1819215,0391,Newsham Road,Te Kopuru,
1825473,1061,Newsome Street,Onehunga,Auckland
3083837,7832,New South Road,Kumara,Greymouth
1822023,0632,Newstead Avenue,Browns Bay,Auckland
1800681,4071,Newstead Lane,Makaraka,Gisborne
1805700,4930,New Street,Dannevirke,
1823941,1011,New Street,"Freemans Bay,Saint Marys Bay",Auckland
1807478,3216,New Street,Hamilton East,Hamilton
1788264,7010,New Street,Nelson,
1772927,9012,New Street,Saint Kilda,Dunedin
1780376,7500,New Street,Sheffield,
1811587,3401,New Street,Waharoa,
3057660,4893,Newth Road,"Foxton,Moutoa",Foxton
3048412,9689,Newton Greer Road,"Opio,Wairio",Otautau
1811493,4310,Newton King Street,Port Taranaki,New Plymouth
1786064,7520,Newton Place,Akaroa,
1787563,7410,Newton Place,Amberley,
1807481,3204,Newton Place,Frankton,Hamilton
1799367,4412,Newton Place,Westbrook,Palmerston North
1821356,0981,Newton Road,Dome Forest,Warkworth
3033141,1010,Newton Road,"Eden Terrace,Grey Lynn",Auckland
1781426,7982,Newton Road,Hazelburn,Pleasant Point
1826699,0170,Newton Road,Maungatapere,Whangarei
1820063,0473,Newton Road,Omapere,Kaikohe
1825654,1081,Newton Road,Oneroa,Waiheke Island
1800915,4574,Newton Road,Pakaraka,Whanganui
1806359,3591,Newton Road,"Purangi,Whenuakite",Whitianga
1811021,3894,Newton Road,Raglan,
1821355,0820,Newton Road,Riverhead,
1800710,4072,Newton Road,Tahunga,Pehiri
3036919,7675,Newtons Road,"Rolleston,Templeton","Christchurch,Rolleston"
1816763,4312,Newton Street,Fitzroy,New Plymouth
1808872,3116,Newton Street,Mount Maunganui,
1810940,3720,Newton Street,Ngaruawahia,
1805434,4977,Newton Street,Ormondville,
1802151,4010,Newton Street,"Outer Kaiti,Tamarau",Gisborne
1781879,7910,Newton Street,Watlington,Timaru
1833356,0294,Newton Watts Drive,Kerikeri,
1794339,6021,Newtown Avenue,Newtown,Wellington
3012165,9397,Newtown Road,Hyde,Kyeburn
1783655,8062,Newtown Street,Bromley,Christchurch
1823948,0600,New Windsor Road,"Avondale,New Windsor",Auckland
1795681,5711,New York Street,Martinborough,
1839999,5711,New York Street West,Martinborough,
3079028,2024,Nga Awa Place,Favona,Auckland
3046112,3378,Nga Awa Purua Road,Rotokawa,Taupo
3083336,2024,Ngae Place,Mangere East,Auckland
1814424,3210,Ngaere Avenue,Chartwell,Hamilton
3029771,4393,Ngaere Road,"Ngaere,Rawhitiroa","Eltham,Stratford"
1810941,3720,Ngaere Street,Ngaruawahia,
1835062,3334,Ngahana Place,Turangi,
3023143,4282,Ngahape Road,"Flemington,Hatuma","Flemington,Waipukurau"
3023144,3873,Ngahape Road,"Maihiihi,Ngahape,Otorohanga","Otorohanga,Te Awamutu"
3023142,5890,Ngahape Road,"Ngahape,Stronvar","Masterton,Wainuioru"
1826706,0184,Ngahau Bay Road,Helena Bay,Hikurangi
3085044,3493,Ngā Hau Road,Cambridge,Cambridge
1946729,7630,Ngahau Street,Kaiapoi,
1840367,0910,Ngahau Street,Warkworth,
1801384,4412,Ngahere Court,Awapuni,Palmerston North
1826077,0110,Ngahere Drive,Horahora,Whangarei
3081415,6037,Ngahere Grove,Glenside,Wellington
1801385,4472,Ngahere Park Road,Turitea,Palmerston North
1827495,2120,Ngahere Road,Pukekohe,
1777442,9782,Ngahere Road,Winton,
1787495,8041,Ngahere Street,Fendalton,Christchurch
1816526,4330,Ngahere Street,Inglewood,
1809012,3110,Ngahere Street,Otumoetai,Tauranga
1793133,5019,Ngahere Street,Stokes Valley,Lower Hutt
1806360,3691,Ngahere Terrace,Opoutere,Whangamata
1823937,1052,Ngahere Terrace,Parnell,Auckland
1821358,0931,Ngahere Views,Orewa,
3058530,3882,Ngahinapouri Road,"Ngahinapouri,Ohaupo",Ohaupo
1809785,3191,Ngahina Road,Tawera,Taneatua
1792090,4710,Ngahina Street,Marton,
1796008,5032,Ngahina Street,Paraparaumu,
1805619,4175,Ngahiriwa Place,Fernhill,Napier
1787922,7825,Ngahue Crescent,Carters Beach,Westport
1792285,5022,Ngahue Crescent,Elsdon,Porirua
1823313,0618,Ngahue Crescent,Whenuapai,Auckland
3029853,1072,Ngahue Drive,"Mount Wellington,Stonefields",Auckland
1812265,3420,Ngahue Place,Tokoroa,
1829822,0472,Ngahuhu Road,Pakaraka,Moerewa
1813373,3874,Ngahuia Place,Tokanui,Te Awamutu
1798976,4796,Ngahuinga Road,Taihape,
1823951,1021,Ngahura Street,"Eden Terrace,Mount Eden",Auckland
3084898,0932,Ngahuru Road,Wainui,Wainui
1810468,3015,Ngahu Street,Fairy Springs,Rotorua
1839168,3673,Ngahutoitoi Marae Road,Paeroa,
1828758,2022,Ngaio Avenue,Mangere Bridge,Auckland
1982531,0505,Ngaio Close,Mangawhai,
1812728,3434,Ngaio Crescent,Cambridge,
1793128,5010,Ngaio Crescent,Woburn,Lower Hutt
1801161,3592,Ngaio Drive,Matarangi,Whitianga
1842798,3592,Ngaio Drive,Matarangi,Whitianga
1794327,6035,Ngaio Gorge Road,Ngaio,Wellington
1779456,7581,Ngaio Grove,Robinsons Bay,
1786156,8971,Ngaio Lane,Charteris Bay,Governors Bay
1836960,0632,Ngaio Lane,Fairview Heights,Auckland
1785079,7630,Ngaio Lane,Kaiapoi,
1809782,3120,Ngaio Place,Edgecumbe,
1817506,4610,Ngaio Place,Hawera,
1795090,5810,Ngaio Place,Lansdowne,Masterton
1809404,3025,Ngaio Place,Murupara,
1815249,3330,Ngaio Place,Nukuhau,Taupo
1807482,3200,Ngaio Place,Pukete,Hamilton
1812595,3332,Ngaio Place,Wairakei,Taupo
1797552,4479,Ngaio Road,Halcombe,
1794337,6012,Ngaio Road,Kelburn,Wellington
1807963,3972,Ngaio Road,Maihiihi,Otorohanga
1801635,5032,Ngaio Road,Raumati Beach,Paraparaumu
1823318,0604,Ngaio Road,Titirangi,Auckland
1798258,5036,Ngaio Road,Waikanae,
1796960,4501,Ngaio Street,Castlecliff,Whanganui
1792858,5013,Ngaio Street,Eastbourne,Lower Hutt
1818015,4330,Ngaio Street,Inglewood,
1773833,9271,Ngaio Street,Kaka Point,
1798351,5510,Ngaio Street,Levin,
3023733,9014,Ngaio Street,Macandrew Bay,Dunedin
1803333,4120,Ngaio Street,Mahora,Hastings
1811514,3400,Ngaio Street,Matamata,
1826080,0110,Ngaio Street,Onerahi,Whangarei
1831428,1071,Ngaio Street,Orakei,Auckland
1825797,1062,Ngaio Street,Otahuhu,Auckland
1796269,5512,Ngaio Street,Otaki Beach,Otaki
1791139,7273,Ngaio Street,Rarangi,Blenheim
1783667,8022,Ngaio Street,Saint Martins,Christchurch
1788268,7011,Ngaio Street,Stoke,Nelson
1818292,4312,Ngaio Street,Strandon,New Plymouth
1822388,0622,Ngaio Street,Takapuna,Auckland
1802150,4010,Ngaio Street,Te Hapara,Gisborne
1800322,5014,Ngaio Street,Wainuiomata,Lower Hutt
1799357,4412,Ngaio Street,West End,Palmerston North
1831730,1051,Ngaire Avenue,Epsom,Auckland
3068008,0994,Ngaire Close,Wainui,
1789462,7010,Ngaire Lane,Nelson,
1789833,7010,Ngaire Place,Nelson,
1795817,4412,Ngaire Street,Longburn,Palmerston North
1840520,4477,Ngaire Street South,Longburn,Palmerston North
3081587,3118,Ngaire Way,Papamoa Beach,Papamoa
1840693,3191,Ngairo Road,Coastlands,Whakatane
3069990,3110,Ngai Tamarawaho Crescent,"Brookfield,Waikareao Estuary",Tauranga
1824578,1071,Ngaiwi Street,Orakei,Auckland
3081755,1072,Ngakahikatea Lane,Point England,Auckland
3017601,0486,Ngakapua Road,"Awanui,Waipapakauri",Awanui
1820506,0481,Ngakaroa Road,Ahipara,Kaitaia
3079993,2102,Ngakau Aroha Lane,Manurewa,Auckland
1817914,3981,Ngakaukore Road,Aria,
3080578,2578,Ngakau Road,Karaka,Papakura
1824584,1071,Ngake Street,Orakei,Auckland
3085053,0629,Ngakete Crescent,Glenfield,Auckland
3084590,3434,Ngaki Drive,Cambridge,
3085069,2577,Ngakinga Loop,Drury,Drury
1956217,2019,Ngaki Street,Flat Bush,Auckland
1805077,4197,Ngakoauau Road,Raupunga,
3064779,,Ngakonui-Ongarue Road,"Ongarue,Taringamotu",
1795573,5784,Ngakonui Road,Hinakura,Martinborough
1802601,4071,Ngakoroa Road,Ormond,Gisborne
1827327,2578,Ngakoroa Road,Runciman,Drury
3078036,2113,Ngakoro Road,"Karaka,Rosehill",Papakura
3085076,5036,Nga Koru Place,Waikanae,Waikanae
1816440,4375,Ngakoti Street,Urenui,
1836588,8042,Nga Mahi Road,Sockburn,Christchurch
1817882,4181,Nga Manu Place,Tangoio,Napier
3077414,5391,Nga Manu Reserve Road,Waikanae,
3077408,3110,Ngamarama Crescent,Bethlehem,Tauranga
1797066,4586,Ngamatea Road,Papanui Junction,Hunterville
1796616,4691,Ngamokai Road,Tangiwai,Ohakune
1804747,4974,Ngamoko Road,Norsewood,
1809891,3116,Ngamotu Place,Mount Maunganui,
1815218,3330,Ngamotu Road,"Hilltop,Taupo",Taupo
1808153,,Ngamotu Road,"Kaingaroa Forest,Matahina Forest,Rerewhakaaitu","Murupara,Rerewhakaaitu,Whakatane"
3004706,4310,Ngamotu Road,"Moturoa,Spotswood",New Plymouth
1803109,4108,Ngamotu Road,Wairoa,
1798646,4591,Ngamotu Road,Waverley,
3068323,7193,Ngamuka Bay,"Ngamuka Bay,Rangitoto ki te Tonga / D'Urville Island",Marlborough Sounds
1808559,3171,Ngamuwahine Road,Lower Kaimai,Tauranga
3078380,2112,Nganui Avenue,Takanini,Auckland
1829603,1071,Nga Oho,Orakei,Auckland
1832598,1010,Ngaoho Place,Parnell,Auckland
1809989,3971,Ngapaenga Road,Pomarangai,Piopio
3045020,4973,Ngapaeruru Road,"Te Uri,Waitahora,Weber","Dannevirke,Weber"
1796617,4632,Ngapakihi Road,"Ohakune,Raetihi",
3008015,4195,Ngapakira Road,Ruakituri,
1810769,3979,Ngapaki Road,Aria,
1798260,5036,Ngapaki Street,Waikanae Beach,Waikanae
1818004,4375,Ngapapa Street,Urenui,
1839427,3173,Nga Parae Road,Oropi,
3025151,9494,Ngapara-Georgetown Road,"Georgetown,Island Cliff,Ngapara",Oamaru
1808560,3189,Ngaparaoa Drive,Maketu,
1770883,9320,Ngapara Street,Alexandra,
1821352,0932,Ngapara Street,Red Beach,
1824913,1025,Ngapawa Street,Sandringham,Auckland
3057789,3982,Ngapeke Road,"Otewa,Otorohanga,Rangitoto","Otorohanga,Te Kuiti"
1809374,3175,Ngapeke Road,Welcome Bay,Tauranga
3029868,5571,Ngapera Street,Hokio Beach,Levin
1840983,3381,Ngapera Way,Omori,Turangi
1833951,7120,Ngapiko Place,Motueka,
1824572,1071,Ngapipi Road,Orakei,Auckland
3017887,0281,Ngapipito Road,"Kaikohe,Moerewa",
3084249,2019,Nga Pona Toru Road,Flat Bush,Auckland
1825558,1061,Ngapora Street,Onehunga,Auckland
3082752,3118,Nga Potiki Lane,Papamoa Beach,Papamoa
1795574,5782,Ngapotiki Road,"Aorangi Forest Park,White Rock","Aorangi Forest Park,Martinborough"
1796007,5032,Ngapotiki Street,Paraparaumu Beach,Paraparaumu
1805982,3073,Ngapouri Road,Waiotapu,Reporoa
1788269,7010,Ngapua Place,Atawhai,Nelson
1820192,0405,Ngapua Place,Kaikohe,
1803818,4182,Ngapua Road,Te Haroto,Napier
1837348,0474,Ngapuhi Road,Kaikohe,
1824575,1050,Ngapuhi Road,Remuera,Auckland
1837352,0295,Ngapuhi Road,Waipapa,
1796956,4501,Ngapuhi Street,Saint Johns Hill,Whanganui
1842101,0192,Ngapuke Lane,Parua Bay,
1829860,0984,Ngapuke Road,Kaukapakapa,
1842540,3994,Ngapuke Road,"Manunui,Ngapuke,Taringamotu","Taringamotu,Taumarunui"
1771901,9596,Ngapuna Road,"Middlemarch,Ngapuna",Middlemarch
1822385,0632,Ngarahana Avenue,Paremoremo,Auckland
3084850,1072,Ngārahu Lane,St Johns,Auckland
1817652,4591,Ngarahu Road,Waverley,
3084131,0985,Ngarara Court,Warkworth,
1801495,,Ngarara Road,Waikanae,
1808873,3116,Ngarata Avenue,Mount Maunganui,
1797786,4996,Ngarata Road,Alfredton,Eketahuna
3016633,3074,Ngareta Road,"Mourea,Okawa Bay",Rotorua
1800028,4710,Ngareta Street,Marton,
1821350,0983,Ngarewa Drive,Mahurangi West,Warkworth
1818228,4684,Ngariki Road,Rahotu,Opunake
1804012,4112,Ngarimu Crescent,Taradale,Napier
1794330,6035,Ngarimu Grove,Ngaio,Wellington
1842279,3575,Ngarimu Heights Row,Thornton Bay,Thames
1806361,3575,Ngarimu Lane,Thornton Bay,Thames
1808871,3116,Ngarimu Place,Mount Maunganui,
1825799,1072,Ngarimu Road,Panmure,Auckland
1783658,8061,Ngarimu Street,"Avonside,Linwood",Christchurch
1790215,7805,Ngarimu Street,Greymouth,
1803497,4130,Ngarimu Street,Havelock North,
1816285,3926,Ngarimu Street,Ohura,
1777741,9822,Ngarimu Street,Riverton/Aparima,
1799354,4414,Ngarimu Street,Roslyn,Palmerston North
1797064,4574,Ngarino Road,Kai Iwi,Whanganui
1792091,4710,Ngarino Street,Marton,
3082060,3510,Ngaroma Crescent,Whitianga,
1854420,0618,Ngaroma House Drive,"Hobsonville,Limeburners Bay",Auckland
1808558,3189,Ngaroma Lane,Maketu,
1825557,1023,Ngaroma Road,Epsom,Auckland
1786105,7384,Ngaroma Road,Ferniehurst,Cheviot
1807965,3874,Ngaroma Road,Wharepuhunga,Te Awamutu
1817513,4673,Ngarongo Road,Normanby,Hawera
1809990,3910,Ngarongo Street,Te Kuiti,
1816525,4390,Ngaro Road,Tariki,Stratford
3083052,3710,Ngaro Street,Te Kauwhata,
1803669,4186,Ngaroto Road,Dartmoor,Napier
1813019,3883,Ngaroto Road,Te Awamutu,
3083565,3288,Ngarua Lane,Horotiu,Hamilton
1811832,3380,Ngarua Lane,Ngarua,Waitoa
1811834,,Ngarua Road,"Ngarua,Waitoa",Waitoa
3050633,,Ngaruawahia Road,"Ngaruawahia,Te Kowhai","Hamilton,Ngaruawahia"
3083173,3330,Ngaru Crescent,"Richmond Heights,Wharewaka",Taupo
1816442,4320,Ngarue Place,Waitara,
1796830,3199,Ngarue Road,Cape Runaway,
1834685,3297,Ngarunui Beach Road,Raglan,
1805194,4172,Ngaruroro Avenue,Whakatu,Hastings
3084505,0614,Ngaruru Lane,Massey,Auckland
3055272,4781,Ngaruru Road,"Hunterville,Marton",
1804385,4278,Ngaruru Road,Ongaonga,
3080908,0931,Ngaru Way,Orewa,
1800145,5018,Ngata Grove,Trentham,Upper Hutt
1795212,5890,Ngatahuna Road,Stronvar,Wainuioru
1810472,3097,Ngatai Avenue,Ngongotaha,Rotorua
3079894,3118,Ngataierua Lane,Papamoa Beach,Papamoa
1806809,3574,Ngataipua Road,"Orongo,Pipiroa","Ngatea,Thames"
3061557,3110,Ngatai Road,"Bellevue,Otumoetai",Tauranga
1817759,4612,Ngatai Street,Manaia,
1813197,3920,Ngatai Street,Taumarunui,
1814827,3910,Ngatai Street,Te Kuiti,
1820507,0484,Ngataki Road,Ngataki,Pukenui
1810770,3981,Ngatamahine Road,Aria,
1797549,4816,Ngatapa Avenue,Ohakea,Bulls
3057772,4189,Ngatapa Road,"Putere,Tarawera","Napier,Raupunga"
1783934,8042,Ngata Place,Hei Hei,Christchurch
1809991,3988,Ngatapuwae Road,Waitomo,Te Kuiti
1803671,4175,Ngatarawa Road,"Bridge Pa,Roys Hill",Hastings
1809992,3978,Ngatarawa Road,Mahoenui,
1802400,4087,Ngatarewa Road,Te Araroa,
3079657,0624,Ngataringa Bay Access Road,Stanley Point,Auckland
1821878,0624,Ngataringa Road,Devonport,Auckland
1800914,4500,Ngatarua North Road,Putiki,Whanganui
1797060,4500,Ngatarua Road,Putiki,Whanganui
1824576,1010,Ngata Street,Auckland Central,Auckland
1794333,6035,Ngata Street,Ngaio,Wellington
1797550,4816,Ngata Street,Ohakea,Bulls
1799359,4410,Ngata Street,Palmerston North,
3083819,3330,Ngata Street,Richmond Heights,Taupo
1778661,9822,Ngata Street,Riverton/Aparima,
1795848,3381,Ngatau Street,Omori,Turangi
1797637,4787,Nga Tawa Road,Marton,
1841025,5883,Ngatawhai Road,Te Wharau,Masterton
1819217,0391,Ngatawhiti Road,Te Kopuru,
1779480,8971,Ngatea Road,Diamond Harbour,
3083685,3110,Ngatere Rise,Bethlehem,Tauranga
1800473,6022,Ngatiapa Street,Strathmore Park,Wellington
1791981,5391,Ngatiawa Road,"Reikorangi,Waikanae",Waikanae
1797551,4891,Ngatiawa Street,Himatangi Beach,
1788270,7010,Ngatiawa Street,Nelson South,Nelson
1831545,1061,Ngatiawa Street,One Tree Hill,Auckland
1942195,4183,Ngati Hinewera Lane,Waiohiki,Napier
1791788,5510,Ngati Huia Place,Waitarere Beach,Levin
1820505,0420,Ngatikahu Road,Taipa,
1840227,7100,Ngati Kuia Drive,Havelock,
1809403,3025,Ngatimanawa Road,Murupara,
3030675,3578,Ngati Maru Highway,"Kopu,Thames",Thames
1816443,4383,Ngatimaru Road,"Tikorangi,Waitara",Waitara
1816524,4387,Ngatimaru Terrace,Tarata,
3083832,5512,Ngati Ngarongo Road,Otaki,
1812342,3381,Ngati Parekaawa Drive,Kuratau,Turangi
1806362,3620,Ngati Porou Place,Whangamata,
1806003,3620,Ngati Pu Place,Whangamata,
1829605,0200,Ngatirahiri Road,Paihia,
3071996,4198,Ngatirangi Street,Nuhaka,
1832289,2103,Ngatira Place,Clendon Park,Auckland
1830977,0920,Ngatira Place,Snells Beach,
1811993,3482,Ngatira Road,"Lichfield,Ngatira","Mamaku,Putaruru"
1821351,0881,Ngatira Road,Muriwai,
1955362,7020,Ngati Rarua Street,Richmond,
1788271,7010,Ngatitama Street,Nelson South,Nelson
1806890,3681,Ngatitangata Road,Waihi,
3053948,0118,Ngatiti Place,One Tree Point,Whangarei
3014685,5022,Ngatitoa Street,Takapuwahia,Porirua
1793566,5028,Ngatitoa Street,Tawa,Wellington
1826698,0184,Ngatiwai Place,Whangaruru,Russell
1822381,0629,Ngatoa Place,Glenfield,Auckland
1826702,0178,Ngatoka Road,Mangapai,Whangarei
1819441,0593,Ngatoto Road,Tinopai,
3069910,4375,Ngatoto Road North,"Okoki,Purangi","Tarata,Urenui"
1818208,4387,Ngatoto Road South,Purangi,Tarata
3021948,6035,Ngatoto Street,"Khandallah,Ngaio",Wellington
1841870,3175,Nga Tuahine Place,Kairua,Papamoa
3082534,3385,Nga Tui Lane,Acacia Bay,Taupo
1812166,3420,Ngatuku Place,Tokoroa,
1839832,7612,Nga Tupuna Street,Pegasus,
1797942,4989,Ngaturi Aohanga Road,Pahiatua,
1793465,5014,Ngaturi Grove,Wainuiomata,Lower Hutt
1797059,4571,Ngaturi Road,Brunswick,
3082789,0622,Nga Tutu Place,Belmont,Auckland
1792887,5013,Ngaumatau Road,"Point Howard,Sorrento Bay",Lower Hutt
1779106,7472,Ngaumu Road,Ashley Forest,Loburn
1795211,5890,Ngaumu Road,Ngaumu,Wainuioru
1795872,3334,Ngaumu Street,Turangi,
1795202,5810,Ngaumutawa Road,"Masterton,Solway,Upper Plain",Masterton
3085134,0472,Ngaungau Lane,Oromahoe,Haruru
1841235,6035,Ngauranga Gorge Road,Ngauranga,Wellington
1812433,3330,Ngauruhoe Street,Hilltop,Taupo
1825126,1024,Ngauruhoe Street,Mount Eden,Auckland
1800008,4825,Ngauruhoe Street,Waiouru,
1801615,4826,Ngauruhoe Street,Waiouru,
1796467,3989,Ngauruhoe Terrace,Tongariro National Park,
1791982,4791,Ngaurukehu Road,Taihape,
3078761,0932,Nga Wai Lane,Red Beach,
3008223,0118,Ngawaka Lane,One Tree Point,Whangarei
1800723,3334,Ngawaka Place,Turangi,
3080082,2022,Nga Waka Place,Mangere,Auckland
1804481,4282,Ngawaka Road,Flemington,
1798978,4795,Ngawaka Road,Taihape,
1802442,4094,Ngawari Place,Whatatutu,Te Karaka
1808561,3188,Ngawaro Road,Ngawaro,Hamurana
1802399,4032,Ngawati Street,Ruatoria,
3084895,3378,Ngāwhā Place,Tauhara,Taupo
1819888,0472,Ngawha School Road,Kaikohe,
1819882,0472,Ngawha Springs Road,"Kaikohe,Ngawha Springs",Kaikohe
1788272,7011,Ngawhatu Road,Stoke,Nelson
3080341,3110,Ngawhetu Lane,Tauranga,
3084771,5024,Ngā Whetū Way,Cannons Creek,Porirua
3025235,4674,Ngawhini Road,"Ararata,Hawera,Normanby",Hawera
1819883,0281,Ngawhitu Road,Moerewa,
3083195,2113,Ngoi Way,Karaka,Papakura
3050771,,Ngongotaha Road,"Fairy Springs,Ngongotaha",Rotorua
1798259,4474,Ngui Road,Opiki,Palmerston North
1826697,0173,Ngunguru Ford Road,Kiripaka,Whangarei
1832495,0173,Ngunguru Heights Rise,Ngunguru,Whangarei
3085073,2577,Ngunguru Place,Drury,Drury
3063334,,Ngunguru Road,"Glenbervie,Kiripaka,Ngunguru,Tikipunga",Whangarei
3050530,7073,Nguroa Road,"Kahurangi National Park,Kaihoka,Puponga","Collingwood,Kahurangi National Park"
3067951,3393,Ngutumanga Road,"Otway,Te Aroha,Waihou",Te Aroha
3002916,3876,Ngutunui Road,"Honikiwi,Puketotara","Otorohanga,Pirongia"
1816286,3991,Ngutu Road,Aukopae,Taumarunui
1817514,4671,Ngutu Road,Okaiawa,Hawera
1811991,3491,Ngutuwera Road,Lichfield,Putaruru
1798645,4592,Ngutuwera Road,Waitotara,Whanganui
1831670,1042,Niagara Crescent,Lynfield,Auckland
1821677,0626,Niagara Place,Birkenhead,Auckland
1817654,4597,Niagara Road,Patea,
1783668,8061,Niagara Street,Wainoni,Christchurch
1792287,5024,Niagara Street,Waitangirua,Porirua
3013469,9884,Niagara Tokanui Highway,"Niagara,Quarry Hills,Tokanui,Waikawa Valley",Tokanui
3017001,9884,Niagara Waikawa Road,"Niagara,Waikawa",Tokanui
1829957,1060,Niall Burgess Road,Mount Wellington,Auckland
1796958,4500,Niblett Street,Whanganui,
3021111,5022,Niblick Lane,Titahi Bay,Porirua
1831066,0624,Niccol Avenue,Narrow Neck,Auckland
1842745,2675,Niccone Place,Bombay,
1806363,3510,Nicholas Avenue,Whitianga,
1783657,8062,Nicholas Drive,Linwood,Christchurch
1833308,2103,Nicholas Gibbons Drive,"Clendon Park,Weymouth",Auckland
1838007,5036,Nicholas Place,Waikanae Beach,Waikanae
1790036,7875,Nicholas Road,Hohonu,Kumara
3042253,2014,Nicholas Road,"Howick,Somerville",Auckland
1831548,1010,Nicholas Street,Auckland Central,Auckland
1772463,9014,Nicholas Street,Portobello,Dunedin
1804019,4112,Nicholas Street,Taradale,Napier
3054443,5581,Nicholas Street,Te Horo Beach,Otaki
1803668,4175,Nicholl Road,Twyford,Hastings
1793340,5012,Nicholls Avenue,Petone,Lower Hutt
3034534,1010,Nicholls Lane,Auckland Central,Auckland
1779108,7472,Nicholls Road,Ashley Forest,Loburn
3038074,4282,Nicholls Road,"Flemington,Waipukurau",
1783940,8025,Nicholls Road,Halswell,Christchurch
1811304,3371,Nicholls Road,Tauwhare,Hamilton
1783671,8013,Nicholls Street,Richmond,Christchurch
1842873,4112,Nichol Place,Greenmeadows,Napier
1796959,4500,Nichol Place,Whanganui East,Whanganui
1776742,9814,Nichol Road,"Greenpoint,Ocean Beach",Bluff
1777541,9818,Nichol Road,Halfmoon Bay / Oban,Stewart Island
1778806,9877,Nichol Road,Mokotua,Invercargill
1776178,9773,Nichol Road,Wendon Valley,Gore
3083861,5712,Nichols Lane,Greytown,
1829419,2025,Nicholson Avenue,Papatoetoe,Auckland
3082708,3800,Nicholson Avenue,Te Awamutu,
1841137,4572,Nicholson Drive,Kaitoke,Whanganui
1822387,0627,Nicholson Place,Hillcrest,Auckland
1810474,3077,Nicholson Road,"Atiamuri,Horohoro,Ngakuru","Atiamuri,Ngakuru,Rotorua"
1777448,9893,Nicholson Road,Brydone,Mataura
1840349,9773,Nicholson Road,Chatton North,Gore
1795422,5713,Nicholson Road,Clareville,Carterton
1794335,6035,Nicholson Road,Khandallah,Wellington
1815152,3484,Nicholson Road,Piarere,Tirau
1776176,9777,Nicholson Road,Upper Charlton,Gore
1841643,4597,Nicholson Road North,Patea,
1841642,4597,Nicholson Road South,Patea,
1772461,9012,Nicholson Street,Forbury,Dunedin
1791137,7100,Nicholson Street,Havelock,
1803334,4122,Nicholson Street,Mayfair,Hastings
1791136,7204,Nicholson Street,Renwick,
1770214,9400,Nicholson Terrace,Oamaru,
1819100,0372,Nichols Road,"Mamaranui,Tangowahine",Dargaville
3027385,9073,Nichols Road,Momona,Mosgiel
1772980,9074,Nichols Rock Road,Lee Stream,Outram
1776619,9812,Nichol Street,Heidelberg,Invercargill
3032719,9382,Nichol Street,Lake Hawea,
2016647,7604,Nickel Drive,Prebbleton,
1821347,0931,Nickell Place,Orewa,
1830080,1971,Nick Johnstone Drive,Waiheke Island,
3041559,2014,Nickleby Place,Mellons Bay,Auckland
1813024,3495,Nickle Road,Cambridge,
1800682,4072,Nicks Head Station Road,Muriwai,Manutuke
1788616,7096,Nicks Road,Stanley Brook,Wakefield
1838095,3210,Nicks Way,Flagstaff,Hamilton
1815851,3118,Nicola Court,Papamoa Beach,Papamoa
1842513,3210,Nicola Jean Place,Flagstaff,Hamilton
1828755,2022,Nicola Place,Mangere,Auckland
1823311,0602,Nicolas Avenue,Glen Eden,Auckland
3071541,4410,Nicolas Lane,West End,Palmerston North
1840372,4815,Nicolas Place,Foxton Beach,Foxton
1809016,3110,Nicolas Place,Judea,Tauranga
3079006,7615,Nicolau Avenue,Rolleston,
1792702,5018,Nicolaus Street,Trentham,Upper Hutt
1836090,3118,Nicole Place,Papamoa Beach,Papamoa
1786356,7777,Nicolls Road,"Elgin,Huntingdon",Ashburton
1790843,7201,Nicoll Street,Springlands,Blenheim
1779107,7472,Nicol Road,Ashley Forest,Loburn
1771290,9387,Nicolson Lane,Poolburn,Oturehua
1770619,9410,Nicolson Road,Hampden,
1780724,7700,Nicolson Street,Allenton,Ashburton
1778047,9720,Niddry Crescent,Winton,
1828745,2102,Nield Road,Manurewa,Auckland
1814001,3210,Nielsen Gardens,Rototuna,Hamilton
1823316,0614,Nielsen Place,Massey,Auckland
1790467,7881,Nielson Road,Kokatahi,
1832788,2016,Nier Place,East Tamaki Heights,Auckland
1821905,0630,Nigel Road,Browns Bay,Auckland
1805611,4130,Nigel Street,Havelock North,
1800067,5024,Niger Street,Cannons Creek,Porirua
1824573,1021,Niger Street,Grey Lynn,Auckland
1798693,9305,Niger Street,Wanaka,
3050528,4312,Niger Terrace,"New Plymouth,Strandon",New Plymouth
3025928,9689,Nightcaps Ohai Highway,"Nightcaps,Ohai,Tinkertown","Nightcaps,Ohai,Otautau"
1839533,9689,Nightcaps Opio Road,"Nightcaps,Opio","Nightcaps,Otautau"
3079248,0616,Nightfall Way,Hobsonville,Auckland
3067661,8053,Nightingale Place,Papanui,Christchurch
3077516,2019,Nightingale Road,Flat Bush,Auckland
1777441,9831,Nightingale Street,Wyndham,
1805759,4274,Nigra Road,Tikokino,
1824585,1071,Nihill Crescent,"Mission Bay,Orakei",Auckland
1811023,3225,Nihinihi Avenue,Raglan,
1810475,3010,Nihoriki Street,Koutu,Rotorua
1833019,0110,Nihotetea Lane,Maunu,Whangarei
1860450,3493,Nikale Street,Cambridge,
3003552,7071,Nikau Bay,"Nikau Bay,Pelorus Sound / Te Hoiere",Marlborough Sounds
1801128,3592,Nikau Close,Matarangi,Whitianga
1808870,3116,Nikau Crescent,Mount Maunganui,
1838675,7201,Nikau Drive,Redwoodtown,Blenheim
3082692,7201,Nikau Drive,Redwoodtown,Blenheim
1793132,5010,Nikau Grove,Woburn,Lower Hutt
1801354,5810,Nikau Heights,Lansdowne,Masterton
1789543,7893,Nikau Heights,Little Wanganui,Karamea
3080128,7371,Nikau Lane,Hapuku,Kaikoura
1797224,5583,Nikau Lane,Manakau,
1835880,0520,Nikau Lane,Maungaturoto,
3082259,5018,Nikau Lane,Timberlea,Upper Hutt
1799893,5032,Nikau Palm Road,"Nikau Valley,Paraparaumu",Paraparaumu
1842554,3225,Nikau Park,Raglan,
1815788,3120,Nikau Place,Edgecumbe,
1841599,4610,Nikau Place,Hawera,
1781883,7910,Nikau Place,Highfield,Timaru
1811515,3400,Nikau Place,Matamata,
1815764,3025,Nikau Place,Murupara,
1799775,5512,Nikau Place,Otaki,
1826081,0112,Nikau Place,Parahaki,Whangarei
1807483,3200,Nikau Place,Pukete,Hamilton
1784187,8011,Nikau Place,Riccarton,Christchurch
1827589,2123,Nikau Place,Waiuku,
3035422,7891,Nikau Road,"Hector,Mokihinui","Hector,Westport"
1825652,1081,Nikau Road,Oneroa,Waiheke Island
1825796,1062,Nikau Road,Otahuhu,Auckland
1801063,4988,Nikau Road,Pahiatua,
1792889,5013,Nikau Road,Point Howard,Lower Hutt
1827004,2472,Nikau Road,Pokeno,
1798253,5036,Nikau Road,Waikanae,
1814517,3874,Nikau Road,Waikeria,Te Awamutu
1791144,7195,Nikau Street,Duncan Bay,Marlborough Sounds
1792888,5013,Nikau Street,Eastbourne,Lower Hutt
1831547,1021,Nikau Street,"Eden Terrace,Grafton",Auckland
1816523,4330,Nikau Street,Inglewood,
1801683,5510,Nikau Street,Levin,
1796418,3924,Nikau Street,Manunui,Taumarunui
1822941,0600,Nikau Street,New Lynn,Auckland
1794326,6021,Nikau Street,Newtown,Wellington
3010340,4410,Nikau Street,"Palmerston North,Takaro",Palmerston North
1786415,7903,Nikau Street,Pleasant Point,
1803331,4120,Nikau Street,Saint Leonards,Hastings
1810476,3015,Nikau Street,Springfield,Rotorua
1788274,7011,Nikau Street,Stoke,Nelson
1805286,4112,Nikau Street,Taradale,Napier
1796961,4501,Nikau Street,Tawhero,Whanganui
1798262,4474,Nikau Street,Tokomaru,Palmerston North
1812432,3332,Nikau Street,Wairakei,Taupo
1790673,7805,Nikau Valley Road,Greymouth,
3083582,9372,Nikau Way,Glenorchy,
1842682,0820,Nikau Way,Riverhead,
3077932,3112,Nikorima Mews,Pyes Pa,Tauranga
3041239,4375,Nikorima Street,Urenui,
1842044,7010,Nile Lane,Nelson,
3047513,8083,Nile Place,North New Brighton,Christchurch
1822383,0620,Nile Road,"Forrest Hill,Milford",Auckland
1823315,0602,Nile Road,Kelston,Auckland
1788808,7173,Nile Road,"Mahana,Mapua","Mapua,Upper Moutere"
1781882,7910,Nile Street,"Highfield,Waimataitai",Timaru
1788275,7010,Nile Street,Nelson,
1772926,9012,Nile Street,Saint Clair,Dunedin
1790038,7805,Nile Street,Taylorville,Greymouth
1793300,5011,Nile Street,Waterloo,Lower Hutt
1796957,4500,Nile Street,Whanganui East,Whanganui
1789614,7010,Nile Street East,"Maitai,Nelson",Nelson
1788276,7010,Nile Street West,Nelson,
1803843,4182,Nilgiri Road,Poraiti,Napier
1981096,0618,Nils Andersen Road,Whenuapai,Auckland
1786222,7571,Nilson Lane,Kirwee,
1804483,4295,Nilsson Road,Kairakau,Elsthorpe
1841524,9412,Nimbus Drive,Omarama,
3037796,5036,Nimmo Avenue East,Waikanae,
3043202,5036,Nimmo Avenue West,Waikanae,
1770719,9494,Nimmo Road,Peebles,Waitaki Bridge
1833245,0473,Nimmo Street East,Rawene,Kaikohe
1820034,0473,Nimmo Street West,Rawene,Kaikohe
3082675,9012,Nimon Lane,Caversham,Dunedin
1803496,4130,Nimon Street,Havelock North,
1828762,2012,Nimrod Place,Half Moon Bay,Auckland
1830430,0632,Nimstedt Avenue,Oteha,Auckland
3064232,8024,Nina Lane,Somerfield,Christchurch
1832292,2102,Nina Place,Manurewa,Auckland
1778604,9776,Nine Mile Road,"Nine Mile,Riversdale",Riversdale
1787940,7892,Nine Mile Road,Westport,
1809013,3112,Nineteenth Avenue,Tauranga South,Tauranga
1820346,0484,Ninety Mile Beach Road,"Waiharara,Waipapakauri",Awanui
3060537,6012,Ninian Street,Highbury,Wellington
3034107,4373,Ninia Road,"Paraite,Sentry Hill",New Plymouth
3023197,0473,Ninihi Road,"Otaua,Taheke",Kaikohe
3080440,9371,Ninth Avenue,Lake Hayes,Queenstown
1809011,3110,Ninth Avenue,Tauranga,
1791489,7201,Ninth Lane,Blenheim,
1941598,2018,Ninth View Avenue,Beachlands,Auckland
1801052,4995,Nireaha Hukanui Road,Eketahuna,
1797838,4994,Nireaha Road,Eketahuna,
1840774,0612,Nirmal Place,Sunnyvale,Auckland
3084099,7614,Nirmal Way,Rolleston,
1799835,4410,Nirvana Court,Palmerston North,
1784857,8083,Nirvana Street,Brooklands,Christchurch
1829668,1041,Nirvana Way,Mount Roskill,Auckland
1826703,0179,Nisbet Road,Maungatapere,Whangarei
1807484,3204,Nisbet Street,Hamilton Central,Hamilton
1819881,0211,Nisbet Street,Moerewa,
3019751,9085,Nisbet Street,"Normanby,Pine Hill",Dunedin
1815219,3377,Nisbet Terrace,Kinloch,Taupo
1802441,4092,Nisbett Road,Motu,Te Karaka
1825472,1061,Nissan Place,Onehunga,Auckland
1841250,7886,Nisson Road,Jackson Bay,Haast
1837168,2105,Nita Place,The Gardens,Auckland
1776177,9772,Nithdale Gorge Road,Diamond Peak,Gore
1778382,9772,Nithdale Road,"Diamond Peak,Kaiwera",Gore
3078862,3112,Nithsdale Place,Pyes Pa,Tauranga
1776620,,Nith Street,"Appleby,Invercargill,West Invercargill",Invercargill
1774014,9587,Nith Street,Heriot,Tapanui
1770213,9400,Nith Street,Oamaru North,Oamaru
1797270,4779,Nitschke Road,Beaconsfield,Feilding
3078890,0610,Niu Lane,Te Atatu South,Auckland
3079598,5032,Niu Sila Way,Paraparaumu,
1815503,3112,Nivarna Way,Ohauiti,Tauranga
1776744,9879,Niven Road,Otatara,Invercargill
1783669,8061,Niven Street,Avondale,Christchurch
1804009,4110,Niven Street,"Onekawa,Pirimai",Napier
1825798,1062,Nixon Avenue,Otahuhu,Auckland
1828748,2022,Nixon Road,Auckland Airport,Auckland
1823304,0782,Nixon Road,Taupaki,
1782036,7987,Nixons Road,"Coal Stream,Fairlie",Fairlie
1830558,1021,Nixon Street,Grey Lynn,Auckland
1814425,3216,Nixon Street,Hamilton East,Hamilton
3052483,0112,Nixon Street,"Kensington,Regent",Whangarei
1813026,3800,Nixon Street,Kihikihi,Te Awamutu
1780725,7700,Nixon Street,Tinwald,Ashburton
1800897,4500,Nixon Street,Whanganui East,Whanganui
1801021,4774,Nixs Road,Apiti,
1787014,7476,No 10 Road,Swannanoa,
3039235,5371,No 1 Line,"Blue Mountains,Pinehaven,Silverstream",Upper Hutt
3039237,4572,No 1 Line,"Fordell,Kaitoke","Fordell,Whanganui"
1795626,5771,No 1 Line,Tauwharenikau,Tauherenikau
3055357,4475,No 1 Line Longburn,"Kairanga,Longburn,Tiakitahuna,Westbrook","Kairanga,Palmerston North"
1801020,4884,No 1 Line Pohangina,Pohangina,Ashhurst
1809784,3191,No 1 Road,Ruatoki,Taneatua
3046740,,No 1 Road,"Springdale,Waitoa",
1804456,,No 1 Road,Te Puke,
1815401,3079,No 1 Roadway,Minginui,
3014212,,No 2 Arterial Road,"Pukenui,Waiharara,Waipapakauri","Awanui,Pukenui"
1820351,0484,No 2 Arterial Road,Te Kao,
3040678,,No 2 Line,"Durie Hill,Fordell,Okoia","Fordell,Whanganui"
3040677,4884,No 2 Line,Pohangina,Ashhurst
3028152,,No 2 Road,"Oropi,Te Puke,Te Ranga","Oropi,Te Puke"
3028153,3380,No 2 Road,"Tatuanui,Te Puninga,Waitoa","Morrinsville,Waitoa"
1813450,3079,No 2 Roadway,Minginui,
3024812,0484,No 3 Arterial Road,"Pukenui,Waiharara,Waipapakauri","Awanui,Pukenui"
1820347,0484,No 3 Arterial Road,Te Kao,
3002529,,No 3 Line,"Okoia,Whanganui East",Whanganui
3002528,4884,No 3 Line,"Pohangina,Ruahine Forest Park","Ashhurst,Ruahine Forest Park"
1805987,,No 3 Road,Te Puke,
3048988,0484,No 4 Arterial Road,"Pukenui,Waiharara","Awanui,Pukenui"
1797680,4884,No 4 Line,Ashhurst,
3037384,3374,No 4 Road,"Springdale,Te Puninga","Morrinsville,Springdale"
1808556,3183,No 4 Road,Te Puke,
1813449,3079,No 4 Roadway,Minginui,
1811827,3380,No 5 Road,Springdale,
1820350,0484,No 6 Road,Waipapakauri,Awanui
1839651,4789,No 7 Line,Lake Alice,Bulls
3056890,3380,No 7 Road,"Springdale,Waitoa",
1805989,3374,No 8 Road,Springdale,
1811833,3374,No 8 Road Extension,Springdale,
3037177,3380,No 9 Road East,"Springdale,Te Puninga","Morrinsville,Springdale"
1830975,0994,Noakes Hill Road,Puhoi,Warkworth
1819260,0474,Noall Road,Donnellys Crossing,
1831314,0610,Noall Street,Te Atatu Peninsula,Auckland
1948734,7678,Nobeline Drive,Rolleston,
1805540,4110,Nobel Road,Maraenui,Napier
1795327,5713,Nobel Street,Carterton,
1830976,0891,Nobilo Road,Kumeu,
1802741,4078,Noble Campbell Road,Tiniroto,Manutuke
1841391,7400,Noble Close,Rangiora,
1839003,2019,Noble Court,Flat Bush,Auckland
1804556,3129,Noble Johnston Drive,Katikati,
3080698,2402,Noble Lane,Pokeno,
1808562,3177,Noble Lane,Tahawai,
1805876,3216,Nobleman Place,Hamilton East,Hamilton
1783938,8025,Noble Place,Halswell,Christchurch
1776181,9772,Noble Road,Charlton,Gore
1948392,9371,Nobles Lane,Lower Shotover,Queenstown
1812429,3330,Noble Street,Nukuhau,Taupo
1773679,9585,Noble Street,Owaka,
1827588,2123,Noble Street,Waiuku,
1818056,4312,Nobs Line,Strandon,New Plymouth
1840585,3720,Nock Lane,Ngaruawahia,
3078499,6972,Noel Ashton Way,Makara,Wellington
1821354,0931,Noel Avenue,Orewa,
1802152,4010,Noel Bull Avenue,Te Hapara,Gisborne
1841284,2025,Noel Burnside Road,"Papatoetoe,Wiri",Auckland
3085250,7272,Noel Chandler Road,Burleigh,Blenheim
3080960,0573,Noel Close,Mangawhai Heads,Mangawhai
1831151,0629,Noeleen Street,Glenfield,Auckland
3083990,2112,Noel Hayden Street,Takanini,Auckland
1836706,7010,Noel Jones Drive,Marybank,Nelson
3053411,9679,Noel Lane,Fiordland National Park,
1809786,3120,Noel Mills Place,Whakatane,
1825384,1041,Noel Place,Mount Roskill,Auckland
1797788,4414,Noel Rodgers Place,Milson,Palmerston North
1812730,3432,Noel Street,Leamington,Cambridge
1812164,3420,Noel Street,Tokoroa,
3060372,0630,Noel Williams Place,Windsor Park,Auckland
3032103,9382,Noema Terrace,Lake Hawea,
1804384,4274,No Exit Road,Tikokino,
1829420,2024,Nogat Avenue,Papatoetoe,Auckland
3078357,0616,Nohanga Lane,Hobsonville,Auckland
3078410,2113,Nohoanga Road,Karaka,Papakura
1810802,3981,Nohonoa Road,Te Mapara,Te Kuiti
3007029,5022,Nohorua Street,Takapuwahia,Porirua
1800813,3989,Noho Street,Kakahi,
3080564,2578,Noia Way,Karaka,Papakura
3083817,3330,Noke Lane,Richmond Heights,Taupo
3039833,9793,Nokomai Road,Parawa,Athol
1842688,9305,Nokomai Street,Wanaka,
3082993,2681,Nola Avenue,Glenbrook,
1796001,5032,Nola Avenue,Raumati Beach,Paraparaumu
1828750,2023,Nola Crescent,Otara,Auckland
3078288,2110,Nola Dawn Avenue,Papakura,
1790635,7805,Nolan Crescent,Karoro,Greymouth
1840241,3129,Nolan Place,Katikati,
1824570,1051,Nolan Road,Greenlane,Auckland
1790464,7886,Nolan Road,Haast,
1818170,4674,Nolan Road,Hawera,
1808160,2697,Nolan Road,Onewhero,
1791188,7202,Nolans Road,Grovetown,Blenheim
1782322,7978,Nolans Road,Makikihi,Waimate
1775402,9011,Nolan Street,Balaclava,Dunedin
1820299,0410,Nola Place,Kaitaia,
1823312,0604,Nola Road,Oratia,Auckland
1841322,3411,Nola Street,Putaruru,
1790037,7805,Noname Road,"Dunganville,Marsden","Arnold Valley,Greymouth"
1789387,7095,Noname Road,Golden Downs,Wakefield
1833180,0295,Noni Lane,Waipapa,
1795873,3334,Noni Street,Turangi,
1779704,7383,Nonoti Road,Cheviot,
1859637,8025,Noodlum Way,Halswell,Christchurch
3055190,9382,Nook Road,"John Creek,Lake Hawea",Lake Hawea
1826693,0174,Nook Road,Parua Bay,
1832845,0110,Noone Close,Onerahi,Whangarei
1774791,9387,Noones Road,Poolburn,Oturehua
3014271,9481,Noones Run Road,"Meadowbank,Mount Trotter",Palmerston
3023128,8083,Noosa Place,North New Brighton,Christchurch
1817262,4682,Nopera Road,Pihama,Opunake
1818007,4377,Nopera Road,Waiiti,Urenui
1783659,8013,Norah Street,Mairehau,Christchurch
1828756,2024,Norana Avenue,Favona,Auckland
1824588,1050,Norana Avenue,Remuera,Auckland
3014991,5018,Norana Road,"Brown Owl,Maoribank,Timberlea",Upper Hutt
1792701,5018,Norbert Street,Brown Owl,Upper Hutt
1801081,4814,Norbiton Road,Foxton,
3078151,3173,Norbury Road,Pyes Pa,Tauranga
1804822,4974,Norbyes Road,Ormondville,
1822863,0612,Norcross Avenue,"Glendene,Henderson",Auckland
1785418,8083,Norcross Street,Burwood,Christchurch
1824571,1050,Nordon Place,Remuera,Auckland
1821904,0632,Nor'East Drive,"Northcross,Torbay",Auckland
1774605,9400,Nore Street,Oamaru North,Oamaru
1773599,9073,Nore Street,Waihola,Milton
1826701,0174,Norfolk Avenue,Whangarei Heads,
1800937,4702,Norfolk Crescent,Feilding,
1803251,4122,Norfolk Crescent,Mayfair,Hastings
1796300,5512,Norfolk Crescent,Otaki Beach,Otaki
1794639,3434,Norfolk Drive,Cambridge,
1839363,0505,Norfolk Drive,Mangawhai Heads,Mangawhai
1792095,4500,Norfolk Drive,Otamatea,Whanganui
1792290,5024,Norfolk Grove,Cannons Creek,Porirua
1831973,2677,Norfolk King Drive,Ramarama,Drury
1813845,3194,Norfolk Lane,Thornton,Whakatane
1819884,0230,Norfolk Place,Kerikeri,
1829421,2025,Norfolk Place,Papatoetoe,Auckland
1807486,3200,Norfolk Place,Pukete,Hamilton
1789917,7011,Norfolk Place,Stoke,Nelson
1806365,3508,Norfolk Place,Tairua,
1827587,2123,Norfolk Rise,Waiuku,
1811826,3372,Norfolk Road,Motumaoho,Morrinsville
3003516,5791,Norfolk Road,"Mount Holdsworth,Upper Plain,Waingawa","Carterton,Masterton"
1821353,0932,Norfolk Road,Stanmore Bay,Whangaparaoa
1812434,3330,Norfolk Road,Waipahihi,Taupo
1817865,4388,Norfolk Road Lower,Norfolk,
1817866,4388,Norfolk Road Upper,Norfolk,
1774814,9302,Norfolk Street,Arrowtown,
1773340,9230,Norfolk Street,Balclutha,
1793298,5010,Norfolk Street,Belmont,Lower Hutt
1776017,9710,Norfolk Street,Gore,
1824574,1021,Norfolk Street,"Grey Lynn,Ponsonby",Auckland
1801133,5510,Norfolk Street,Levin,
1784971,7472,Norfolk Street,Loburn,
1794336,6012,Norfolk Street,Northland,Wellington
1817653,4520,Norfolk Street,Patea,
1826079,,Norfolk Street,"Regent,Whangarei",Whangarei
1778621,9776,Norfolk Street,Riversdale,
1771896,9012,Norfolk Street,Saint Clair,Dunedin
1783678,8052,Norfolk Street,St Albans,Christchurch
1805640,4112,Norfolk Street,Tamatea,Napier
1773980,9522,Norfolk Street,Tapanui,
1801630,5014,Norfolk Street,Wainuiomata,Lower Hutt
1777740,9689,Norfolk Street,Wreys Bush,Otautau
1815390,3112,Norfolk Way,Welcome Bay,Tauranga
1951086,0820,Norglen Lane,Riverhead,
1831631,1025,Norgrove Avenue,Mount Albert,Auckland
1797840,4996,Norlings Road,Eketahuna,
1823310,0610,Norma Avenue,Te Atatu South,Auckland
1788121,7020,Norman Andrews Place,Hope,Richmond
1795423,5791,Norman Avenue,Waingawa,Carterton
1788461,7110,Norman Bensemann Place,Takaka,
1818394,1024,Normanby Road,"Grafton,Mount Eden",Auckland
1827005,2580,Normanby Road,Karaka,Papakura
3051556,3600,Normanby Road,"Karangahake,Paeroa",
3051559,4678,Normanby Road,"Manaia,Normanby,Okaiawa","Hawera,Manaia"
1791790,7971,Normanby Road,Normanby,Timaru
1787637,7784,Normanby Road,Rakaia,
1840416,2113,Normanby Road East,Karaka,Papakura
1804007,4110,Normanby Street,Awatoto,Napier
3005769,0310,Normanby Street,Dargaville,
1816764,4312,Normanby Street,Fitzroy,New Plymouth
1776016,9710,Normanby Street,Gore,
1809844,3127,Normanby Street,Kawerau,
1813684,4394,Normanby Street,Midhirst,Stratford
1794328,6021,Normanby Street,Newtown,Wellington
1787808,7710,Normanby Street,Rakaia,
1772925,9012,Normanby Street,Saint Kilda,Dunedin
1805464,4920,Normanby Street,Woodville,
1800959,4777,Normanby Terrace,Kiwitea,Feilding
1832705,2105,Norman Close,The Gardens,Auckland
3042825,5010,Normandale Road,"Belmont,Melling,Normandale",Lower Hutt
1812430,3330,Normand Place,Richmond Heights,Taupo
3028460,3206,Normandy Avenue,"Melville,Waikato Hospital",Hamilton
1823308,0610,Normandy Place,Henderson,Auckland
1784855,8053,Normandy Street,Bishopdale,Christchurch
1814073,3200,Norman Hayward Place,Te Rapa Park,Hamilton
1814022,3110,Norman Heke Way,Bethlehem,Tauranga
1839371,7614,Norman Kirk Drive,Rolleston,
1794332,6037,Norman Lane,Johnsonville,Wellington
3011053,1072,Norman Lesser Drive,"Saint Johns,Stonefields",Auckland
3065157,9781,Norman Road,"Browns,Lochiel,Thomsons Crossing,Winton",Winton
1771213,9572,Norman Road,Ettrick,Roxburgh
1822380,0622,Norman Road,Hauraki,Auckland
1773602,9291,Norman Road,Table Hill,Milton
1802149,4010,Norman Road,Te Hapara,Gisborne
1823305,0604,Norman Road,Titirangi,Auckland
1806366,3691,Normans Access Road,Onemana,Whangamata
1820298,0410,Norman Senn Avenue,Kaitaia,
1831721,1061,Normans Hill Road,Onehunga,Auckland
3031991,4110,Normans Lane,Napier South,Napier
1812428,3330,Norman Smith Street,Nukuhau,Taupo
1832140,2104,Norman Spencer Drive,Papatoetoe,Auckland
1784906,7476,Normans Road,Eyrewell,West Eyreton
1786816,8052,Normans Road,Strowan,Christchurch
1777531,9782,Norman Street,Centre Bush,Winton
1818297,4310,Norman Street,Lower Vogeltown,New Plymouth
1814426,3200,Norman Street,Nawton,Hamilton
1774886,9013,Norman Street,Tainui,Dunedin
1817149,4320,Norman Street,Waitara,
1771584,9305,Norman Terrace,Wanaka,
1822384,0629,Normanton Street,Glenfield,Auckland
1807487,3216,Norma Place,Riverlea,Hamilton
3082062,3510,Norma Way,Whitianga,
1815679,3119,Norm Freeman Drive,Te Puke,
1833049,2105,Norm Pellow Drive,Manurewa,Auckland
3061588,6012,Norna Crescent,Kelburn,Wellington
1795982,5573,Norna Grove,Waikawa Beach,Manakau
1808557,3177,Noron Place,Tahawai,
1805990,3771,Norquay Road,Rangiriri,Te Kauwhata
1825038,1025,Norrie Avenue,Mount Albert,Auckland
1811022,3225,Norrie Avenue,Raglan,
1793297,5011,Norrie Grove,Naenae,Lower Hutt
1837963,7011,Norrie Place,Annesbrook,Nelson
1810478,3015,Norrie Place,Hillcrest,Rotorua
1812112,3411,Norrie Place,Putaruru,
1804016,4112,Norrie Place,Tamatea,Napier
1831974,2113,Norrie Road,Drury,
1828759,2023,Norrie Smith Avenue,Flat Bush,Auckland
1807489,3206,Norrie Street,Bader,Hamilton
1797206,4702,Norrie Street,Feilding,
1814800,3127,Norrie Street,Kawerau,
1798340,5510,Norrie Street,Levin,
1803255,4120,Norrie Street,Mahora,Hastings
1792291,5022,Norrie Street,Porirua City Centre,Porirua
1784849,8051,Norrie Street,Redwood,Christchurch
1808743,3119,Norrie Street,Te Puke,
1842029,7692,Norrie Way,Kaiapoi,
3052181,3200,Norris Avenue,Te Rapa,Hamilton
3019507,7692,Norris Drive,Swannanoa,
1793299,5011,Norris Grove,Taita,Lower Hutt
1813025,3881,Norrish Road,Ohaupo,
1826704,0179,Norris Road,Maungatapere,Whangarei
1804382,4279,Norris Road,Tikokino,
1777746,9689,Norris Road,Woodlaw,Otautau
1783936,7604,Norris Street,Prebbleton,
1809014,3110,Norris Street,Tauranga,
3084592,7675,Norris Watson Drive,Rolleston,
1838480,5810,Norris Way,Masterton,
3056884,4977,Norsewood Ormondville Road,"Norsewood,Ormondville",
1797678,4771,Norsewood Road,Apiti,
1822870,0600,Northall Road,New Lynn,Auckland
1770616,9410,Northampton Street,Hampden,
1819326,0505,North Avenue,Mangawhai Heads,Mangawhai
1821879,0624,North Avenue,Narrow Neck,Auckland
1786817,8013,North Avon Road,"Edgeware,Richmond",Christchurch
1787459,8025,Northaw Street,Hoon Hay,Christchurch
1790466,7886,North Bank Okuru Road,Haast,
3047333,,Northbank Road,"Kaituna,North Bank,Onamalutu","Renwick,Wairau Valley"
1786212,7783,Northbank Road,Southbridge,
3084039,0505,Northbase Drive,Mangawhai,
3060660,5036,North Bay,Waikanae,
1840104,3112,North Bay Road,Pyes Pa,Tauranga
1790039,7802,North Beach Road,"Cobden,Point Elizabeth",Greymouth
1780321,7608,North Belt,Lincoln,
1804381,4279,North Block Road,Tikokino,
1822732,0622,Northboro Road,"Belmont,Hauraki",Auckland
1781425,7992,North Boundary Road,Arundel,Geraldine
1773601,9291,North Branch Road,"Milton,Table Hill",Milton
1821608,0931,Northbridge Close,Orewa,
1841319,4810,North Bridge Mews,Ashhurst,
1822724,0632,Northbrook Close,Greenhithe,Auckland
1814623,4414,Northbrook Court,Roslyn,Palmerston North
1842532,3210,Northbrook Glen,Flagstaff,Hamilton
1860175,9371,Northbrook Place,Lower Shotover,Queenstown
1787518,7400,Northbrook Road,Rangiora,
1842618,9305,Northburn Road,Wanaka,
1771293,9383,Northburn Station Road,Northburn,Cromwell
1816744,0582,North Camp Road,Waipu,
1823306,0612,North Candia Road,Swanson,Auckland
3054257,9773,North Chatton Road,"Chatton,Chatton North",Gore
3078070,0505,Northcity Lane,Mangawhai Heads,Mangawhai
1798726,3210,North City Road,Rototuna North,Hamilton
3067746,0505,Northcoast Place,Mangawhai Heads,Mangawhai
1777526,9793,Northcoat Road,Fairlight,Athol
3040439,8052,Northcote Road,"Bishopdale,Northcote,Redwood",Christchurch
1818423,,Northcote Road,"Hillcrest,Northcote,Takapuna,Wairau Valley",Auckland
1802050,4010,Northcote Road,Te Hapara,Gisborne
1775317,9572,Northcote Street,Raes Junction,Lawrence
1793466,5014,Northcote Street,Wainuiomata,Lower Hutt
3018186,0920,North Cove,"Kawau Island,North Cove",Kawau Island
1808039,0582,North Cove Lane,Waipu,
1831021,0873,North Crescent,Kaukapakapa,
1805849,3710,Northcrest,Te Kauwhata,
1840743,0110,North Crest Drive,Onerahi,Whangarei
1832291,2102,Northcrest Way,Manurewa,Auckland
1838488,0176,Northcroft Drive,Ngararatunua,Whangarei
1795160,5871,Northcroft Road,Rangitumau,Masterton
1783666,8025,Northcroft Street,Hoon Hay,Christchurch
1822733,0622,Northcroft Street,Takapuna,Auckland
1815809,3330,Northcroft Street,Taupo,
1812431,3378,Northcroft Street,Waitahanui,Taupo
1832654,0632,Northcross Drive,Oteha,Auckland
1814789,3073,Northern Boundary Road,"Kaingaroa Forest,Rerewhakaaitu","Murupara,Rerewhakaaitu"
1833782,0632,Northern Rata Place,Albany,Auckland
1788277,7010,Northesk Street,"Nelson South,Toi Toi",Nelson
3069128,4110,Northe Street,Marewa,Napier
3002988,,North Eyre Road,"Ohoka,Swannanoa,West Eyreton",
1833730,4702,Northfeild Rise,Feilding,
1774887,9010,Northfield Avenue,Opoho,Dunedin
1812165,3420,Northfield Place,Tokoroa,
1784850,8051,Northfield Road,"Casebrook,Northcote",Christchurch
1823309,0816,Northfield Road,Waitakere,Auckland
1773600,9073,North Foreland Street,Waihola,Milton
1818324,0173,North Gable Way,Tutukaka,Whangarei
3000964,4312,Northgate,"Fitzroy,New Plymouth,Strandon",New Plymouth
1789239,7011,Northgate Way,Stoke,Nelson
1822106,0627,Northgrove Avenue,Hillcrest,Auckland
3061096,8016,Northhead Road,Pitt Island (Rangiauria),Chatham Islands
1786357,7778,North Hinds Road,Surrey Hills,Mount Somers
1826696,0181,North Hope Road,Hikurangi,
3077386,9305,Northlake Drive,Wanaka,
1800474,6012,Northland Road,Northland,Wellington
1824577,1021,Northland Street,Grey Lynn,Auckland
3043200,9332,Northland Street,Ranfurly,
1791843,6012,Northland Tunnel Road,"Kelburn,Northland",Wellington
1798339,5510,North Lane,Levin,
1805108,4120,Northlee Place,Flaxmere,Hastings
1813354,3800,Northleigh Place,Te Awamutu,
3023786,9876,North Makarewa Grove Bush Road,"Branxholme,Grove Bush,Makarewa",Invercargill
1777529,9876,North Makarewa School Road,"Makarewa,Tussock Creek","Invercargill,Winton"
1798310,5573,North Manakau Road,Manakau,
1815650,3210,Northmeadow Drive,Rototuna,Hamilton
3078133,7615,Northmoor Boulevard,Rolleston,
1814427,3214,Northolt Road,Fairview Downs,Hamilton
1779287,8013,North Parade,"Richmond,Shirley",Christchurch
1828754,2013,Northpark Avenue,Northpark,Auckland
3044036,3200,Northpark Drive,Te Rapa,Hamilton
1840190,0410,North Park Drive,Kaitaia,
3021650,7772,Northpark Road,"Allenton,Netherby,Newland",Ashburton
1831313,0772,North Piha Road,Piha,
1785716,5026,Northpoint Street,Plimmerton,Porirua
1838104,4312,Northpoint Way,Bell Block,New Plymouth
1819261,0374,North Pole Road,Arapohue,Dargaville
3050500,,North Rakaia Road,"Bankside,Southbridge",
3005847,4471,North Range Road,"Aokautere,Ballance","Aokautere,Pahiatua"
1839132,9400,North Ridge Drive,Oamaru North,Oamaru
3084179,3579,North Ridge Drive,Pauanui,
1813314,3210,North Ridge Drive,Rototuna North,Hamilton
1839183,0179,North Ridge Rise,Maunu,Whangarei
3079333,9391,Northridge Road,"Springvale,Waikerikeri",Alexandra
1837900,9371,North Ridge Road,Dalefield,Queenstown
1833301,0614,Northridge Terrace,Massey,Auckland
3016441,,North Road,"Anderson Park,Lorneville,Prestonville,Waikiwi",Invercargill
3016445,8016,North Road,Chatham Island,Chatham Islands
1828757,2582,North Road,Clevedon,
3016442,9825,North Road,Edendale,
1797841,4995,North Road,Eketahuna,
1795159,5882,North Road,"Eketahuna,Mauriceville",
3016457,,North Road,Kaitaia,
3016456,0210,North Road,Kawakawa,
1842227,5022,North Road,Kenepuru,Porirua
3016446,7096,North Road,Kohatu,Wakefield
1806764,3576,North Road,Mangatarata,Ngatea
3016444,,North Road,"Normanby,North East Valley,Upper Junction",Dunedin
1778662,9683,North Road,Otautau,
3016458,0484,North Road,"Pukenui,Waiharara","Awanui,Pukenui"
1811830,3374,North Road,Springdale,
1788278,7010,North Road,The Wood,Nelson
3016451,4378,North Road,Tongaporutu,Urenui
1808563,3178,North Road,Whakamarama,
1805627,4182,North Shore Road,Eskdale,Napier
1840902,9810,Northside Drive,Waikiwi,Invercargill
3047004,7473,Northside Drive,Waikuku,
3047005,0814,Northside Drive,Westgate,Auckland
1839984,5773,North Soldiers Settlement Road,South Featherston,Featherston
1789340,7096,Norths Road,Golden Downs,Wakefield
1791196,7178,Norths Road,Okaramio,Havelock
1797679,4771,North Street,Apiti,
1791729,4810,North Street,Ashhurst,
1790465,7882,North Street,Awatuna,Hokitika
1773681,9534,North Street,Clinton,
1790634,7872,North Street,Dunganville,Arnold Valley
1817343,4322,North Street,Eltham,
1787268,7925,North Street,Fairlie,
1801636,4702,North Street,Feilding,
1774499,9679,North Street,Fiordland National Park,
1795472,5712,North Street,Greytown,
3071669,4376,North Street,Mokau,
1811649,3300,North Street,Morrinsville,
1788801,7120,North Street,Motueka,
1810939,3720,North Street,Ngaruawahia,
1802715,3122,North Street,Opotiki,
1797965,4410,North Street,Palmerston North,
1793376,5012,North Street,Petone,Lower Hutt
1790842,7201,North Street,Redwoodtown,Blenheim
1781878,7910,North Street,"Seaview,Timaru,Watlington,West End",Timaru
1798983,4793,North Street,Taihape,
1813196,3920,North Street,Taumarunui,
1793568,5028,North Street,Tawa,Wellington
1812923,3800,North Street,Te Awamutu,
1818110,4320,North Street,Waitara,
1786416,7985,North Street,Winchester,
1826082,0110,North Street,Woodhill,Whangarei
1804876,4920,North Street,Woodville,
1772758,9018,North Taieri Road,"Abbotsford,Green Island",Dunedin
1780378,7510,North Terrace,Darfield,
1775888,9710,North Terrace,Gore,
1794340,6012,North Terrace,Kelburn,Wellington
1781664,7920,North Terrace,Temuka,
1804178,4110,North Terrace,Westshore,Napier
1781247,7930,North Terrace Road,Geraldine,
3061783,7986,North Town Belt,"Milford,Temuka",Temuka
1822734,0622,Northumberland Avenue,Belmont,Auckland
1800068,5024,Northumberland Street,Cannons Creek,Porirua
1774888,9010,Northumberland Street,North East Valley,Dunedin
3030232,9522,Northumberland Street,Tapanui,
1805381,4200,Northumberland Street,Waipukurau,
1785021,2120,Northvale Place,Pukekohe,
1839415,9720,Northview Avenue,Winton,
1771900,9011,Northview Crescent,Belleknowes,Dunedin
3080335,0110,North View Heights,Horahora,Whangarei
1807491,3200,Northview Lane,Nawton,Hamilton
1821615,0932,Northview Road,Stanmore Bay,Whangaparaoa
1990422,9300,Northview Terrace,Kawarau Falls,Queenstown
1840645,8051,Northwater Drive,Northwood,Christchurch
3083299,0410,North Way,Kaitaia,
1823317,0604,North Way,"Oratia,Titirangi",Auckland
3002572,3200,Northway Street,Te Rapa,Hamilton
1818541,0986,North West Anchorage,Omaha,
1786534,7901,North West Arch,Twizel,
3054789,7195,North West Bay,"Miro Bay,North West Bay,Tamuakawawe Bay,Tiraora Bay",Marlborough Sounds
1822736,0627,Northwick Place,Hillcrest,Auckland
1830117,0632,Northwood Avenue,Albany,Auckland
1839249,4120,Northwood Avenue,Mahora,Hastings
1820353,0484,Northwood Avenue,Pukenui,
1807940,9810,Northwood Avenue,Waikiwi,Invercargill
3018874,8051,Northwood Boulevard,"Belfast,Northwood",Christchurch
1842248,0910,Northwood Close,Warkworth,
1791776,6037,Northwood Close,Woodridge,Wellington
1813807,3330,Northwood Road,Nukuhau,Taupo
1784904,7475,Northwood Road,Swannanoa,
1837385,8051,Northwood Villas,Northwood,Christchurch
1787665,8082,Norton Close,Lyttelton,
1793296,5011,Norton Park Avenue,"Fairfield,Waterloo",Lower Hutt
1793295,5011,Norton Park Grove,Waterloo,Lower Hutt
1828753,2022,Norton Place,Mangere,Auckland
1816575,4310,Norton Place,Spotswood,New Plymouth
1787106,7610,Norton Place,Woodend,
1782323,7978,Norton Reserve Road,Waimate,
3025556,,Norton Road,"Akina,Longlands,Parkvale",Hastings
3025557,3204,Norton Road,"Frankton,Hamilton Central",Hamilton
1809015,3110,Norton Road,Otumoetai,Tauranga
1830805,0486,Norton Road,Waiharara,Awanui
1784856,8042,Nortons Road,"Avonhead,Sockburn",Christchurch
1798617,4815,Norton Street,Foxton Beach,Foxton
1775890,9710,Norton Street,Gore,
1819259,0391,Norton Street,Te Kopuru,
3081231,0582,Norts Way,Waipu,
1831312,0610,Norval Road,Henderson,Auckland
1826694,0172,Norvil Road,Titoki,Whangarei
1832911,2022,Norwalk Crescent,Mangere,Auckland
3061735,6012,Norway Street,Aro Valley,Wellington
1813021,3495,Norwegian Road,Rotoorangi,Cambridge
1803222,7010,Norwest Way,Atawhai,Nelson
1816579,4310,Norwich Avenue,Spotswood,New Plymouth
1805548,4112,Norwich Crescent,Tamatea,Napier
1801076,4412,Norwich Place,Awapuni,Palmerston North
1813747,3110,Norwich Place,Bethlehem,Tauranga
3070690,8082,Norwich Quay,Lyttelton,
1824586,1021,Norwich Street,Eden Terrace,Auckland
1774681,9410,Norwich Street,Hampden,
1783672,8062,Norwich Street,Linwood,Christchurch
1789615,7011,Norwich Street,Stoke,Nelson
3030327,6012,Norwich Street,"Wadestown,Wilton",Wellington
1817127,2019,Norwood Drive,Flat Bush,Auckland
1834011,4787,Norwood Lane,Marton,
1799754,6037,Norwood Place,Johnsonville,Wellington
1822738,0622,Norwood Road,Bayswater,Auckland
1780322,7677,Norwood Road,Burnham,
1802052,4010,Norwood Road,Kaiti,Gisborne
1806947,3600,Norwood Road,Paeroa,
1786818,8023,Norwood Street,"Beckenham,Sydenham",Christchurch
1776618,9812,Norwood Street,"Newfield,Rockdale",Invercargill
1771887,9010,Norwood Street,"Normanby,North East Valley",Dunedin
1781881,7910,Norwood Street,Waimataitai,Timaru
3080516,8025,Nostradamus Lane,Halswell,Christchurch
1790841,7201,Nosworthy Street,Blenheim,
1776569,2105,Notch Place,Alfriston,Auckland
1824583,1022,Notley Street,Westmere,Auckland
1825383,1041,Noton Road,Mount Roskill,Auckland
1819257,0371,Notorious East Road,Dargaville,
3027851,0371,Notorious West Road,"Dargaville,Mahuta",Dargaville
1790035,7872,Notown Road,Arnold Valley,
1827396,2120,Notre Dame Court,Pukekohe,
1829610,0632,Notre Dame Way,Albany,Auckland
1775115,9597,Nottage Street,Middlemarch,
3046887,4412,Nottingham Avenue,"Awapuni,Highbury",Palmerston North
1783937,8025,Nottingham Avenue,Halswell,Christchurch
1771894,9012,Nottingham Crescent,Calton Hill,Dunedin
1816092,3216,Nottingham Drive,Hamilton East,Hamilton
1832636,0630,Nottingham Place,Northcross,Auckland
3080878,3114,Nottingham Road,Omokoroa,
1826078,0110,Nottingham Road,Onerahi,Whangarei
1770618,9410,Nottingham Street,Hampden,
1794324,6012,Nottingham Street,Karori,Wellington
1824580,1022,Nottingham Street,Westmere,Auckland
1838121,7201,Nottinghill Drive,Springlands,Blenheim
1802974,4120,Nottingley Road,Frimley,Hastings
1804177,4110,Nott Street,Westshore,Napier
1837912,3330,Noumea Drive,Rangatira Park,Taupo
1831069,0630,Noumea Place,Mairangi Bay,Auckland
1838589,2022,Novak Place,Mangere,Auckland
1782641,8011,Nova Place,Christchurch Central,Christchurch
1824579,1025,Novar Place,Point Chevalier,Auckland
1829619,,Nova Scotia Drive,Waipu,
1819887,0475,Nova Street,Okaihau,
3082642,0185,Nova Way,Kauri,
1814685,3110,Novella Place,Brookfield,Tauranga
1813277,3118,Novelle Grove,Papamoa Beach,Papamoa
3083051,3710,Noverma Street,Te Kauwhata,
1817578,4672,Nowell Road,Hawera,
1806949,3600,Nowra Crescent,Paeroa,
1772893,9023,Noyna Road,Roseneath,Dunedin
1838377,0210,Noy Road,Kawakawa,
3081273,1061,Nuanua Lane,One Tree Hill,Auckland
1804182,4110,Nuffield Avenue,"Marewa,Napier South",Napier
1833949,7782,Nuffield Drive,Methven,
1825432,1023,Nuffield Lane,Newmarket,Auckland
1824587,1023,Nuffield Street,"Epsom,Newmarket",Auckland
1776048,9712,Nuffield Street,Mataura,
1793513,5028,Nuffield Street,Tawa,Wellington
1782639,8061,Nugent Street,Aranui,Christchurch
1816586,4312,Nugent Street,Bell Block,New Plymouth
1818904,1023,Nugent Street,Grafton,Auckland
1781117,7773,Nugent Street,Hinds,Ashburton
1842961,0616,Nugget Avenue,Hobsonville,Auckland
1796006,5032,Nugget Grove,Raumati Beach,Paraparaumu
1774548,9300,Nugget Knob,Queenstown,
1838524,9398,Nugget Lane,Patearoa,
1773598,9593,Nugget Stream Road,Manuka Creek,Lawrence
3000341,7077,Nuggety Creek Road,"Longford,Tutaki",Murchison
1835298,4198,Nuhaka Domain Road,Nuhaka,
1805584,4198,Nuhaka Opoutama Road,"Mahia,Nuhaka",
1796002,5032,Nuhaka Place,Paraparaumu Beach,Paraparaumu
1805078,4198,Nuhaka River Road,Nuhaka,
3017586,4820,Nui Dat Place,Linton,Palmerston North
1831315,0610,Nui Mana Place,Te Atatu South,Auckland
3077582,1062,Nuinga Lane,Mount Wellington,Auckland
3078636,4175,Nukanoa Lane,Bridge Pa,Hastings
3081206,2582,Nukuao Lane,Clevedon,
3085034,3282,Nukuhau Lane,Rukuhia,Hamilton
1817617,4591,Nukuhau Road,Waverley,
1812427,3330,Nukuhau Street,Taupo,
3055225,4588,Nukumaru Parade,Waiinu Beach,Whanganui
1826705,4587,Nukumaru Station Road,"Pakaraka,Waitotara",Whanganui
1821622,0931,Nukumea Common,Orewa,
3082909,2102,Nuku Place,Manurewa,Auckland
1851398,4320,Nukuroa Close,Waitara,
1809787,3191,Nuku Road,Taneatua,
3064334,0975,Nukuroa Road,"Kaiwaka,Oruawharo","Kaiwaka,Wellsford"
1794334,6022,Nuku Street,Strathmore Park,Wellington
1797593,4822,Nuku Street,Tangimoana,
1803111,4198,Nukutaurua Road,Mahia,
1833122,2019,Nuneaton Drive,Flat Bush,Auckland
1770613,9495,Nun Street,Herbert,
3082513,9382,Nun Street,Lake Hawea,
1775968,7901,Nuns Veil Road,Twizel,
1837798,5883,Nunu Drive,Flat Point,Masterton
1787629,8051,Nunweek Boulevard,Harewood,Christchurch
1837436,0571,Nurse Cavell Lane,Paparoa,
1812922,3800,Nurse Davey Court,Te Awamutu,
1780723,7700,Nursery Drive,Tinwald,Ashburton
1826695,0181,Nursery Flat Road,Glenbervie Forest,Hikurangi
3081132,9011,Nursery Lane,Belleknowes,Dunedin
3085173,3216,Nursery Lane,Hamilton East,Hamilton
1799171,3377,Nursery Lane,Kinloch,Taupo
3082188,3118,Nursery Lane,Papamoa,
1791185,7210,Nursery Lane,Seddon,
3044457,4310,Nursery Place,"Hurdon,Westown",New Plymouth
1795158,5810,Nursery Road,Homebush,Masterton
1782634,8011,Nursery Road,"Linwood,Phillipstown,Waltham",Christchurch
1802651,4071,Nursery Road,Matawhero,Gisborne
3057733,9383,Nursery Road,Queensberry,Cromwell
1791197,7210,Nursery Road,Seddon,
1805760,4274,Nursery Road,Tikokino,
1774769,9395,Nursery Road,Wedderburn,Ranfurly
1810479,3076,Nursery Road,Whakarewarewa,Rotorua
1783907,8022,Nutfield Lane,Cashmere,Christchurch
3068478,0627,Nutsey Avenue,Northcote,Auckland
1771897,9011,Nutsford Street,Brockville,Dunedin
1783908,8022,Nuttall Drive,Hillsborough,Christchurch
1789714,7173,Nuttall Road,Upper Moutere,
1815670,3288,Nuzum Road,Ngaruawahia,
1807493,3200,Nyanza Street,Nawton,Hamilton
3013046,7071,Nydia Bay,Nydia Bay,Marlborough Sounds
1795698,4814,Nye Street,Foxton,
3053017,7183,Nyhane Drive,Ligar Bay,Takaka
3040410,7183,Nyhane Drive West,Ligar Bay,Takaka
1790791,7886,Nyhon Place,Haast,
1771895,9077,Nyhon Road,Sandymount,Dunedin
1839348,2110,Nykki Place,Papakura,
1782623,8052,Nyoli Street,Northcote,Christchurch
1830039,2014,Nypa Way,Somerville,Auckland
3013299,2105,Nyssa Place,Totara Heights,Auckland
1784848,8053,Nyton Place,Bryndwr,Christchurch
