road_id,postcode,name,locality,city
1821618,0881,Oaia Road,Muriwai,
1781118,7782,Oak Avenue,Barrhill,Lauriston
1807496,3200,Oak Avenue,Nawton,Hamilton
1792293,5024,Oak Avenue,Paremata,Porirua
1808669,0632,Oak Bark Drive,Schnapper Rock,Auckland
3063362,5036,Oak Bay,Waikanae,
3082669,8051,Oakbridge Boulevard,Marshland,Christchurch
3084227,7020,Oakbridge Way,Richmond,
1796329,4810,Oak Crescent,Ashhurst,
1930706,3377,Oakdale Drive,Kinloch,Taupo
3080863,7020,Oakdale Grove,Richmond,
1825381,1041,Oakdale Road,Mount Roskill,Auckland
1787009,8042,Oakdale Street,Avonhead,Christchurch
1780375,7510,Oakden Drive,Darfield,
1842296,8025,Oakdene Place,Halswell,Christchurch
1808357,3188,Oak Drive,Rangiuru,Te Puke
1815714,3384,Oak Drive,Wairakei,Taupo
1839100,4702,Oakeley Rise,Feilding,
1825037,1025,Oakfield Avenue,Mount Albert,Auckland
1837956,3400,Oakfield Close,Matamata,
1807497,3200,Oakfield Crescent,Pukete,Hamilton
1784860,8053,Oakfield Street,Burnside,Christchurch
1785946,8011,Oakford Close,Riccarton,Christchurch
1829923,0632,Oakford Park Crescent,Greenhithe,Auckland
3002089,7700,Oak Grove,"Allenton,Ashburton",Ashburton
1809170,3112,Oak Grove,Hairini,Tauranga
1793614,6011,Oak Grove,Mount Cook,Wellington
1825934,1062,Oak Grove,Otahuhu,Auckland
1839052,7400,Oakgrove Drive,Rangiora,
1783939,8042,Oakhampton Street,Hornby,Christchurch
1770614,9410,Oakham Street,Hampden,
1832459,0612,Oakhaven Place,Ranui,Auckland
3083412,0620,Oakheart Way,Forrest Hill,Auckland
3084226,7020,Oakhill Lane,Richmond,
1840443,2019,Oakhurst Avenue,Flat Bush,Auckland
1784851,8042,Oakhurst Place,Russley,Christchurch
1829519,2025,Oakland Avenue,Papatoetoe,Auckland
1800896,4500,Oakland Avenue,Saint Johns Hill,Whanganui
1825982,0110,Oakland Avenue,Woodhill,Whangarei
1841516,4474,Oakland Lane,Shannon,
1839485,3010,Oakland Place,Ngongotaha,Rotorua
1827006,2580,Oakland Road,Karaka,Papakura
1777530,9891,Oakland Road,Mataura Island,Wyndham
1814136,3434,Oaklands Drive,Cambridge,
1792565,5018,Oaklands Grove,"Clouston Park,Kingsley Heights",Upper Hutt
1829671,0632,Oaklands Road,Albany,Auckland
1785616,7776,Oaklands Road,Lauriston,
1818906,1024,Oaklands Road,Mount Eden,Auckland
1771889,9013,Oakland Street,Andersons Bay,Dunedin
1776047,9712,Oakland Street,Mataura,
1784852,8052,Oakland Street,Northcote,Christchurch
1813383,3112,Oakland Way,Welcome Bay,Tauranga
1839990,0793,Oak Lane,Coatesville,
1813333,3110,Oak Lane,Judea,Tauranga
1815828,3802,Oak Lane,Pirongia,
3081939,9305,Oak Lane,Wanaka,
1839188,4710,Oaklea Avenue,Marton,
1830439,2110,Oakleaf Drive,Papakura,
3081426,3377,Oakleaf Lane,Kinloch,Taupo
1813480,3283,Oaklea Lane,Tamahere,Hamilton
1832168,2112,Oakleigh Avenue,Takanini,Auckland
1770308,9400,Oakleigh Crescent,Oamaru North,Oamaru
1840358,0171,Oakleigh Rise,Oakleigh,Whangarei
1773678,9273,Oakleigh Road,Clifton,Balclutha
1801573,5010,Oakleigh Street,Maungaraki,Lower Hutt
3081534,7610,Oakleigh Street,Woodend,
3048664,0171,Oakleigh Wharf Road,Oakleigh,Whangarei
1807498,3214,Oakley Avenue,Claudelands,Hamilton
3081101,7201,Oakley Avenue,Springlands,Blenheim
1824581,1026,Oakley Avenue,Waterview,Auckland
1796003,5032,Oakley Court,Paraparaumu Beach,Paraparaumu
1783930,8042,Oakley Crescent,Hornby,Christchurch
1806369,3500,Oakley Crescent,Thames,
1842422,7604,Oakley Drive,Prebbleton,
3082796,7020,Oakley Lane,Appleby,Richmond
1781113,7775,Oakleys Road,Mayfield,Ashburton
1797776,4410,Oakley Street,Palmerston North,
1832656,0632,Oak Manor Drive,Albany,Auckland
3083417,8051,Oakmill Drive,Casebrook,Christchurch
1801506,5018,Oakmont,Heretaunga,Upper Hutt
3077985,4312,Oakmont Crescent,Waiwhakaiho,New Plymouth
1785713,8061,Oakmont Green,Shirley,Christchurch
1813648,3210,Oakmont Place,Rototuna,Hamilton
1827666,2103,Oakmont Place,Wattle Downs,Auckland
1793626,6011,Oak Park Avenue,Te Aro,Wellington
1823083,0618,Oakpark Place,West Harbour,Auckland
1781885,7910,Oak Place,Gleniti,Timaru
1809024,4610,Oak Place,Hawera,
3083061,5510,Oak Place,Levin,
1775580,9024,Oak Place,Mosgiel,
1786092,4112,Oak Place,Poraiti,Napier
1812167,3420,Oak Place,Tokoroa,
1809783,3120,Oak Place,Whakatane,
1832951,0230,Oakridge Drive,Kerikeri,
3077588,3800,Oak Ridge Drive,Te Awamutu,
1813615,3210,Oakridge Grove,Flagstaff,Hamilton
3079119,3375,Oakridge Place,Morrinsville,
1813830,3110,Oakridge Place,Tauriko,Tauranga
3081613,3772,Oakridge Rise,Rangiriri,Te Kauwhata
1783931,8025,Oakridge Street,Halswell,Christchurch
1832079,2013,Oakridge Way,Northpark,Auckland
3084097,9879,Oakridge Way,Otatara,Invercargill
3084562,0230,Oak Rise,Kerikeri,
1833264,0985,Oak River Drive,Warkworth,
1803256,4122,Oak Road,Akina,Hastings
1802697,4112,Oak Road,Poraiti,Napier
1828096,2104,Oak Road,Wiri,Auckland
1853159,7608,Oaks Drive,Lincoln,
1813023,3876,Oakshott Road,Ngahinapouri,Ohaupo
1780808,7120,Oaks Lane,Motueka,
1837953,3320,Oaks Place,Te Aroha,
1826817,0178,Oaks Road,"Otaika,Portland",Whangarei
1792564,5018,Oak Street,Ebdentown,Upper Hutt
1802051,4010,Oak Street,Mangapapa,Gisborne
1794964,5810,Oak Street,Masterton,
1811688,3300,Oak Street,Morrinsville,
1809395,3025,Oak Street,Murupara,
1781608,7992,Oak Street,Orari,Temuka
1825382,1023,Oak Street,Royal Oak,Auckland
1827514,2121,Oak Street,Tuakau,
1782637,8023,Oak Street,Woolston,Christchurch
1821900,0630,Oaktree Avenue,"Browns Bay,Pinehill",Auckland
1785767,8053,Oaktree Lane,Bishopdale,Christchurch
1838664,3210,Oaktree Lane,Flagstaff,Hamilton
1785846,7400,Oak Tree Lane,Rangiora,
1812657,7204,Oak Tree Lane,Renwick,
1787569,7614,Oak Tree Lane,Rolleston,
3084019,0295,Oak Tree Lane,Waipapa,
3082264,5024,Oakum Road,Whitby,Porirua
1826816,0184,Oakura Road,Oakura,Hikurangi
3083518,8025,Oakvale Lane,Halswell,Christchurch
1945375,0792,Oak Valley Road,Dairy Flat,
1939312,7334,Oakview Close,Hanmer Springs,
1787164,8022,Oakview Lane,Cashmere,Christchurch
2013415,3400,Oakview Lane,Matamata,
1791839,5712,Oak View Place,Greytown,
1815671,3287,Oak View Place,Newstead,Hamilton
1834829,0632,Oak View Terrace,Schnapper Rock,Auckland
1837787,2016,Oakville Avenue,Flat Bush,Auckland
3081539,7400,Oakville Close,Rangiora,
1833001,0632,Oakway Drive,Schnapper Rock,Auckland
3007006,9011,Oakwood Avenue,"Balaclava,Maryhill",Dunedin
1838665,4312,Oakwood Drive,Highlands Park,New Plymouth
1838638,7400,Oakwood Drive,Rangiora,
1836081,2012,Oakwood Grove,Eastern Beach,Auckland
1800741,5032,Oakwood Grove,Paraparaumu Beach,Paraparaumu
1836640,7201,Oakwood Lane,Witherlea,Blenheim
1803672,7604,Oakwood Mews,Prebbleton,
1830352,2120,Oakwood Place,Pukekohe,
1947318,3283,Oakwood Place,Tamahere,Hamilton
1774322,9305,Oakwood Place,Wanaka,
1836790,0176,Oakwood Rise,Ngararatunua,Whangarei
3062360,7974,Oakwood Road,"Gleniti,Hadlow",Timaru
1839426,3118,Oakwood Way,Papamoa Beach,Papamoa
3012678,9491,Oamaru-Alma Road,"Alma,Deborah,Holmes Hill",Oamaru
1770099,9492,Oamaru Creek Road,"Airedale,Rosebery",Oamaru
1816497,4387,Oapui Road,Tarata,
1835996,8083,Oasis Grove,Parklands,Christchurch
1814912,3010,Oasis Place,Ngapuna,Rotorua
3081690,5712,Oates Place,Greytown,
1822798,0602,Oates Road,Glen Eden,Auckland
1802770,4010,Oates Street,Elgin,Gisborne
1771892,9010,Oates Street,Kaikorai,Dunedin
1842983,7608,Oates Street,Lincoln,
1800281,5019,Oates Street,Stokes Valley,Lower Hutt
1816577,4310,Oawai Place,Marfell,New Plymouth
1807499,3206,Oban Avenue,Glenview,Hamilton
1797830,4412,Oban Place,Awapuni,Palmerston North
1800610,5810,Oban Place,Masterton,
1776621,9812,Oban Place,Rockdale,Invercargill
1782630,8062,Oban Place,Woolston,Christchurch
3063676,0630,Oban Road,Browns Bay,Auckland
1809168,3112,Oban Road,Greerton,Tauranga
1831544,1022,Oban Road,Westmere,Auckland
1803258,4120,Oban Street,Flaxmere,Hastings
1771756,9372,Oban Street,Glenorchy,
1770307,9401,Oban Street,"Holmes Hill,Waiareka Junction",Oamaru
3053986,9010,Oban Street,"Kaikorai,Roslyn,Wakari",Dunedin
1773967,9532,Oban Street,Lawrence,
1772779,9024,Oban Street,Mosgiel,
1793628,6012,Oban Street,Wadestown,Wellington
1829675,0632,Obelin Close,Albany,Auckland
3077389,9305,Obelisk Street,Wanaka,
3080555,2019,Obelus Road,Flat Bush,Auckland
1785551,8025,Oberg Lane,Westmorland,Christchurch
1824582,1026,Oberon Place,Avondale,Auckland
1813714,4332,Oberon Street,Stratford,
3054578,0793,O'Brien Road,"Coatesville,Lucas Heights","Auckland,Coatesville"
1841853,4983,O'Brien Road,Mangamutu,Pahiatua
1825703,1081,O'Brien Road,"Omiha,Waiheke Island",Waiheke Island
1811421,3289,O'Brien Road,Rotokauri,Hamilton
1777536,9782,O'Brien Road,Winton,
1781115,7782,O'Briens Road,Highbank,Methven
1782324,7972,O'Briens Road,Saint Andrews,
1783933,8042,O'Briens Road,Sockburn,Christchurch
3077702,0616,Observation Green,Hobsonville,Auckland
1799896,5032,Observation Place,Paraparaumu,
1792295,5024,Observatory Close,Whitby,Porirua
3050104,7010,Observatory Terrace,"Britannia Heights,Toi Toi",Nelson
3077935,3187,Obsidian Way,Papamoa Beach,Papamoa
1776623,9810,O'Byrne Place,Waikiwi,Invercargill
1776622,9810,O'Byrne Street,Waikiwi,Invercargill
1818171,4610,O'Callaghan Drive,Hawera,
1817151,4388,O'Callaghan Road,Everett Park,Inglewood
3078330,9371,O'Callaghan Street,Arthurs Point,Queenstown
1831927,0178,O'Carroll Road,Maungakaramea,
1785774,7385,O'Carrolls Road,Hawarden,
1831696,1041,O'Casey Place,Mount Roskill,Auckland
1815532,3175,Oceana Drive,Welcome Bay,Tauranga
1814076,3508,Oceana Heights,Tairua,
1839043,3579,Oceanair Drive,Pauanui,
1808818,3116,Oceanbeach Road,Mount Maunganui,
3063414,9814,Ocean Beach Road,"Bluff,Ocean Beach",Bluff
3063415,5373,Ocean Beach Road,"Ocean Beach,Remutaka Forest Park,Wainuiomata Coast","Lower Hutt,Ocean Beach,Remutaka Forest Park"
1805722,4294,Ocean Beach Road,"Ocean Beach,Waimarama",Waimarama
1813388,3508,Ocean Beach Road,Tairua,
1826811,0174,Ocean Beach Road,Whangarei Heads,
1798619,4815,Ocean Beach Street,Foxton Beach,Foxton
3079247,0616,Ocean Breeze Avenue,Hobsonville,Auckland
1797160,3611,Ocean Breeze Drive,Waihi Beach,
1815499,3592,Ocean Close,Matarangi,Whitianga
1838454,0371,Ocean Close,Te Kopuru,
1813726,3118,Ocean Crest,Papamoa Beach,Papamoa
1842135,3116,Oceandowns Way,Mount Maunganui,
3083605,7010,Ocean Drive,Atawhai,Nelson
1775614,9585,Ocean Grove,Owaka,
3084637,9013,Ocean Heights,Ocean Grove,Dunedin
3007035,2014,Oceania Place,Mellons Bay,Auckland
1795088,3118,Oceania Sands Way,Papamoa Beach,Papamoa
1799737,5026,Ocean Parade,Pukerua Bay,Porirua
1802637,4010,Ocean Park,Wainui,Gisborne
1835480,7371,Ocean Ridge Boulevard,Kaikoura Flat,Kaikoura
1835509,7371,Ocean Ridge Drive,Kaikoura Flat,Kaikoura
1838106,3889,Ocean Ridge Place,Kawhia,
1809648,3121,Ocean Road,Ohope,
1831759,1081,Ocean Road,"Oneroa,Surfdale",Waiheke Island
1796005,5034,Ocean Road,Paekakariki,
1796004,5032,Ocean Road,Paraparaumu Beach,Paraparaumu
1806370,3620,Ocean Road,Whangamata,
3055339,0975,Ocean Sounds Place,Mangawhai,
1825704,1010,Ocean View Crescent,Rakino Island,Auckland
1801910,7273,Ocean View Crescent,Rarangi,Blenheim
1838538,7173,Oceanview Lane,Tasman,Upper Moutere
1816574,4310,Ocean View Parade,"Moturoa,Port Taranaki",New Plymouth
1776075,7683,Ocean View Place,Southbridge,
1838113,0116,Ocean View Rise,Ruakaka,
3004155,0991,Oceanview Road,Great Barrier Island (Aotea Island),
1808817,3116,Oceanview Road,Mount Maunganui,
1832724,0420,Ocean View Road,Cable Bay,
1809652,3120,Ocean View Road,Coastlands,Whakatane
1791822,7773,Ocean View Road,"Coldstream,Lowcliffe",Ashburton
1821609,0931,Ocean View Road,Hatfields Beach,Orewa
3042696,0627,Ocean View Road,"Hillcrest,Northcote",Auckland
1823085,0604,Ocean View Road,Huia,Auckland
1822730,0620,Ocean View Road,Milford,Auckland
3042697,1081,Ocean View Road,"Oneroa,Surfdale",Waiheke Island
1808186,2695,Ocean View Road,Port Waikato,
1771893,9022,Ocean View Road,Ravensbourne,Dunedin
1821607,0975,Ocean View Road,Te Arai,Wellsford
1808109,3611,Ocean View Road,Waihi Beach,
1827665,2103,Ocean View Road,Weymouth,Auckland
1801775,5010,Oceanview Terrace,Tirohanga,Lower Hutt
1827590,0377,Ocean View Terrace,Baylys Beach,
1850849,0931,Ocean View Terrace,Orewa,
1782629,8081,Ocean View Terrace,Sumner,Christchurch
1835565,5032,Ocean Vista Lane,Paraparaumu,
3084318,0272,Ocean Vista Way,Okiato,Russell
3082251,9879,Ochail Way,Otatara,Invercargill
1830344,0600,Ochre Place,Blockhouse Bay,Auckland
3078962,2113,Ockhams Street,Karaka,Papakura
1833384,0618,Ockleston Landing,Hobsonville,Auckland
1807494,3200,O'Connell Court,Pukete,Hamilton
1805610,4130,O'Connell Place,Havelock North,
1803834,4104,O'Connell Road,Bay View,Napier
1778644,9883,O'Connell Road,Gropers Bush,Riverton/Aparima
1772979,9085,O'Connell Road,Mount Cargill,Waitati
1831549,1010,O'Connell Street,Auckland Central,Auckland
1828100,2102,O'Connell Street,Manurewa,Auckland
1839273,7602,O'Connell Street,Southbridge,
1777533,9782,O'Conner Road,Springhills,Winton
1827397,2120,O'Connor Drive,Pukekohe,
1787008,8053,O'Connor Place,Burnside,Christchurch
1789152,7081,O'Connor Road,Appleby,Richmond
1833653,9073,O'Connor Road,Henley,Mosgiel
3051979,7891,O'Connor Road,"Stockton,Waimangaroa",Westport
1778172,9776,O'Connor Road,Waimea,Riversdale
1828104,2023,O'Connor Street,Otara,Auckland
1833651,3110,O'Connor Way,Bethlehem,Tauranga
3083803,0814,Octans Road,Westgate,Auckland
1785686,8042,Octavius Lane,Sockburn,Christchurch
1816576,4312,Octavius Place,New Plymouth,
1799939,5391,Octavius Road,Peka Peka,Waikanae
3083023,3206,Oculus Terrace,Peacocke,Hamilton
1837055,8053,O'Dea Place,Burnside,Christchurch
1811420,3289,O'Dea Road,Temple View,Hamilton
1833826,0420,Oden Hill,Coopers Beach,
3078364,3210,Oderings Place,Huntington,Hamilton
1824589,1071,Odessa Crescent,Saint Heliers,Auckland
1831211,0629,Odette Road,Totara Vale,Auckland
3026842,3206,Odette Street,"Bader,Melville",Hamilton
1808361,3176,Odey Road,Whakamarama,
1780377,7580,Odgers Road,Sheffield,
1782643,8061,Odie Place,Wainoni,Christchurch
1821679,0626,Odin Place,Beach Haven,Auckland
1805451,4974,Odin Street,Norsewood,
1807502,3200,Odlin Crescent,Nawton,Hamilton
3079577,0932,Odlin Lane,Red Beach,
1775072,9092,Odlins Place,Mosgiel,
1827878,3472,Odlum Drive,Matamata,
1821678,0626,O'Donn Avenue,Beach Haven,Auckland
1818905,1041,O'Donnell Avenue,Wesley,Auckland
1838199,4475,O'Donnell Road,Milson,Palmerston North
1796466,3990,O'Donnells Road,Owhango,
1790238,7805,O'Donnell Street,Greymouth,
1811828,3393,O'Donoghue Road,"Te Aroha,Te Aroha West",Te Aroha
1807495,3216,O'Donoghue Street,Hillcrest,Hamilton
1805332,4112,O'Dowd Road,Taradale,Napier
3062312,7273,O'Dwyers Road,"Rapaura,Thomsons Ford",Blenheim
1826820,0174,Ody Road,Whangarei Heads,
1811622,4678,Oeo Road,"Auroa,Awatuna,Otakeho",Hawera
1797958,4982,Oete Road,Pahiatua,
1830738,0182,Oetzman Road,Towai,Hikurangi
3081392,1041,Ofanoa Lane,Mount Roskill,Auckland
3049491,0118,O'Farrell Drive,One Tree Point,Whangarei
1787517,7471,O'Farrells Road,Cust,
3081142,9302,O'Fee Way,Arrowtown,
3081774,9818,Off Deep Bay Road,Stewart Island/Rakiura,Stewart Island
1832872,2013,Offenhauser Drive,East Tamaki,Auckland
1778273,9600,Office Lane,Te Anau,
1781116,7772,Office Road,Fairton,Ashburton
1782648,8014,Office Road,Merivale,Christchurch
3019306,3379,Off Road Highway,"Rotokawa,Tauhara Forest",Taupo
1819656,8011,Ogb Lane,Christchurch Central,Christchurch
3079735,3210,Ogilvie Avenue,Chartwell,Hamilton
2015693,2022,Ogilvie Crescent,Auckland Airport,Auckland
3032070,9371,Ogilvie Lane,Arrowtown,
1779054,8061,Ogilvie Place,Avondale,Christchurch
1790040,7805,Ogilvie Road,Gladstone,Greymouth
1812435,3377,Ogilvie Road,Kinloch,Taupo
1788686,7872,Ogilvies Road,Dunganville,Arnold Valley
1792296,5026,Ogilvy Terrace,Plimmerton,Porirua
1825984,0112,Ogle Crescent,Te Kamo,Whangarei
1820354,0484,Ogle Drive,Waipapakauri,Awanui
1821614,0984,Ogle Road,Mangakura,Warkworth
1817148,4320,Ogle Street,Waitara,
1802016,4071,O'Grady Road,"Makauri,Waerengaahika",Gisborne
1789560,7895,O'Grady Road,Reefton,
1790237,7805,O'Grady Street,Blaketown,Greymouth
1770309,9400,Og Street,Oamaru North,Oamaru
1805924,3083,Ohaaki Road,"Broadlands,Ohaaki","Broadlands,Reporoa"
1794218,3577,Ohaene Drive,Thames,
1797592,4816,Ohaewai Avenue,Ohakea,Bulls
3008276,,Ohai Clifden Highway,"Birchwood,Eastern Bush,Feldwick,Merrivale,Orawia,Scotts Gap",Otautau
3070335,3198,Ohakana Island,"Ohakana Island,Ohiwa Harbour",Whakatane
1800522,0478,Ohakiri Way,Whangaroa,Kaeo
1796533,4691,Ohakune Mountain Road,"Ohakune,Tongariro National Park",
3047063,3078,Ohakuri Road,"Atiamuri,Kinleith,Ohakuri","Atiamuri,Reporoa,Tokoroa"
1810480,3078,Ohakuri Village Road,Ohakuri,Reporoa
1783935,8025,O'Halloran Drive,Halswell,Christchurch
1827942,2014,O'Halloran Road,Howick,Auckland
1784969,7495,O'Hallorans Road,Glentui,Oxford
1772938,9471,O'Halloren Road,Bucklands Crossing,Waikouaiti
1818311,,Ohangai Road,"Hawera,Normanby,Ohangai",Hawera
1816471,4383,Ohanga Road,"Onaero,Tikorangi","Urenui,Waitara"
1781411,7986,Ohapi Settlement Road,Winchester,
1795905,5018,O'Hara Lane,Upper Hutt Central,Upper Hutt
1805176,4171,Ohara Road,Kereru,Hastings
1830737,0472,Ohara Street,Ngawha Springs,Kaikohe
1776624,9812,O'Hara Street,"Appleby,Strathern",Invercargill
1793621,6037,Ohariu Road,Johnsonville,Wellington
3040296,6037,Ohariu Valley Road,"Churton Park,Johnsonville,Ohariu,Tawa",Wellington
1809995,4376,Oha Street,Mokau,
1809653,3191,Ohaua Road,Tawera,Taneatua
1820033,0376,Ohaua Road,Waipoua Forest,Aranga
1839487,0632,Ohau Court,Fairview Heights,Auckland
3080029,0112,Ohau Crescent,Tikipunga,Whangarei
1783932,8042,Ohau Drive,Islington,Christchurch
1770611,9412,Ohau Drive,Lake Ohau,Omarama
1841126,5570,Ohau Gravels Way,Ohau,
3022140,3112,Ohauiti Road,"Hairini,Ohauiti",Tauranga
1799043,4577,Ohaumoko Road,Fordell,
1842163,4182,Ohau Place,Poraiti,Napier
3042713,,Ohaupo Road,"Glenview,Hamilton Lake,Melville,Ohaupo,Peacocke,Rukuhia,Te Awamutu","Hamilton,Ohaupo,Te Awamutu"
3080663,3200,Ohau Road,"Avalon,Baverstock",Hamilton
1787400,7901,Ohau Road,Twizel,
1790041,7805,Ohau Street,Dobson,Greymouth
1781887,7910,Ohau Street,Glenwood,Timaru
1770615,9412,Ohau Street,Otematata,
1771888,9022,Ohau Street,Ravensbourne,Dunedin
1834008,5570,Ohau Terraces,Ohau,
3052455,3295,Ohautira Road,"Raglan,Waingaro","Ngaruawahia,Raglan"
3009102,4395,Ohawae Road,"Pohokura,Te Wera",Stratford
1817576,4671,Ohawe Road,"Ohawe,Tokaora",Hawera
1817577,4671,Ohawe Terrace,Ohawe,Hawera
1826819,0184,Ohawini Road,Oakura,Hikurangi
3081808,4120,Ohika Crescent,Mahora,Hastings
1815402,3592,Ohinau Drive,Opito Bay,Whitianga
3018972,8971,Ohinehau Lane,Charteris Bay,Governors Bay
1804613,4293,Ohinemuhu Road,Porangahau,
1806948,3600,Ohinemuri Place,Paeroa,
1808358,3186,Ohinepanea Road,Pukehina,
1824761,1050,Ohinerau Street,Remuera,Auckland
1797961,4982,Ohinereiata Road,Pahiatua,
1817616,4597,Ohine Road,Patea,
3027230,3989,Ohinetonga Road,Owhango,
3053586,3771,Ohinewai Landing Road,Ohinewai,Huntly
1837453,3771,Ohinewai North Road,Ohinewai,Huntly
1806763,3373,Ohinewai Road,"Kaihere,Waiterimu","Ngatea,Waiterimu"
1837454,3771,Ohinewai South Road,Ohinewai,Huntly
1795667,5711,Ohio Street,Martinborough,
1831020,0875,Ohirangi Road,Helensville,
1823089,0612,Ohira Place,Henderson,Auckland
1817915,3987,Ohirea Road,"Kopaki,Maniaiti / Benneydale",Te Kuiti
3065738,6021,Ohiro Road,"Aro Valley,Brooklyn",Wellington
1803586,4179,Ohiti Road,"Crownthorpe,Omahu",Hastings
3028676,3198,Ohiwa Beach Road,Waiotahe,Opotiki
3003330,3198,Ohiwa Cove Rise,Waiotahe,Opotiki
3033504,3198,Ohiwa Harbour Road,Waiotahe,Opotiki
3053836,3198,Ohiwa Loop Road,Waiotahe,Opotiki
1809639,3121,Ohiwa Parade,Ohope,
1827629,2582,Ohiwa Road,Papakura,
1796524,3990,Ohoeka Street,Owhango,
1787179,7692,Ohoka Meadows Drive,Ohoka,
3079153,7630,Ohoka Road,"Clarkville,Flaxton,Kaiapoi","Kaiapoi,Rangiora"
1779288,7630,Ohoka Road,Kaiapoi,
1837307,3118,Ohope Place,Papamoa Beach,Papamoa
1809655,,Ohope Road,"Maraetotara,Ohope,Whakatane","Ohope,Whakatane"
1796514,3990,Ohorere Street,Owhango,
1801247,4795,Oho Street,Taihape,
1842562,3288,Ohote Lane,Whatawhata,Hamilton
1796896,3199,Ohotu Road,Omaio,Opotiki
3044632,3191,Ohotu Road,"Ruatoki,Tawera",Taneatua
1796532,4691,Ohotu Road,Waimarino,Ohakune
3083125,0410,Ohotu Way,Kaitaia,
1801656,3382,Ohuanga Road,Rangipo,Turangi
1795856,3334,Ohuanga Road,Turangi,
1803112,4196,Ohuia Road,Wairoa,
1809654,3120,Ohuirehe Road,"Bay of Plenty,Coastlands",Whakatane
1806371,3691,Ohui Road,Opoutere,Whangamata
1842400,3510,Ohuka Farm Drive,Whitianga,
1833670,3510,Ohuka Place,Whitianga,
3082860,4195,Ohuka Road,"Ohuka,Ruakituri,Tuai","Ruakituri,Wairoa"
3083128,0420,Ohumuhumu Lane,Cable Bay,
1803581,4182,Ohurakura Road,"Te Pohue,Tutira",Napier
3068475,,Ohura Mokau Road,"Matiere,Otangiwai",Matiere
1816338,3995,Ohura North Road,Ohura,
1816339,3980,Ohura Peak Trig Road,Ohura,
1810803,3979,Ohura Road,Aria,
3063799,,Ohura Road,"Douglas,Kohuratahi,Matau,Pohokura,Strathmore,Tahora,Tangarakau,Te Wera,Tokirima,Tututawa,Whangamomona","Ohura,Stratford"
1817786,,Ohura Road,"Matiere,Ohura,Ongarue",
1820032,0473,Ohuri Road,Rawene,Kaikohe
1809642,3079,Ohutu Road,Galatea,Murupara
3034400,4691,Ohutu Road,Rangataua,Ohakune
1838503,0294,Oihi Road,Te Ti Mangonui,Kerikeri
1808359,3176,Oikimoke Road,Te Puna,Tauranga
1820352,0482,Oinu Road,"Awanui,Kaingaroa","Awanui,Kaitaia"
3018214,0875,Oioi Lane,Kaukapakapa,
3080468,3112,Oioi Lane,Poike,Tauranga
1984538,0616,Oioi Road,Hobsonville,Auckland
1796516,3990,Oioi Street,Owhango,
1796518,3990,Oio No 1 Road,Owhango,
1796517,,Oio Road,"Kaitieke,Owhango,Retaruke,Whanganui National Park","Owhango,Whanganui National Park"
1827002,2578,Oira Road,Karaka,Papakura
1809640,3192,Okaahu Road,Te Teko,Whakatane
3060815,3781,Okaeria Road,"Maramarua Forest,Waerenga,Waitakaruru","Ngatea,Te Kauwhata"
1826809,0172,Okaharau Road,Pakotai,Whangarei
3081133,9471,Okahau Terrace,Warrington,Waikouaiti
1832896,0481,Okahu Downs Drive,Kaitaia,
1821602,0977,Okahukura Road,Tapora,
3044532,3996,Okahukura Saddle Road,"Matiere,Taumarunui",
1813761,3074,Okahu Lane,Tikitere,Rotorua
1820203,,Okahu Road,Kaitaia,
1812352,3382,Okahuroa Road,Tauranga Taupo,Turangi
1824763,1071,Okahu Street,Orakei,Auckland
1817621,4591,Okahutiria Road,Waverley,
1836631,3377,Okaia Drive,Kinloch,Taupo
1816340,3996,Okaihae Road,"Aukopae,Taumarunui",Taumarunui
3038451,0112,Okaihau Place,Tikipunga,Whangarei
3058810,4294,Okaihau Road,"Maraetotara,Waimarama",Waimarama
3058808,7691,Okaihau Road,"Tuahiwi,Waikuku","Kaiapoi,Waikuku"
3065662,7583,Okains Bay Road,"Okains Bay,Robinsons Bay",
1803317,7583,Okains River Road,Okains Bay,
1820037,0475,Okaka Road,Horeke,Okaihau
3068939,4791,Okaka Road,"Papanui Junction,Taihape","Hunterville,Taihape"
1830804,0481,Okakewai Road,Takahue,Kaitaia
1812349,3078,Okama Road,Tirohanga,Atiamuri
1780054,7672,Okana Road,Ataahua,Tai Tapu
3078908,9300,O'Kane Lane,"Frankton,Queenstown Hill",Queenstown
1804820,4977,O'Kane Road,Matamau,Dannevirke
1776195,9773,Okapua Road,Chatton,Gore
1838108,3889,Okapu Place,Kawhia,
1831812,0110,Okara Drive,Whangarei,
1804819,4973,Okarae Road,Te Uri,Dannevirke
1813748,4392,Okara Road,Aotuhia,Stratford
1810481,3076,Okareka Loop Road,Lake Okareka,Rotorua
1828099,2010,Okareka Place,Pakuranga Heights,Auckland
3007782,4195,Okare Road,"Ohuka,Ruakituri","Ruakituri,Wairoa"
3078069,0112,Okari Lane,Te Kamo,Whangarei
1787941,7892,Okari Road,Cape Foulwind,
1836371,5510,Okarito Avenue,Levin,
1814913,3073,Okaro Road,Waimangu,Rotorua
1829775,2571,Okaroro Drive,Beachlands,Auckland
1819941,0281,Okaroro Road,Motatau,Kawakawa
1955001,3118,Oka Street,Papamoa Beach,Papamoa
1832169,2010,Okataina Street,Pakuranga Heights,Auckland
1998292,3173,Okataina Street,Pyes Pa,Tauranga
2015060,5024,Okataina Way,Aotea,Porirua
1795151,5810,Okato Place,Kuripuni,Masterton
1813246,3997,Okauaka Road,"Pureora Forest Park,Waimiha",
3084348,2585,Okauanga Road,Clevedon,
1811628,3471,Okauia Springs Road,"Matamata,Okauia",Matamata
1817856,,Okau Road,Ahititi,Urenui
2012854,2110,Okawa Avenue,Papakura,
1810482,3074,Okawa Bay Road,Tikitere,Rotorua
1813332,3074,Okawa Place,Tikitere,Rotorua
1787100,7774,O'Keefe Road,Willowby,Ashburton
1782649,8062,Okeover Street,Woolston,Christchurch
1810483,3074,Okere Falls Road,Okere Falls,Rotorua
1825988,0112,Okere Place,Tikipunga,Whangarei
1810484,3074,Okere Road,"Okere Falls,Okere Inlet",Rotorua
1810985,3295,Okete Road,Raglan,
1823091,0604,Okewa Road,Titirangi,Auckland
1816585,4312,Okey Lane,Bell Block,New Plymouth
1819948,0272,Okiato Road,Okiato,Russell
1800822,3990,Okioi Street,Owhango,
3083716,0629,Oki Place,Glenfield,Auckland
1778977,4577,Okirae Road,"Fordell,Mangamahu","Fordell,Whanganui"
1775790,9879,Oki Street,Oreti Beach,Invercargill
1791184,7281,Okiwa Place,Anakiwa,Linkwater
3061421,4588,Okiwa Terrace,Waiinu Beach,Whanganui
1783531,7193,Okiwi Crescent,Okiwi Bay,
3077461,4310,Okoare Lane,Ferndale,New Plymouth
3078349,2681,Okohaka Avenue,Glenbrook,
1814914,3020,Okoheriki Street,Mamaku,
1797183,4582,Okoia Road,Okoia,Whanganui
1819937,0293,Okokako Road,"Kerikeri,Waimate North",Kerikeri
1825707,1081,Okoka Road,Omiha,Waiheke Island
1816472,,Okoki Road,"Okoki,Urenui",Urenui
1807966,3878,Okoko Road,Honikiwi,Otorohanga
1810485,3010,Okona Crescent,Ngongotaha,Rotorua
3078352,2681,Okoreka Road,Glenbrook,
3019395,,Okoroire Road,"Okoroire,Tapapa,Tirau",Tirau
1812063,3410,Okoroire Street,Tirau,
1821610,0930,Okoromai Views,Gulf Harbour,Whangaparaoa
1819943,0475,Okoro Road,Okaihau,
3080027,5010,Okoutu Lane,Moera,Lower Hutt
3003477,5024,Okowai Road,"Aotea,Papakowhai",Porirua
1810986,3772,Okowhao Road,"Huntly,Te Ohaki",Huntly
3080999,3216,Oku Close,Hillcrest,Hamilton
3055685,7282,Okukari Bay,"Arapaoa Island,Okukari Bay,Queen Charlotte Sound / Totaranui",Marlborough Sounds
3039350,7472,Okuku Pass Road,"Ashley Forest,Lees Valley,Loburn,Okuku Range","Loburn,Oxford"
1771533,8042,Okuku Place,Hei Hei,Christchurch
3000979,7472,Okuku Road,"Ashley Forest,Loburn",Loburn
3000980,4474,Okuku Road,"Opiki,Shannon","Palmerston North,Shannon"
1807967,3885,Okupata Road,Oparau,
3081234,5024,Okupe Grove,Aotea,Porirua
3023361,0991,Okupu Bay,"Great Barrier Island (Aotea Island),Okupu Bay",Great Barrier Island (Aotea Island)
1820613,0479,Okura Bay Road,Totara North,Kaeo
1838389,0230,Okura Drive,Kerikeri,
1793294,5010,Okura Grove,Boulcott,Lower Hutt
1822735,0792,Okura River Road,"Long Bay,Okura,Redvale",Auckland
3049526,4295,Okura Road,Kairakau,Elsthorpe
1819955,0293,Okura Road,Kerikeri,
1793617,6023,Oku Street,Island Bay,Wellington
1780055,7591,Okuti Valley Road,Little River,
3012488,9779,Old Balfour Road,"Balfour,Lintley,Longridge North,Lumsden,St Patricks","Balfour,Lumsden,Riversdale"
1841971,7010,Old Bank Lane,Nelson,
3083422,3576,Old Barn Road,"Mangatarata,Waitakaruru",Ngatea
1835908,2584,Old Barn Road,Opaheke,Papakura
1840708,8022,Old Barrow Heights,Huntsbury,Christchurch
3007870,0472,Old Bay Road,"Ohaeawai,Oromahoe,Pakaraka","Haruru,Kaikohe,Moerewa"
1838624,7892,Old Beach Road,Cape Foulwind,
3001245,,Old Beach Road,"Hapuku,Kaikoura,Kaikoura Flat",Kaikoura
1842586,0491,Old Beach Road,Kohukohu,
3084659,9382,Old Beach Terrace,Glendhu Bay,Wanaka
1776752,9877,Old Bluff Highway,Greenhills,Invercargill
1770845,9320,Old Bridge Road,Bridge Hill,Alexandra
1811319,3721,Old Bridge Road,Taupiri,
1815540,7985,Old Bridge Road,Waitohi,Temuka
3028227,7674,Old Bridge Road North,Springston,
3013892,7683,Old Bridge Road South,Leeston,
1770017,,Old Brighton Road,"Fairfield,Saddle Hill",Dunedin
1793616,6012,Old Bullock Road,Aro Valley,Wellington
3005843,7882,Old Christchurch Road,"Awatuna,Dillmanstown","Greymouth,Hokitika"
1820614,0478,Old Church Road,Whangaroa,Kaeo
3054688,7581,Old Coach Road,"Akaroa,Takamatua",
3054690,7875,Old Coach Road,Arthur's Pass National Park,
3054699,7173,Old Coach Road,"Bronte,Mahana,Upper Moutere",Upper Moutere
3054689,,Old Coach Road,"Clinton,Ferndale,Kaiwera,Mataura,Otaraia,Slopedown,Waikana","Clinton,Gore,Mataura"
1841846,4994,Old Coach Road,Eketahuna,
1779566,7395,Old Coach Road,Hanmer Springs,
1791187,7100,Old Coach Road,Havelock,
3054692,6037,Old Coach Road,"Johnsonville,Ohariu",Wellington
1805899,3591,Old Coach Road,Kaimarama,Whitianga
1773569,9210,Old Coach Road,Kaitangata,
1808347,,Old Coach Road,"Paengaroa,Pongakawa,Pukehina",
1840705,5512,Old Coach Road North,Otaki,
3054607,5512,Old Coach Road South,"Otaki,Otaki Beach",Otaki
1827007,2579,Old Coach Way,Ramarama,Drury
3083152,9085,Old Cottage Lane,"Mount Cargill,Waitati",Waitati
3044160,3198,Old Creamery Road,Waiotahe,Opotiki
1840407,9372,Old Dairy Close,Glenorchy,
1818315,4373,Old Devon Road,Sentry Hill,New Plymouth
3039212,9872,Old Dunedin Road,"Dacre,Edendale","Edendale,Invercargill"
3055956,,Old Dunstan Road,"Clarks Junction,Middlemarch,Moa Creek,Paerau","Middlemarch,Moa Creek,Outram,Patearoa"
3007713,9383,Old Faithfull Road,"Lindis Pass,Lindis Valley","Cromwell,Lindis Pass"
3082481,2580,Old Farm Lane,Karaka,Papakura
1846332,7400,Old Farm Place,Rangiora,
1807503,3216,Old Farm Road,"Hamilton East,Hillcrest",Hamilton
3080902,7011,Old Farm Road,Stoke,Nelson
1805811,4102,Old Ferry Road,Clive,
3065372,7979,Old Ferry Road,"Glenavy,Morven",Waimate
1806766,3671,Old Ferry Road,Kerepehi,Paeroa
1806794,3574,Old Ferry Road,Orongo,Thames
1837393,3210,Oldfield Court,Huntington,Hamilton
3081608,4710,Oldfield Lane,Marton,
1799036,4818,Oldfield Place,Bulls,
1827212,2683,Oldfield Road,Pollok,
1821611,0972,Oldfield Road,Wellsford,
1782038,7987,Oldfields Road,Kimbell,Fairlie
1800824,4691,Old Fields Track,Waimarino,Ohakune
1797922,4989,Old Ford Road,Makuri,Pahiatua
1791195,7285,Old Ford Road,Seddon,
1798311,4474,Old Foxton Road,Shannon,
1786050,7581,Old French Road,Takamatua,
3063595,7581,Old German Bay Road,"Akaroa,Takamatua",
2007214,7771,Old Gig Road,Mount Somers,
1787768,7999,Old Glen Lyon Road,Twizel,
1795457,9320,Old Golf Course Road,Bridge Hill,Alexandra
1819301,0371,Old Golf Course Road,Dargaville,
1807968,3977,Old Golf Road,Otorohanga,
1804917,4999,Old Gorge Road,Woodville,
1804183,4110,Oldham Avenue,Onekawa,Napier
1783982,8025,Oldham Crescent,Halswell,Christchurch
1788280,7010,Oldham Lane,The Wood,Nelson
1831070,0630,Oldham Place,Browns Bay,Auckland
1785593,7510,Oldham Place,Darfield,
1778768,9710,Oldham Street,Gore,
1778714,9881,Oldham Street,Orepuki,Riverton/Aparima
1778020,9883,Oldham Street,Waimatuku,Riverton/Aparima
1800353,6035,Oldham Way,Crofton Downs,Wellington
3015073,7476,Old Harewood Road,Eyrewell,West Eyreton
3015074,7476,Old Harewood Road,Eyrewell,West Eyreton
3038485,5582,Old Hautere Road,Hautere,Otaki
1792514,5018,Old Haywards Road,Haywards,Lower Hutt
1772939,9471,Old Head Street,Karitane,Waikouaiti
1808356,3180,Old Highway,"Minden,Whakamarama","Tauranga,Whakamarama"
1804622,4291,Old Hill Road,Porangahau,
1811729,3373,Old Hill Road,Tahuna,
3025831,5571,Old Hokio Road,Hokio Beach,Levin
1990424,9300,Old Homestead Place,Kawarau Falls,Queenstown
1817322,7971,Old Horseshoe Bend Road,Otaio,Saint Andrews
1820612,0478,Old Hospital Road,Whangaroa,Kaeo
1789157,7175,Old House Road,Upper Moutere,
3010999,7901,Old Iron Bridge Road,Pukaki,
1826818,0173,Old Kaiatea Road,Ngunguru,Whangarei
1804361,3171,Old Kaimai Road,Lower Kaimai,Tauranga
1821604,0981,Old Kaipara Road,Kaipara Flats,Warkworth
3044740,7977,Old Kaiwarua Road,Waihaorunga,Waimate
1800351,6012,Old Karori Road,"Karori,Northland",Wellington
1801008,4470,Old Kips Road,Ashhurst,
1840359,0173,Old Kiripaka Road,Kiripaka,Whangarei
3039715,9584,Old Lake Road,"Ashley Downs,Popotunoa",Clinton
1821877,0624,Old Lake Road,"Devonport,Narrow Neck",Auckland
1835271,4398,Old Lakes Road,Maata,Eltham
3014888,7581,Old Le Bons Track,"Le Bons Bay,Takamatua",
3077366,2471,Old Lexie Way,Pokeno,
1826821,0176,Old Loop Road,Ngararatunua,Whangarei
1779853,7481,Old Main North Road,Leithfield,
1779705,7383,Old Main Road,Cheviot,
3029747,4972,Old Main Road,Maharahara,Dannevirke
3029744,9874,Old Main Road,"Makarewa,Wallacetown","Invercargill,Wallacetown"
1803583,4178,Old Main Road,Pakipaki,Hastings
1774551,9771,Old Main Road,Waipahi,Gore
1786345,,Old Main South Road,"Ealing,Hinds,Orton,Rangitata Island","Ashburton,Temuka"
1781062,7710,Old Main South Road,Rakaia,
1773675,9584,Old Manse Road,Clinton,
1814236,3674,Old Maratoto Road,Hikutaia,Paeroa
1811728,3371,Old Milliken Road,Richmond Downs,
1838079,0173,Old Mill Lane,Ngunguru,Whangarei
1839331,8083,Old Mill Lane,Parklands,Christchurch
3051536,9491,Old Mill Road,"Ardgowan,Oamaru,Weston",Oamaru
1789156,7198,Old Mill Road,Brooklyn,Motueka
1837858,0379,Old Mill Road,Donnellys Crossing,
3051541,,Old Mill Road,"Grey Lynn,Western Springs,Westmere",Auckland
1783532,7193,Old Mill Road,Okiwi Bay,
1802499,4189,Old Mill Road,Putere,Raupunga
1841397,0932,Old Mill Road,Silverdale,
1798757,3204,Old Mill Street,Frankton,Hamilton
1778018,9682,Old Monowai Road,Blackmount,Otautau
1814993,3285,Old Mountain Road,"Karamu,Waitetuna","Karamu,Raglan"
1818305,4394,Old Mountain Road,Tariki,Stratford
1806765,3672,Old Netherton Road,Netherton,Paeroa
1818248,4678,Old Normanby Road,Okaiawa,Hawera
1821613,0931,Old North Road,"Hatfields Beach,Orewa",Orewa
1831018,,Old North Road,"Helensville,Kumeu,Waimauku",
1785303,7691,Old North Road,Kaiapoi,
1781889,7910,Old North Road,"Marchwiel,Oceanview,Washdyke",Timaru
1830633,0975,Old North Road,Topuni,Wellsford
1826814,0182,Old North Road,Whakapara,Hikurangi
1825983,0110,Old Onerahi Road,Onerahi,Whangarei
3079365,7173,Old Orchard Lane,Mapua,
3057354,2679,Old Orchard Lane,Waiau Pa,Pukekohe
3080875,5810,Old Orchard Road,Solway,Masterton
3046725,3379,Old Orchard Road,"Tarawera,Waipunga","Napier,Taupo"
1797181,4573,Old Parapara Road,Parikino,Whanganui
1835788,2112,Old Park Place,Takanini,Auckland
3017709,,Old Parua Bay Road,"Abbey Caves,Parahaki",Whangarei
3037020,7583,Old Pigeon Bay Road,"Little Akaloa,Okains Bay",
1833195,0992,Old Pine Valley Road,Dairy Flat,
1816712,7274,Old Plantation Road,Seddon,
1793611,6035,Old Porirua Road,"Kaiwharawhara,Ngaio",Wellington
3064825,8972,Old Port Levy Road,"Port Levy,Purau",Diamond Harbour
1773677,9273,Old Port Road,"Kaihiku,Waitepeka,Warepa",Balclutha
1771244,9572,Old Punt Road,Millers Flat,Roxburgh
3040832,3015,Old Quarry Road,"Fairy Springs,Selwyn Heights",Rotorua
1839171,9305,Old Racecourse Road,Albert Town,Wanaka
3080707,0592,Old Racecourse Road,Matakohe,
1821612,0892,Old Railway Road,Kumeu,
1841487,8025,Old Red Barn Road,Halswell,Christchurch
3052786,,Old Renwick Road,"Mayfield,Renwick,Springlands","Blenheim,Renwick"
3013548,3674,Old Reservoir Road,"Coromandel Forest Park,Karangahake,Komata,Waikino","Coromandel Forest Park,Karangahake,Paeroa,Waihi"
1817055,4373,Old Road,Lepperton,New Plymouth
1811318,3792,Old Road,Orini,
1809657,3191,Old Road,Taneatua,
1790723,7883,Old Ross Road,Ruatapu,
1816134,3674,Old Rotokohu Road,Paeroa,
1840919,3288,Old Ruffell Road,Te Rapa Park,Hamilton
3078695,9310,Old Saleyard Road,Cromwell,
1838673,7882,Old School Road,Awatuna,Hokitika
1833224,0985,Old School Road,Leigh,
1775355,9371,Old School Road,Lower Shotover,Queenstown
1826808,0178,Old School Road,Maungakaramea,
3039529,5018,Old School Road,Maymorn,Upper Hutt
1789153,7072,Old School Road,"Motupiko,Tapawera","St. Arnaud,Wakefield"
1813035,3882,Old School Road,Ngahinapouri,Ohaupo
1773680,9584,Old School Road,Wairuna,Clinton
1835680,9310,Olds Crescent,Cromwell,
3080051,2697,Old Sheepyard Lane,Onewhero,
1782328,9498,Old Slip Road,Hakataramea,Kurow
1780209,,Old South Road,"Bankside,Dunsandel",
1817575,4672,Old South Road,Mokoia,Hawera
1817054,4335,Old South Road,Okato,
1789159,7096,Old Sow Road,Tapawera,Wakefield
1786642,8023,Olds Place,Woolston,Christchurch
1810490,3072,Olds Road,Ngongotaha Valley,Rotorua
1814915,3074,Old State Highway 30,Tikitere,Rotorua
1810488,3020,Old State Mill Road,Mamaku,
1806351,9305,Old Station Avenue,Wanaka,
1796538,4625,Old Station Road,Ohakune,
1782329,7988,Old Station Road,Saint Andrews,
3079863,8022,Old Stone Lane,Cracroft,Christchurch
1838695,0178,Old Stone Road,Portland,Whangarei
1779998,8081,Old Sumner Lyttelton Road,"Lyttelton,Sumner","Christchurch,Lyttelton"
1799038,4794,Old Tae Tae Road,"Taihape,Utiku",Taihape
1779141,,Old Tai Tapu Road,"Kennedys Bush,Tai Tapu","Christchurch,Tai Tapu"
1805991,,Old Taupiri Road,Ngaruawahia,
1803584,4182,Old Taupo Coach Road,Te Pohue,Napier
3030528,,Old Taupo Road,"Arapuni,Kinleith,Lichfield,Putaruru,Tokoroa,Waotu,Wiltsdown","Putaruru,Tokoroa"
3030529,3015,Old Taupo Road,"Hillcrest,Mangakakahi,Springfield,Tihiotonga,Utuhina",Rotorua
1806857,3682,Old Tauranga Road,"Athenree Gorge,Waihi",Waihi
3069005,,Old Te Aroha Road,"Gordon,Okauia,Te Poi","Manawaru,Matamata"
1823094,0610,Old Te Atatu Road,Te Atatu Peninsula,Auckland
3058151,,Old Te Kuiti Road,"Hangatiki,Otorohanga","Otorohanga,Te Kuiti"
3012330,3079,Old Te Whaiti Road,"Minginui,Whirinaki Te Pua-a-Tane Conservation Park",
1823092,,Old Titirangi Road,"New Lynn,Titirangi",Auckland
3000843,0193,Old Tokatoka Road,Waiotira,
3000844,0193,Old Tokatoka Road,Waiotira,
1819953,0475,Old Valley Road,Okaihau,
1796526,4691,Old Vegetable Road,Raetihi,
3079410,2110,Old Villa Way,Papakura,
3077456,3782,Old Vintners Close,Te Kauwhata,
1819324,0505,Old Waipu Road,Mangawhai,
1837756,0573,Old Waipu Road North,Mangawhai,
1818909,2110,Old Wairoa Road,Papakura,
1806856,3682,Old Waitekauri Road,Waikino,Waihi
1779854,7483,Old Weka Pass Road,"Waikari,Weka Pass","Waikari,Waipara"
1840032,,Old West Coast Road,"Darfield,Kirwee,Sheffield,Templeton,Waddington,West Melton,Yaldhurst","Christchurch,Darfield,Kirwee,Sheffield,Waddington,West Melton"
3064042,4472,Old West Road,"Fitzherbert,Linton,Turitea",Palmerston North
1803113,4193,Old Whakamahi Road,Wairoa,
1830475,0210,Old Whangae Road,Kawakawa,
1819940,0204,Old Wharf Road,Haruru,
1789158,7120,Old Wharf Road,Motueka,
1820001,0473,Old Wharf Road,Omapere,Kaikohe
3047817,8083,Old Windsor Lane,Bottle Lake,Christchurch
1821605,0981,Old Woodcocks Road,Kaipara Flats,Warkworth
1787007,8053,Oldwood Street,Bishopdale,Christchurch
3081596,0573,Olea Lane,Mangawhai,
1798312,5036,Oleander Grove,Waikanae,
1805826,3116,Oleander Lane,Mount Maunganui,
1816578,4312,Oleander Place,Bell Block,New Plymouth
1828087,2012,Oleander Point,Farm Cove,Auckland
3081888,8025,Olearia Lane,Halswell,Christchurch
3084014,7610,Olearia Lane,Woodend,
3082219,2019,Olearia Street,Totara Park,Auckland
1825521,1061,Olea Road,Onehunga,Auckland
1814981,3700,O'Leary Place,Huntly,
1840621,7886,O'Leary Place,Jackson Bay,Haast
1797067,4577,O'Leary Road,Fordell,
1827003,2471,O'Leary Road,Pokeno,
1774866,9300,O'Learys Paddock,Fernhill,Queenstown
1782627,8025,O'Leary Street,Hoon Hay,Christchurch
1805330,4112,O'Leary Street,Tamatea,Napier
1828086,2010,Olena Avenue,Sunnyhills,Auckland
3077970,2016,Olga Road,Flat Bush,Auckland
1806950,3600,Olga Street,Paeroa,
1805107,4120,Oliphant Place,Raureka,Hastings
3022810,4120,Oliphant Road,"Camberley,Raureka",Hastings
1838616,7430,Olivea Place,Oxford,
1772935,9598,Olive Avenue,Middlemarch,
1815944,3330,Olive Avenue,Nukuhau,Taupo
1808765,3114,Olive Close,Omokoroa,
1791709,7201,Olive Court,Witherlea,Blenheim
1832438,2025,Olive Crescent,Papatoetoe,Auckland
1841594,3120,Olive Grove,Edgecumbe,
1836992,0632,Olive Grove,Fairview Heights,Auckland
3051052,1051,Olive Grove,"Greenlane,One Tree Hill,Royal Oak",Auckland
1814328,4130,Olive Grove,Havelock North,
1801337,4412,Olive Grove,Highbury,Palmerston North
3081482,0573,Olive Grove,Mangawhai,
1939307,0472,Olive Grove,Pakaraka,Moerewa
1807057,9371,Olive Lane,Lake Hayes,Queenstown
3083289,7020,Olive Mews,Richmond,
3082043,3472,Olive Place,Matamata,
1807504,3200,Olive Place,Nawton,Hamilton
3081737,3591,Oliver Leighs Drive,Cooks Beach,Whitianga
1831724,1061,Olive Road,Penrose,Auckland
3077989,4310,Oliver O'Leary Way,Westown,New Plymouth
1791198,7281,Oliver Place,Anakiwa,Linkwater
3083985,5018,Oliver Place,Trentham,Upper Hutt
1808575,9383,Oliver Road,Bendigo,Cromwell
1828092,2012,Oliver Road,"Bucklands Beach,Eastern Beach",Auckland
1805331,4110,Oliver Road,Hospital Hill,Napier
3020126,7974,Oliver Road,"Kerrytown,Levels Valley,Sutherlands","Pleasant Point,Timaru"
3020130,3171,Oliver Road,Minden,Tauranga
3020128,4075,Oliver Road,"Otoko,Rakauroa","Matawai,Te Karaka"
3020124,9891,Oliver Road,Pine Bush,Wyndham
1815294,3496,Oliver Road,Te Miro,Cambridge
1833811,9300,Olivers Place,Queenstown,
3028021,7771,Olivers Road,Greenstreet,Ashburton
3028022,7096,Olivers Road,"Kohatu,Spooners Range,Tapawera",Wakefield
1795164,5886,Olivers Road,Te Ore Ore,Masterton
1812729,3434,Oliver Street,Cambridge,
1813034,3800,Oliver Street,Kihikihi,Te Awamutu
1824772,1022,Oliver Street,Point Chevalier,Auckland
1771890,9010,Oliver Street,Wakari,Dunedin
1841918,0981,Oliver Street,Warkworth,
3029908,2014,Oliver Twist Avenue,Mellons Bay,Auckland
1801005,4473,Olive Street,Glen Oroua,
1828091,2102,Olive Street,Manurewa,Auckland
1795149,5810,Olive Street,Masterton,
1795995,5032,Olive Terrace,Paraparaumu Beach,Paraparaumu
1933727,7020,Olive Terrace,Richmond,
1833339,0420,Olive View Heights Drive,Taipa,
1839424,5711,Olive Way,Martinborough,
1817355,3114,Olivia Circuit,Omokoroa,
1793512,5028,Olivia Crescent,Tawa,Wellington
3078250,2120,Olivia Road,Pukekohe,
3065642,7011,Olivias Place,Stoke,Nelson
3080613,7615,Olivia Street,Rolleston,
1813781,4332,Olivia Street,Stratford,
1809169,3112,Olivine Street,Poike,Tauranga
1782636,8013,Olivine Street,Shirley,Christchurch
1836933,7010,Olivine Terrace,The Brook,Nelson
1780208,7674,Olliver Avenue,Springston,
1791870,5036,Olliver Grove,Waikanae Beach,Waikanae
1782650,8011,Olliviers Road,"Linwood,Phillipstown,Waltham",Christchurch
1790543,7886,Ollivier Street,Jackson Bay,Haast
1842331,3289,Olly Close,Grandview Heights,Hamilton
1835067,8022,Olmstead Lane,Huntsbury,Christchurch
3081125,0118,Olney Court,One Tree Point,Whangarei
1831698,1042,Olsen Avenue,Hillsborough,Auckland
1819323,0505,Olsen Avenue,Mangawhai Heads,Mangawhai
1833864,3284,Olsen Close,Matangi,Hamilton
3082532,3385,Olsen Place,Kinloch,Taupo
1776194,9775,Olsen Road,Maitland,Gore
1820602,0482,Olsen Road,Peria,Kaitaia
1797839,4900,Olsen Street,Eketahuna,
1842770,8042,Olsen Way,Wigram,Christchurch
1816496,4386,Olson Street,Egmont Village,
1806059,3204,Olwyn Green,Dinsdale,Hamilton
1840234,7201,Olwyn Place,Blenheim,
1831212,0632,Olwyn Place,Greenhithe,Auckland
1807506,3204,Olwyn Terrace,Dinsdale,Hamilton
1807507,3216,Olympia Place,Riverlea,Hamilton
1799831,4410,Olympic Court,Palmerston North,
1809651,3120,Olympic Drive,Whakatane,
1835268,8013,Olympic Lane,Edgeware,Christchurch
1822882,0600,Olympic Place,New Lynn,Auckland
1827914,2110,Olympic Place,Papakura,
3001809,4820,Olympus Circle,Linton,Palmerston North
1815442,3118,Olympus Grove,Papamoa Beach,Papamoa
1821621,0900,Olympus Road,Wellsford,
1831634,1025,Olympus Street,Mount Albert,Auckland
1841827,7580,Olympus Terrace,Castle Hill,
1789496,7020,Olympus Way,Richmond,
1829520,2025,Omagh Avenue,Papatoetoe,Auckland
1831019,0985,Omaha Block Access Road,Leigh,
1821620,0986,Omaha Drive,Omaha,
3007043,0986,Omaha Flats Road,"Point Wells,Tawharanui Peninsula","Matakana,Point Wells"
1792566,5018,Omaha Grove,Totara Park,Upper Hutt
1799039,4788,Omaha Road,Marton,
1786535,7901,Omahau Crescent,Twizel,
3017000,0985,Omaha Valley Road,Big Omaha,
1798630,4592,Omahina Road,"Mangawhio,Waverley",Waverley
3079388,3225,Omahina Street,Raglan,
1811629,3473,Omahine Road,Te Poi,Matamata
1801130,5036,Omahi Street,Waikanae,
3081521,0614,Oma Hoiho Place,Westgate,Auckland
1799365,0184,Omahu Nui Way,Oakura,Hikurangi
3033306,,Omahu Road,"Fernhill,Frimley,Twyford","Hastings,Napier"
1824762,,Omahu Road,"Greenlane,Remuera",Auckland
3082994,2681,Omahuru Road,Glenbrook,
1817579,4675,Omahuru Road,Okaiawa,Hawera
1813976,3079,Omahuru Street,Galatea,Murupara
1820003,0476,Omahuta Forest Road,Mangamuka,Okaihau
1820009,0476,Omahuta Road,Mangamuka,Okaihau
1806372,3674,Omahu Valley Road,Puriri,Thames
1789495,7010,Omahu Way,Nelson South,Nelson
3068638,0173,Omaikao Road,"Matapouri,Ngunguru",Whangarei
1802579,3199,Omaio Pa Road,Omaio,Opotiki
1802587,3199,Omaio School Road,Omaio,Opotiki
1791194,7276,Omaka Downs Road,Waihopai Valley,
3078431,5024,Omaka Place,Aotea,Porirua
1816342,3991,Omaka Road,Taumarunui,
3035825,9393,Omakau-Chatto Creek Road,"Chatto Creek,Omakau","Alexandra,Omakau"
1804612,4271,Omakere Road,Omakere,
1800821,3990,Omaki Road,Owhango,
1819298,0373,Omamari Beach Road,Omamari,Dargaville
3066407,0373,Omamari Road,"Kaihu,Omamari","Dargaville,Kaihu"
1824770,1023,Omana Avenue,Epsom,Auckland
1839098,0874,Omana Avenue,Shelly Beach,South Head
1828098,2018,Omana Beach Road,Maraetai,Auckland
1832167,2018,Omana Esplanade,Maraetai,Auckland
1832760,2018,Omana Heights Drive,Maraetai,Auckland
3040609,0473,Omanaia Road,"Omanaia,Oue",Kaikohe
3039438,,Omana Road,"Maungakaramea,Omana,Pukehuia,Waiotira","Maungakaramea,Tangiteroria,Waiotira"
1831210,0620,Omana Road,Milford,Auckland
1803114,4198,Omana Road,Nuhaka,
1832143,2025,Omana Road,Papatoetoe,Auckland
1808355,3171,Omanawa Falls Road,Omanawa,
3067525,0991,Omanawa Lane,Great Barrier Island (Aotea Island),
3007611,3171,Omanawa Road,Omanawa,
3082930,3110,Omanga Way,Bethlehem,Tauranga
1799049,4782,Omango Valley Road,Hunterville,
1802053,4010,Oman Street,Kaiti,Gisborne
1813350,3116,Omanu Court,Mount Maunganui,
3014675,4891,Omanuka Road,"Himatangi,Tangimoana",
1807973,4581,Omanu Street,Koitiata,Whanganui
1808819,3116,Omanu Way,Mount Maunganui,
2000687,3173,Omapere Lane,Pyes Pa,Tauranga
1803588,4179,Omapere Road,Crownthorpe,Hastings
1819956,0405,Omapere Road,Kaikohe,
3001461,4094,Omapere Road,"Otoko,Whatatutu",Te Karaka
1790060,7805,Omapere Street,Dobson,Greymouth
1800010,5024,Omapere Street,"Waitangirua,Whitby",Porirua
3021017,0571,Omarae Road,Pahi,Paparoa
1796531,4691,Omarae Road,Tangiwai,Ohakune
3058560,9412,Omarama Avenue,Omarama,
3045768,9412,Omarama-Lindis Pass Road,"Birchwood,Lindis Pass,Omarama","Lindis Pass,Omarama"
3010185,,Omarama-Otematata Road,"Benmore,Omarama,Otematata","Omarama,Otematata"
1813602,3592,Omara Place,Matarangi,Whitianga
1781406,7986,Omara Road,Milford,Temuka
1837748,5711,Omarere Road,Martinborough,
3030973,4592,Oma Road,"Mangawhio,Waverley",Waverley
3011198,4182,Omarowa Roadway,Te Haroto,Napier
1793629,6035,Omar Street,Khandallah,Wellington
1824769,1072,Omaru Lane,Glen Innes,Auckland
1796898,3197,Omarumutu Road,Toatoa,Opotiki
3039635,4183,Omarunui Road,"Puketapu,Waiohiki",Napier
1803587,4183,Omarunui Settlement Road,Puketapu,Napier
1810804,3983,Omaru Road,Aria,
3038212,,Omaru Road,"Matemateaonga,Ngamatapouri","Eltham,Whanganui"
1786162,8971,Omaru Road,Te Rapaki-o-Te Rakiwhakaputa,Lyttelton
1830843,0482,Omatai Road,Peria,Kaitaia
1799046,4794,Omatane North Road,Taoroa Junction,Taihape
1796522,3990,Omatane Road,Owhango,
3060712,4794,Omatane South Road,"Mangaweka,Taoroa Junction","Mangaweka,Taihape"
3017490,4310,Omata Road,"Blagdon,Marfell,Spotswood,Westown",New Plymouth
3017491,0991,Omata Road,Great Barrier Island (Aotea Island),
1798625,4592,Omata Road,Mangawhio,Waverley
1797960,4988,Omata Road,Pahiatua,
3016178,3192,Omataroa Road,"Lake Matahina,Omataroa,Te Teko,Waiohau",Whakatane
3050099,9877,Omaui Road,"Greenhills,Omaui",Invercargill
1831022,0984,Omaumau Road,Glorit,Warkworth
1820615,0479,Omaunu Road,Kaeo,
1818911,0176,Omauri Road,Pipiwai,Whangarei
1789538,7892,Omau Road,Cape Foulwind,
1786638,8023,Ombersley Terrace,Opawa,Christchurch
1833819,3600,O'Meara Heights,Paeroa,
3079800,9300,O'Meara Street,Frankton,Queenstown
3077977,0614,O'Meara Street,Swanson,Auckland
1784854,8051,Omega Place,Casebrook,Christchurch
3050357,3120,Omega Place,Coastlands,Whakatane
1803252,4122,Omega Place,Parkvale,Hastings
1793613,6037,Omega Street,Newlands,Wellington
1830013,0632,Omega Street,Rosedale,Auckland
3068745,3193,Omeheu Road,"Edgecumbe,Matata",
1781407,7985,Omelvena Road,Hilton,Geraldine
1785963,8081,Omeo Crescent,Redcliffs,Christchurch
3043480,9391,Omeo Gully Road,"Blackmans,Fraser Dam",Alexandra
3051561,9782,Omer Street,Limehills,Winton
1831760,1081,Omiha Road,Omiha,Waiheke Island
1839866,7612,O-mihi Lane,Pegasus,
3015770,7483,Omihi Road,"Glasnevin,Greta Valley,Omihi,Waipara","Amberley,Greta Valley,Waipara"
1779855,7483,Omihi Station Road,Omihi,Waipara
1813878,3889,Omimiti Street,"Kawhia,Te Wharu Bay",Kawhia
2009612,0478,Omiru Road,Kaeo,
1771154,9395,Omnibus Creek Road,Gimmerburn,Ranfurly
3021769,4392,Omoana Road,"Huinga,Mangamingi,Pukengahu","Eltham,Stratford"
1790722,7886,Omoeroa Road,Waiho,Franz Josef/Waiau
3025644,,Omokoroa Road,"Omokoroa,Whakamarama",
1796714,4501,Omori Place,Castlecliff,Whanganui
1795854,3381,Omori Road,"Kuratau,Omori",Turangi
3039330,7805,Omoto Road,"Greymouth,Kaiata",Greymouth
1790639,7805,Omoto Valley Road,"Dunganville,Kaiata","Arnold Valley,Greymouth"
3046761,4678,Omuturangi Road,"Auroa,Otakeho",Hawera
3072788,9883,Omutu Road,"Ermedale,Gropers Bush",Riverton/Aparima
1826813,0184,Omutu Street,Oakura,Hikurangi
1816431,4383,Onaero Beach Road,Onaero,Urenui
1816432,4375,Onaero River Road,Urenui,
3011179,7282,Onahau Bay,Onahau Bay,Marlborough Sounds
3042957,7282,Onahau Road,"Onahau Bay,Te Mahia",Marlborough Sounds
1788553,7182,Onahau Road,Puramahoi,Takaka
1791186,7275,Onamalutu Road,Onamalutu,Wairau Valley
1779383,7581,Onawe Flat Road,Duvauchelle,
1782632,8013,Onawe Place,Mairehau,Christchurch
1822729,0629,Ondine Place,Glenfield,Auckland
1823086,0604,Onedin Place,Titirangi,Auckland
3083926,3493,One Haruru Street,Cambridge,
1792895,5010,Onehuka Road,Tirohanga,Lower Hutt
1825445,1061,Onehunga Harbour Road,Onehunga,Auckland
1825446,1061,Onehunga Mall,Onehunga,Auckland
1805232,4182,Onehunga Road,Bay View,Napier
1839217,6022,Onehunga Road,Karaka Bays,Wellington
1787692,8051,O'Neill Avenue,Northwood,Christchurch
1770846,9320,O'Neill Crescent,Bridge Hill,Alexandra
1774385,9393,O'Neill Lane,Springvale,Alexandra
1787139,7999,O'Neill Place,Lake Tekapo,
1838180,7910,O'Neill Place,Watlington,Timaru
3008142,9398,O'Neill Road,"Orangapai,Patearoa,Waipiata","Patearoa,Ranfurly"
1826692,0182,O'Neill Road,Whakapara,Hikurangi
1774682,9492,O'Neill Road,Windsor,Oamaru
3063463,0622,O'Neills Avenue,"Hauraki Gulf / Tikapa Moana,Takapuna",Auckland
1782037,7987,O'Neills Road,Coal Stream,Fairlie
1797184,4585,O'Neills Road,Kakatahi,Whanganui
1782325,7978,O'Neills Road,Makikihi,Waimate
1823084,,O'Neills Road,Swanson,Auckland
1814429,3214,O'Neill Street,Claudelands,Hamilton
1824590,1011,O'Neill Street,Ponsonby,Auckland
1821619,0873,O'Neil Road,Kaukapakapa,
1776753,9812,O'Neil Road,Motu Rimu,Invercargill
1806367,3674,O'Neil Road,Puriri,Thames
3078882,0181,Onekainga Rise,Whananaki,Hikurangi
1788554,7182,Onekaka Iron Works Road,Onekaka,Takaka
3084667,3198,Onekawa Road,Waiotahe,Opotiki
1984536,0616,Onekiritea Road,Hobsonville,Auckland
1819947,0295,Onekura Road,Waipapa,
3084916,2120,Onekura Street,Pukekohe,Pukekohe
1982811,0932,Onekura Street,Red Beach,
1826807,0178,Onemama Street,Portland,Whangarei
1806373,3691,Onemana Drive,Onemana,Whangamata
1830209,0610,Onemana Way,Te Atatu Peninsula,Auckland
1820007,0473,Onemaroke Roadway,Waima,Kaikohe
1796519,3990,Onematua Road,Owhango,
1790542,7882,One Mile Line Road,Arahura Valley,Hokitika
1836049,7884,Oneone Road,Harihari,
3083927,3493,Oneone Street,Cambridge,
3083349,2113,Onepango Esplanade,"Pahurehure Inlet,Rosehill",Papakura
1822737,0622,Onepoto Road,Hauraki,Auckland
1802321,4087,Onepoto Road,Hicks Bay,
3004960,5022,Onepoto Road,Titahi Bay,Porirua
1802536,4195,Onepoto Road,Tuai,Wairoa
1799047,4787,Onepuhi Road,Marton,
3079469,0975,Onepuke Lane,Mangawhai,
1820747,0930,Onepu Lane,Manly,Whangaparaoa
1779836,7482,Onepunga Road,Broomfield,
3039124,6022,Onepu Road,"Kilbirnie,Lyall Bay",Wellington
1796515,3990,Onepu Road,Owhango,
1792298,5026,Onepu Road,Pukerua Bay,Porirua
3004766,3192,Onepu Spring Road,"Kawerau,Otakiri","Kawerau,Whakatane"
1782642,8061,Onepu Street,Bexley,Christchurch
3081959,3118,Onepuu Way,Papamoa Beach,Papamoa
1825987,0110,Onerahi Road,Onerahi,Whangarei
3080752,3510,Onerere Drive,Whitianga,
1819529,,Oneriri Road,Kaiwaka,
1833312,2013,Oneroa Road,East Tamaki,Auckland
1819299,0391,Oneroa Road,Pouto,
1819939,0202,Oneroa Road,Russell,
1798950,4010,Oneroa Road,Wainui,Gisborne
1820002,0376,Oneroa Road,Waipoua Forest,Aranga
1838782,1081,Oneroa Village Lane,Oneroa,Waiheke Island
1788555,7183,One Spec Road,Takaka,
3037469,3674,Onetai Road,Hikutaia,Paeroa
1825706,,Onetangi Road,"Onetangi,Waiheke Island",Waiheke Island
1821654,0626,Onetaunga Road,Chatswood,Auckland
1799919,4501,Onetere Drive,Whanganui Airport,Whanganui
3064762,4501,Onetere Road,Putiki,Whanganui
3052530,9495,One Tree Hill Road,"Herbert,Mount Stalker",Herbert
3022452,,One Tree Point Road,"One Tree Point,Ruakaka","Ruakaka,Whangarei"
3066944,9495,One Tree Ridge Road,"Hampden,Waianakarua",Hampden
1775209,9292,One Tree Road,Milton,
1809656,3194,Onewairere Place,Matata,
3038435,,Onewa Road,"Birkenhead,Northcote,Northcote Point",Auckland
3028838,4673,Onewhaia Road,"Normanby,Te Roti",Hawera
1833197,0984,Onewhero Road,Kaukapakapa,
1808157,2697,Onewhero-Tuakau Bridge Road,Onewhero,
3079398,1041,Ongaonga Lane,Mount Roskill,Auckland
3039049,4272,Ongaonga Road,"Ongaonga,Waipawa",
3069006,4283,Ongaonga Waipukurau Road,"Ashley Clinton,Ongaonga","Ongaonga,Takapau"
1808344,3177,Ongare Point Road,Tahawai,
3037357,3078,Ongaroto Road,Kinleith,Tokoroa
3041530,,Ongarue Back Road,"Ongarue,Taumarunui",
1813247,,Ongarue Stream Road,Waimiha,
1816343,3997,Ongarue Village Road,Ongarue,
3059507,3997,Ongarue-Waimiha Road,"Ongarue,Waimiha",
1940076,4374,Ongarui Close,Whalers Gate,New Plymouth
1796523,3990,Onge Street,Owhango,
1793511,5028,Ongley Crescent,Tawa,Wellington
1797269,4702,Ongley Street,Feilding,
1799044,,Ongo Road,Hunterville,
1799396,0184,Ongutukura Way,Oakura,Hikurangi
1810835,3979,Oniao Road,Aria,
1815071,3288,Onion Road,"Burbush,Horotiu",Hamilton
1819722,0112,Onoke Lane,Te Kamo,Whangarei
1801131,5036,Ono Street,Waikanae Beach,Waikanae
1824767,1023,Onslow Avenue,Epsom,Auckland
1827966,2104,Onslow Avenue,Papatoetoe,Auckland
1811316,3721,Onslow Avenue,Taupiri,
1835992,0632,Onslow Lane,Rosedale,Auckland
1816584,4312,Onslow Place,Merrilands,New Plymouth
1804181,4110,Onslow Road,Bluff Hill,Napier
1793622,6035,Onslow Road,"Kaiwharawhara,Khandallah",Wellington
1824420,1024,Onslow Road,"Kingsland,Mount Eden",Auckland
1837346,9304,Onslow Road,Lake Hayes,Queenstown
1827909,2110,Onslow Road,Papakura,
1798918,4072,Onslow Road,Patutahi,Gisborne
1776244,9814,Onslow Street,Bluff,
1819043,0310,Onslow Street,Dargaville,
1775980,9710,Onslow Street,Gore,
1807509,3216,Onslow Street,Hamilton East,Hamilton
1787910,7822,Onslow Street,Hector,
1810893,3700,Onslow Street,Huntly,
1809845,3127,Onslow Street,Kawerau,
3034295,9812,Onslow Street,"Newfield,Rockdale",Invercargill
1806963,3600,Onslow Street,Paeroa,
1772933,9012,Onslow Street,Saint Kilda,Dunedin
1782640,8014,Onslow Street,St Albans,Christchurch
1789877,7891,Onslow Street,Stockton,Westport
1781888,7910,Onslow Street,West End,Timaru
1839654,4785,Onslow Street East,Ohingaiti,Kimbolton
1839653,4785,Onslow Street West,Ohingaiti,Kimbolton
1793624,6012,Onslow Terrace,Kelburn,Wellington
1782638,8061,Ontario Place,Wainoni,Christchurch
1778196,9710,Ontario Street,"Diamond Peak,East Gore",Gore
1793615,6021,Ontario Street,Kingston,Wellington
1779256,,Onuku Road,Akaroa,
3078552,3210,Onukutara Place,Huntington,Hamilton
1842874,4110,Onyx Place,Awatoto,Napier
1810491,3015,Onyx Place,Pukehangi,Rotorua
3084291,9305,Onyx Street,Albert Town,Wanaka
1813662,3112,Onyx Way,Hairini,Tauranga
1855058,3210,Oolong Court,Huntington,Hamilton
3083487,2120,Oopunga Road,Pukekohe,
1818912,,Opaheke Road,"Opaheke,Papakura",Papakura
1820752,0983,Opahi Bay Road,Mahurangi West,Warkworth
1819938,0281,Opahi Road,Motatau,Kawakawa
1801874,,Opaki Kaiparoro Road,"Eketahuna,Kopuaranga,Mauriceville,Opaki","Eketahuna,Masterton,Mauriceville,Opaki"
1842399,5810,Opaki Meadows Lane,Lansdowne,Masterton
3020549,5810,Opaki Road,"Lansdowne,Masterton",Masterton
1833799,4591,Opaku Road,Moeawatea,Waverley
1833796,4597,Opaku Road,Patea,
1828103,2010,Opal Avenue,Pakuranga,Auckland
1839394,5018,Opal Avenue,Timberlea,Upper Hutt
1830113,0632,Opal Close,Rosedale,Auckland
1809353,3118,Opal Drive,Papamoa Beach,Papamoa
3079180,9305,Opal Lane,Wanaka,
1784853,8051,Opal Place,Casebrook,Christchurch
1807510,3210,Opal Place,Chartwell,Hamilton
1806375,3579,Opal Place,Pauanui,
1810492,3015,Opal Place,Pukehangi,Rotorua
3018842,0372,Opanake Road,"Mamaranui,Parore",Dargaville
1823093,0612,Opanuku Road,Henderson Valley,Auckland
3079613,5024,Opaoa Way,Aotea,Porirua
3062982,5022,Opapa Street,Titahi Bay,Porirua
1802586,3197,Opape Beach Road,Toatoa,Opotiki
3043997,0594,Oparakau Road,"Matakohe,Ruawai",
1787912,7893,Oparara Road,Karamea,
1830752,0473,Opara Road,Oue,Kaikohe
1797959,4982,Oparatai Road,Mangatainoka,Pahiatua
1806753,3574,Oparia Road,Turua,Ngatea
1830842,0494,Oparihi Road,Mangonui,
3032206,3985,Oparure Road,"Mangaotaki,Pomarangai,Te Kuiti","Piopio,Te Kuiti"
1806964,3600,Opatito Road,Paeroa,
1816344,3991,Opatu Road,Aukopae,Taumarunui
1793612,6972,Opau Road,Makara,Wellington
1799364,0184,Opau Road,Oakura,Hikurangi
1833291,2024,Opawa Crescent,Favona,Auckland
1799087,4410,Opawa Place,Terrace End,Palmerston North
3000199,,Opawa Road,"Hillsborough,Opawa,Waltham",Christchurch
1790874,7201,Opawa Street,"Blenheim,Islington",Blenheim
1801029,4884,Opawe Road,Pohangina,Ashhurst
1944764,0975,Opekapeka Road,Topuni,Wellsford
1812354,3330,Opepe Street,Taupo,
1842908,4122,Opera Lane,Hastings,
1837272,3582,Opera Place,Whangapoua,Coromandel
1810493,3010,Operiana Street,Ngongotaha,Rotorua
3081926,2110,Ope Taua Street,Papakura,
3007345,9393,Ophir Bridge Road,"Omakau,Ophir",Omakau
1785967,8081,Ophir Lane,Redcliffs,Christchurch
3071056,1010,Ophir Street,"Auckland Central,Grey Lynn",Auckland
1798618,4412,Opie Place,Highbury,Palmerston North
1782330,7924,Opie Street,Waimate,
1782039,7987,Opihi Gorge Road,Fairlie,
3017884,7982,Opihi Road,"Kakahu,Totara Valley","Geraldine,Pleasant Point"
1781402,7982,Opihi School Road,Totara Valley,Pleasant Point
3068451,8025,Opihi Street,"Cracroft,Hoon Hay",Christchurch
1782040,7925,Opihi Street,Fairlie,
1781403,7985,Opihi Terrace Road,Waitohi,Temuka
3009009,4474,Opiki Road,"Opiki,Shannon","Palmerston North,Shannon"
1778013,9689,Opio Road,"Opio,Wreys Bush",Otautau
1830741,0294,Opito Bay Road,Kerikeri,
1814237,3592,Opito Bay Road,Opito Bay,Whitianga
1806376,3582,Opitonui Road,Otapaurau,Coromandel
1837427,2013,Opito Way,East Tamaki,Auckland
3044194,9016,Opoho Loop Road,"North Dunedin,North East Valley,Opoho",Dunedin
3023998,9010,Opoho Road,"North Dunedin,North East Valley,Opoho",Dunedin
1842403,2684,Opoia Drive,Awhitu,
1807511,3216,Opoia Road,Hamilton East,Hamilton
3079715,0420,Opoi Lane,Cable Bay,
3078846,2582,Opoka Street,"Papakura,Takanini","Auckland,Papakura"
3079867,3197,Oponae Road,Waioeka,Opotiki
1842193,0473,Opononi Heights Drive,Opononi,
3016289,4971,Oporae Road,"Waione,Weber",Weber
3083885,4970,Oporae Side Road,Weber,
3014378,9874,Oporo Flat Road,"Northope,Oporo",Invercargill
1816345,3996,Opotiki Road,Taumarunui,
1819297,0376,Opotonga Road,Waipoua,Aranga
1832635,0873,Opoto Place,Kaukapakapa,
1814999,3225,Opotoru Road,Raglan,
3078354,2681,Opouatu Avenue,Glenbrook,
3081311,3129,Opou Place,Katikati,
1817309,4685,Opourapa Road,Rahotu,Opunake
3023602,7194,Opouri Road,Rai Valley,
1798919,4072,Opou Road,"Manutuke,Patutahi","Gisborne,Manutuke"
1823095,0604,Opou Road,Titirangi,Auckland
1803115,4198,Opoutama Road,Mahia,
3056128,0379,Opouteke Road,"Aranga,Kaihu",
3078437,0172,Opouteke Road,Pakotai,Whangarei
1806377,3691,Opoutere Road,"Opoutere,Whangamata",Whangamata
1829706,0618,Optimist Place,West Harbour,Auckland
1842749,5024,Optimist Way,Whitby,Porirua
1795389,5792,Opuakaio Road,Kokotau,Carterton
1935894,0200,Opua Marina,Opua,
1817311,4681,Opua Road,Opunake,
1806750,3597,Opua Road,Turua,Ngatea
3035700,0622,Opua Street,"Bayswater,Belmont",Auckland
3016164,7987,Opuha Dam Road,"Ashwick Flat,Fairlie",Fairlie
3042613,7987,Opuha Gorge Road,Ashwick Flat,Fairlie
1781412,7992,Opuha Street,Orari,Temuka
1838295,7992,Opuha Street East,Orari,Temuka
1808354,3172,Opuhi Road,Matakana Island,
3008086,3171,Opuiaki Intake Road,"Kaimai Mamaku Conservation Park,Lower Kaimai","Kaimai Mamaku Conservation Park,Tauranga"
1790544,7886,Opuka Place,Haast,
1815102,3600,Opukeko Road,Paeroa,
1838743,,Opunake Road,"Awatuna,Cardiff,Mahoe,Riverlea,Stratford,Te Kiri","Hawera,Opunake,Stratford"
1830629,0391,Opuna Road,Pouto,
1809846,3127,Opunoke Drive,Kawerau,
1809641,3191,Opurana Road,Ruatoki,Taneatua
1816337,3991,Opura Road,Aukopae,Taumarunui
1808349,3172,Opureora Road,"Matakana Island,Tauranga Harbour",Matakana Island
1791799,5010,Opurere Grove,Tirohanga,Lower Hutt
1838870,0632,Oracle Drive,Albany,Auckland
1820748,,Oraha Road,"Huapai,Kumeu",Kumeu
1814518,3900,Orahiri Terrace,Otorohanga,
1778017,9881,Oraka Place,Colac Bay/Oraka,Riverton/Aparima
3007394,4198,Oraka Road,Mahia,
1778933,9600,Oraka Street,Te Anau,
1831697,1023,Orakau Avenue,Epsom,Auckland
1797591,4816,Orakau Avenue,Ohakea,Bulls
1828085,2024,Orakau Road,Mangere East,Auckland
1819945,0474,Orakau Road,"Matawaia,Punakitere Valley,Tautoro","Kaikohe,Kawakawa"
1812350,3083,Orakei Korako Road,Ohakuri,Reporoa
1834220,3112,Orakei Place,Welcome Bay,Tauranga
1839919,4470,Orakei Road,Kelvin Grove,Palmerston North
1824764,1050,Orakei Road,"Orakei,Remuera",Auckland
1788281,7011,Orakei Street,Tahunanui,Nelson
1781400,7986,Orakipaoa Island Road,Milford,Temuka
3083021,3206,Oralee Terrace,Peacocke,Hamilton
1782635,8061,Oram Avenue,New Brighton,Christchurch
1839213,4472,Oram Drive,Turitea,Palmerston North
1785056,7630,Oram Place,Kaiapoi,
1815686,2474,Oram Road,"Mercer,Meremere",Mercer
1828090,2102,Orams Road,"Hillpark,Manurewa,Totara Heights",Auckland
3030962,1061,Oranga Avenue,"Onehunga,Penrose",Auckland
3018480,1971,Oranga Bay,"Ponui Island / Chamberlins Island,Poroaki Bay",
3081523,0614,Oranga Drive,Westgate,Auckland
2011355,4702,Oranga Lane,Feilding,
1838060,9398,Orangapai Road,Orangapai,Ranfurly
1825986,0112,Oranga Road,Kensington,Whangarei
3027388,4310,Oranga Street,"Marfell,Westown",New Plymouth
1799797,4412,Orange Blossom Grove,Highbury,Palmerston North
1793618,6037,Orange Grove,Churton Park,Wellington
1808360,3110,Orange Lane,Bethlehem,Tauranga
1772729,9018,Orange Street,Green Island,Dunedin
1828102,2013,Orangewood Drive,"Northpark,Shamrock Park",Auckland
1819949,0294,Orangewood Road,Kerikeri,
1793609,6012,Orangi Kaupapa Road,"Kelburn,Northland",Wellington
1797342,4774,Orangipongo Road,Ohingaiti,Kimbolton
1813245,3994,Orangi Road,Manunui,Taumarunui
3081022,3600,Oranmore Crescent,Paeroa,
1831804,1072,Oran Road,Panmure,Auckland
3080965,0932,Ora Nui Street,Wainui,
1838225,7178,Orapito Road,Kaiuma Bay,Havelock
1825717,1971,Orapiu Road,"Te Matuku Bay / McLeods Bay,Waiheke Island",Waiheke Island
3010843,7992,Orari Back Road,"Geraldine,Orari Bridge",Geraldine
1825981,0112,Orari Place,Te Kamo,Whangarei
3070581,7992,Orari-Rangitata Highway,"Belfield,Ealing,Orari,Orton,Rangitata,Rangitata Island","Ashburton,Geraldine,Temuka"
1786412,7992,Orari River Road,Peel Forest,Mount Peel
3031994,,Orari Station Road,"Geraldine,Orari","Geraldine,Temuka"
1781410,7992,Orari Street,Arundel,Geraldine
1786640,8061,Orari Street,Bexley,Christchurch
1793623,6035,Orari Street,Ngaio,Wellington
1770101,9012,Orari Street,South Dunedin,Dunedin
1798980,4010,Ora Street,Makaraka,Gisborne
3025710,0632,Oratau Place,"Greenhithe,Waitemata Harbour",Auckland
1833358,0602,Oratia Drive,Glen Eden,Auckland
1810172,8051,Oratia Grove,Northwood,Christchurch
1806378,3691,Oratia Place,Onemana,Whangamata
1798225,5036,Oratia Street,Waikanae Beach,Waikanae
1828093,2102,Oratu Place,Manurewa,Auckland
3082491,2681,Orawahi Road,Glenbrook,
1839541,9682,Orawia Pukemaori Road,"Orawia,Pukemaori",Otautau
3003371,9620,Orawia Road,Tuatapere,
1778101,9682,Orawia Street,Eastern Bush,Otautau
1828101,2104,Orb Avenue,Manukau,Auckland
1839402,9679,Orbell Crescent,Te Anau,
1837360,9304,Orbell Drive,Lake Hayes,Queenstown
1770798,9493,Orbell Road,Pukeuri,Oamaru
1772539,9010,Orbell Street,Dalmore,Dunedin
3025911,7910,Orbell Street,"Glenwood,Highfield",Timaru
1782624,8023,Orbell Street,Sydenham,Christchurch
1800362,0632,Orbit Drive,Rosedale,Auckland
3079109,7692,Orbiter Drive,Ohoka,
1838697,2019,Orbit Place,Flat Bush,Auckland
3006885,1042,Orcades Place,"Lynfield,Mount Roskill",Auckland
1782625,8013,Orcades Street,Shirley,Christchurch
3077644,0932,Orca Drive,Stanmore Bay,Whangaparaoa
1785804,8083,Orca Lane,Parklands,Christchurch
1842103,0173,Orca Lane,Tutukaka,Whangarei
1807512,3214,Orchard Avenue,Enderley,Hamilton
1789162,7096,Orchard Creek Road,Tapawera,Wakefield
1770885,9320,Orchard Drive,Alexandra,
3036360,,Orchard East Road,"Ngatea,Turua",Ngatea
1808479,9024,Orchard Grove,East Taieri,Mosgiel
1840719,7700,Orchard Grove,Netherby,Ashburton
1799397,9371,Orchard Hill,Arrowtown,
3081526,3882,Orchardist Way,Ngahinapouri,Ohaupo
2015884,7410,Orchard Lane,Amberley,
1806220,0810,Orchard Lane,Huapai,Kumeu
3079547,0573,Orchard Lane,Mangawhai,
1782271,7193,Orchard Lane,Okiwi Bay,
1791538,7201,Orchard Lane,Springlands,Blenheim
3035368,7691,Orchard Place,Clarkville,Kaiapoi
1770978,9310,Orchard Place,Cromwell,
1820296,0410,Orchard Place,Kaitaia,
1810494,3010,Orchard Place,Lynmore,Rotorua
3082042,3472,Orchard Place,Matamata,
1831813,0110,Orchard Place,Morningside,Whangarei
1827911,2113,Orchard Rise,Rosehill,Papakura
3000880,0630,Orchard Road,"Browns Bay,Torbay,Waiake",Auckland
1805145,4120,Orchard Road,Camberley,Hastings
1786869,8053,Orchard Road,"Christchurch Airport,Harewood",Christchurch
1833809,3193,Orchard Road,Edgecumbe,
1840617,5712,Orchard Road,Greytown,
1813400,3591,Orchard Road,Hahei,Whitianga
1818629,0204,Orchard Road,Haruru,
1819952,0295,Orchard Road,Kerikeri,
1799614,4577,Orchard Road,Mangamahu,Whanganui
1815054,3782,Orchard Road,Te Kauwhata,
1840217,4472,Orchard Road,Turitea,Palmerston North
1815968,3610,Orchard Road,Waihi,
1771757,9382,Orchard Road,Wanaka,
1781061,7778,Orchards Road,Mayfield,Ashburton
1824766,1026,Orchard Street,Avondale,Auckland
1771415,9330,Orchard Street,Clyde,
1788282,7011,Orchard Street,Stoke,Nelson
1793607,6012,Orchard Street,"Thorndon,Wadestown",Wellington
1854791,0892,Orchard Terrace,Riverhead,
1771812,3110,Orchard Way,Bethlehem,Tauranga
3041599,3503,Orchard West Road,Ngatea,
3082543,3600,Orchid Drive,Paeroa,
1813799,3112,Orchid Place,Ohauiti,Tauranga
1823087,0610,Orchid Place,Te Atatu South,Auckland
1840463,3120,Orchid Rise,Whakatane,
3081407,7608,Orchiston Way,Lincoln,
1793627,6023,Orchy Crescent,Southgate,Wellington
1809997,3985,Ordish Road,Waikawau,Piopio
1800349,5028,Ordley Grove,Tawa,Wellington
1780565,7600,Ordnance Road,Burnham,
1771414,9384,Ord Road,Cromwell,
1775979,9710,Ordsal Street,Gore,
1770801,9495,Ord Street,Herbert,
1813022,3882,O'Regan Road,"Ngahinapouri,Temple View","Hamilton,Ohaupo"
1802401,4087,O'Regan Road,Te Araroa,
3050956,7895,O'Regans Road,Inangahua,Reefton
1824768,1026,Oregon Avenue,Avondale,Auckland
1807513,3206,Oregon Crescent,Glenview,Hamilton
1771755,9300,Oregon Drive,Kelvin Heights,Queenstown
1792532,5018,Oregon Drive,Maoribank,Upper Hutt
1809387,3025,Oregon Drive,Murupara,
1812348,3330,Oregon Drive,Rainbow Point,Taupo
1779015,7334,Oregon Heights,Hanmer Springs,
1830484,0792,Oregon Park,Dairy Flat,
3078179,9230,Oregon Place,Balclutha,
1785974,8061,Oregon Place,Burwood,Christchurch
1827912,2110,Oregon Place,Papakura,
1803746,4102,Oregon Road,Te Awanga,
1772538,9013,Oregon Street,Ocean Grove,Dunedin
1823090,0618,Oreil Avenue,West Harbour,Auckland
1771292,9330,O'Reilly Avenue,Clyde,
1815362,3920,O'Reilly Crescent,Taumarunui,
2015082,7608,O'Reilly Road,Lincoln,
1817618,4597,O'Reilly Road,Patea,
3031162,6011,O'Reily Avenue,"Te Aro,Wellington Central",Wellington
3033788,3494,Oreipunga Road,"Maungatautari,Pukeatua","Cambridge,Pukeatua"
1814431,3216,Orelio Street,Hillcrest,Hamilton
3036667,,Orepuki Riverton Highway,"Colac Bay/Oraka,Longwood,Orepuki,Pahia,Riverton/Aparima,Round Hill,Tihaka",Riverton/Aparima
3081331,2679,Orepunga Way,Waiau Pa,Pukekohe
1828095,2585,Orere-Matingarahi Road,Orere Point,
1828094,2585,Orere Point Road,Orere Point,
1802582,3199,Orete Forest Road,Waihau Bay,Te Kaha
1802717,3199,Orete Point Road,Waihau Bay,Te Kaha
1815930,3118,Oreti Crescent,Papamoa Beach,Papamoa
1828097,2019,Oreti Place,Clover Park,Auckland
1776874,9783,Oreti Plains Road,Oreti Plains,Winton
1776877,9783,Oreti River Road,Oreti Plains,Winton
3032628,9672,Oreti Road,"Centre Hill,Mavora","Mossburn,Te Anau"
3032629,0176,Oreti Road,"Motatau,Pipiwai","Kawakawa,Whangarei"
1776658,9879,Oreti Road,Otatara,Invercargill
1776876,9783,Oreti School Road,Oreti Plains,Winton
1778790,9792,Oreti Street,Castlerock,Lumsden
1778775,9710,Oreti Street,Gore,
1776588,9812,Oreti Street,Kingswell,Invercargill
3083382,3710,Oreti Way,Te Kauwhata,
1838662,8083,Orewa Close,Parklands,Christchurch
1800304,5014,Orewa Grove,Wainuiomata,Lower Hutt
1830868,0931,Orewa Heights Crescent,Orewa,
1834449,0931,Orewa Square,Orewa,
1821906,0630,Orewa Street,Torbay,Auckland
3068786,9371,Orford Drive,Jacks Point,Queenstown
3078385,2112,Orford Lane,Takanini,Auckland
1825387,1042,Oriana Avenue,Lynfield,Auckland
1809075,3110,Oriana Crescent,Bellevue,Tauranga
1783984,8042,Oriana Crescent,Hornby,Christchurch
1798729,4412,Oriana Place,Highbury,Palmerston North
1814038,3510,Oribi Place,Whitianga,
1791988,5028,Oriel Avenue,Tawa,Wellington
1798428,5510,Oriel Place,Levin,
1804180,4112,Oriel Place,Pirimai,Napier
1793589,5028,Oriel Place,Tawa,Wellington
1781886,7910,Orielton Place,Gleniti,Timaru
3082881,7614,Oriel Way,Rolleston,
3006763,6011,Oriental Parade,"Oriental Bay,Roseneath,Te Aro",Wellington
1815927,3118,Oriental Parade,Papamoa Beach,Papamoa
1800302,5012,Oriental Street,Petone,Lower Hutt
1818026,4312,Oriental Street,Welbourn,New Plymouth
3042948,6011,Oriental Terrace,"Mount Victoria,Oriental Bay",Wellington
1775511,9310,Orient Street,Cromwell,
1792886,5013,Orihau Terrace,Eastbourne,Lower Hutt
1832350,2010,Orinda Close,Botany Downs,Auckland
3013146,4972,Oringi Road,"Dannevirke,Kumeroa",
1809658,3193,Orini Road,Edgecumbe,
3002527,,Orini Road,"Huntly,Orini,Taupiri,Whitikahu","Huntly,Orini,Taupiri"
1815911,3112,Orion Drive,Welcome Bay,Tauranga
1800071,5024,Orion Lane,Cannons Creek,Porirua
1808757,3116,Orion Lane,Mount Maunganui,
1822716,0627,Orion Place,Hillcrest,Auckland
3083229,9305,Orion Place,Wanaka,
1778086,9876,Orion Road East,Makarewa,Invercargill
1775755,9876,Orion Road West,Makarewa,Invercargill
1788283,7011,Orion Street,Annesbrook,Nelson
1788548,7073,Orion Street,Collingwood,
1776870,9730,Orion Street,Lumsden,
1827910,2110,Orion Street,Papakura,
1782647,8013,Orion Street,Shirley,Christchurch
1810495,3015,Orion Street,Sunnybrook,Rotorua
3081770,5710,Orion Way,Featherston,
1838829,3112,Orion Way,Welcome Bay,Tauranga
1819946,0230,Oripiro Road,Kerikeri,
1820006,0476,Orira Road,Umawera,Okaihau
3082929,3110,Oriri Lane,Bethlehem,Tauranga
1793620,6035,Orissa Crescent,Broadmeadows,Wellington
3080316,4310,Orite Drive,Welbourn,New Plymouth
1796297,5512,Oriwa Crescent,Otaki,
1841145,5571,Oriwa Lane,Levin,
1798236,5036,Oriwa Street,Waikanae,
1808756,3116,Orkney Road,Mount Maunganui,
1782633,8052,Orkney Street,Strowan,Christchurch
1776584,9810,Orkney Street,Waikiwi,Invercargill
1837156,4310,Orlando Close,Frankleigh Park,New Plymouth
1785508,8083,Orlando Crescent,Waimairi Beach,Christchurch
1809610,4332,Orlando Street,Stratford,
1839260,4414,Orlando Way,Kelvin Grove,Palmerston North
1793853,6035,Orleans Street,Ngaio,Wellington
1829064,2022,Orly Avenue,Mangere,Auckland
1771246,9572,Ormaglade Place,Millers Flat,Roxburgh
1771245,9572,Ormaglade Road,Teviot,Roxburgh
1842138,7410,Ormandy Court,Amberley,
1782628,8062,Ormandy Place,Bromley,Christchurch
3020240,0178,Ormandy Road,"Mangapai,Maungakaramea","Maungakaramea,Whangarei"
1772937,9019,Orme Street,Outram,
3071558,,Ormiston Road,"East Tamaki,Flat Bush,Otara",Auckland
1825985,0110,Ormiston Road,Onerahi,Whangarei
1818916,0178,Ormiston Road,"Springfield,Waipu","Waipu,Whangarei"
1787911,7891,Ormiston Street,Denniston,Westport
1803117,4198,Ormond Drive,Mahia,
2006683,0932,Ormonde Drive,Silverdale,
1820182,0405,Ormonde Place,Kaikohe,
1824771,1050,Ormonde Road,Remuera,Auckland
1805293,4110,Ormond Road,Hospital Hill,Napier
3049211,4010,Ormond Road,"Kaiti,Lytton West,Mangapapa,Riverdale,Whataupoko",Gisborne
3049207,7674,Ormond Road,Lincoln,
1805474,4999,Ormond Road,"Mangatainoka,Woodville","Pahiatua,Woodville"
1803257,4175,Ormond Road,Twyford,Hastings
1803118,4108,Ormond Road,Wairoa,
1804614,4284,Ormond Street,Porangahau,
1804913,4920,Ormond Street,Woodville,
1798856,4071,Ormond Valley Road,Ormond,Gisborne
3064838,4977,Ormondville Te Uri Road,"Ormondville,Te Uri","Dannevirke,Ormondville"
1801810,5018,Ormrod Grove,Riverstone Terraces,Upper Hutt
1807969,3900,Ormsby Crescent,Otorohanga,
1808482,3171,Ormsby Lane,Omanawa,
1811315,3281,Ormsby Road,Horsham Downs,Hamilton
3019706,3973,Ormsby Road,"Pirongia,Puketotara,Tihiroa","Otorohanga,Pirongia"
1781662,7920,Ormsby Street,Temuka,
1781663,7920,Ormsby Street North,Temuka,
1821907,0630,Orne Street,Torbay,Auckland
1785302,7471,O'Roarkes Road,Fernside,Rangiora
1829616,2013,Orohena Close,Northpark,Auckland
1812147,3681,Orokawa Heights Road,Waihi,
1772936,9085,Orokonui Road,Waitati,
1944705,0931,Oro Lane,Orewa,
3055408,,Oromahoe Road,"Kawakawa,Opua,Opua Forest,Oromahoe","Haruru,Kawakawa,Northland Conservation Park,Opua"
1837353,0472,Oromahoe School Road,Oromahoe,Haruru
1820598,0484,Oromanga Road,Te Kao,
3080522,2112,Orona Place,Takanini,Auckland
3083270,2025,Orona Way,Papatoetoe,Auckland
3084375,5018,Orongomai Street,Wallaceville,Upper Hutt
1806752,3574,Orongo Road,Orongo,Thames
1815508,3295,Orongo Road,Waitetuna,Raglan
1809998,3988,Orongo Road,Waitomo,Te Kuiti
3081114,5014,Orongorongo Terrace,Wainuiomata,Lower Hutt
1782631,8013,Orontes Street,Shirley,Christchurch
3038333,3173,Oropi Gorge Road,"Oropi,Pyes Pa","Oropi,Tauranga"
3057006,,Oropi Road,"Greerton,Oropi","Oropi,Tauranga"
3080151,7020,Oro Place,Richmond,
1840753,4312,Oropuriri Road,Waiwhakaiho,New Plymouth
1829621,1061,O'Rorke Road,Penrose,Auckland
1825520,1061,O'Rorke Street,Onehunga,Auckland
3078637,0478,Orotere Lane,Kaeo,
1840361,4112,Orotu Drive,"Poraiti,Tamatea",Napier
1829072,2023,Oroua Place,Otara,Auckland
3050486,4475,Oroua Road,"Kairanga,Newbury","Feilding,Kairanga"
1800960,4779,Oroua Street,Beaconsfield,Feilding
1800178,5013,Oroua Street,Eastbourne,Lower Hutt
1797341,4774,Oroua Street,Rangiwahia,Kimbolton
1808708,3119,Oroua Street,Te Puke,
1797712,4777,Oroua Valley Road,Apiti,
3054754,8051,O'Rourke Place,Casebrook,Christchurch
1796301,5512,O'Rourke Place,Otaki Beach,Otaki
1813167,3120,O'Rourke Place,Whakatane,
1777527,9876,O'Rourke Road,Rakahouka,Invercargill
1802647,4072,O'Rourke Road East,Ngatapa,Gisborne
1802648,4072,O'Rourke Road West,Ngatapa,Gisborne
1787914,7825,Orowaiti Road,Westport,
3078730,0614,Orowaru Avenue,Massey,Auckland
1818448,0481,Orowhana Road,Herekino,Kaitaia
1789217,7011,Orphanage Lane,Stoke,Nelson
1831715,1061,Orpheus Drive,Onehunga,Auckland
1827913,2110,Orpheus Place,Papakura,
1832010,2684,Orpheus Road,Manukau Heads,Awhitu
1770979,9310,Orpine Court,Cromwell,
1789306,7011,Orpington Place,Stoke,Nelson
1800182,5011,Orr Crescent,Hutt Central,Lower Hutt
1838592,2022,Orrell Place,Mangere,Auckland
1787421,8061,Orrick Crescent,Avondale,Christchurch
1778761,9776,Orr Road,"Balfour,Sandstone","Balfour,Riversdale"
1776871,9877,Orr Road,Waimatua,Invercargill
1795769,4471,Orrs Road,Aokautere,
3012266,7784,Orrs Road,"Barrhill,Lauriston",Lauriston
1820183,0405,Orrs Road,Kaikohe,
1829074,2025,Orrs Road,Wiri,Auckland
1775062,9018,Orr Street,Concord,Dunedin
1770802,9494,Orr Street,Duntroon,
1780739,7700,Orr Street,Netherby,Ashburton
1842766,8042,Orr Street,Wigram,Christchurch
1813811,4332,Orsino Place,Stratford,
1789617,7010,Orsman Crescent,Toi Toi,Nelson
1825386,1042,Orsova Place,Lynfield,Auckland
1774746,9310,Ortive Street,Cromwell,
1781397,7986,Orton Rangitata Mouth Road,"Clandeboye,Orton",Temuka
1822715,0627,Orton Street,Glenfield,Auckland
1827213,2684,Orua Bay Beach Road,Manukau Heads,Awhitu
1827214,2684,Orua Bay Road,Manukau Heads,Awhitu
3080609,3432,Orua Crescent,Leamington,Cambridge
1796336,4810,Oruaiti Crescent,Ashhurst,
1820601,0494,Oruaiti Road,Mangonui,
1805997,3994,Oruaiwi Road,Taringamotu,
1798720,4587,Oruakainga Road,Waitotara,Whanganui
3031123,,Oruakukuru Road,"Tangiwai,Waimarino",Ohakune
3043166,3591,Orua Lane,"Hot Water Beach,Whenuakite",Whitianga
3081280,3198,Oruamanganui Drive,Waiotahe Valley,
1990566,2120,O Ruamano Crescent,Pukekohe,
1821655,0626,Oruamo Place,Beach Haven,Auckland
3063907,3384,Oruanui Road,"Oruanui,Wairakei",Taupo
1812353,3330,Oruanui Street,Taupo,
1829057,2022,Oruarangi Road,Mangere,Auckland
1841020,0171,Orua Road,Ruakaka,
1815204,3382,Oruatua Avenue,Tauranga Taupo,Turangi
3052038,0991,Oruawharo Lane,Great Barrier Island (Aotea Island),
3004897,4281,Oruawharo Road,"Hatuma,Takapau","Takapau,Waipukurau"
3004898,0975,Oruawharo Road,"Oruawharo,Topuni",Wellsford
1830671,0975,Oruawharo School Road,Oruawharo,Wellsford
3081175,3010,Oruawhata Drive,Rotorua,
3035147,5872,Orui-Riversdale Road,Riversdale Beach,Masterton
3014627,2585,Orum Road,"Clevedon,Hunua",
3062626,4393,Oru Road,"Ngaere,Rawhitiroa","Eltham,Stratford"
3023131,,Oruru Road,"Peria,Taipa","Kaitaia,Taipa"
1796520,3990,Oru Street,Owhango,
1829067,2022,Orville Place,Mangere,Auckland
1790063,7871,Orwell Creek Road,Totara Flat,Ahaura
1776581,9812,Orwell Crescent,Newfield,Invercargill
1822712,0632,Orwell Road,Greenhithe,Auckland
1790061,7871,Orwell Street,Ahaura,
1773369,9230,Orwell Street,"Balclutha,Stirling",
1770188,9400,Orwell Street,Oamaru,
3083009,7700,Orwell Way,Elgin,Ashburton
3078822,0873,Osbaldiston Lane,Kaukapakapa,
1811644,3300,Osborne Avenue,Morrinsville,
1792894,5010,Osborne Place,Hutt Central,Lower Hutt
1827802,2110,Osborne Place,Papakura,
1812303,3420,Osborne Place,Tokoroa,
1786129,7410,Osborne Road,Amberley,
1811317,3281,Osborne Road,"Flagstaff,Horsham Downs",Hamilton
1772934,9081,Osborne Road,"Mihiwaka,Osborne,Purakaunui,Purakaunui Inlet",Port Chalmers
1825426,1023,Osborne Street,Newmarket,Auckland
1819944,0200,Osborne Street,Opua,
1778012,9822,Osborne Street,Riverton/Aparima,
1782646,8011,Osborne Street,Waltham,Christchurch
1797328,4702,Osborne Terrace,Feilding,
1772541,9011,Osborne Terrace,Mornington,Dunedin
1780738,7700,Osborn Grove,Allenton,Ashburton
3057164,7674,Osborn Road,"Lincoln,Tai Tapu",
3035087,7774,Osborns Road,"Eiffelton,Willowby",Ashburton
1786257,7572,Osbournes Road,Hororata,
3004680,9689,Osbourne Terrace,"Nightcaps,Tinkertown","Nightcaps,Otautau"
3080740,7615,Oscar Lane,Rolleston,
1811687,3510,Oscar Place,Whitianga,
1822713,0632,Oscar Road,"Greenhithe,Waitemata Harbour",Auckland
3084203,3114,Oscar Way,Omokoroa,
1787620,8011,O'Shannessey Place,Addington,Christchurch
1839361,2110,O'Shannessey Street,Papakura,
3032104,9781,O'Shannessy Road,"Lochiel,Thomsons Crossing",Winton
1791945,7025,O'Shea Place,Wakefield,
3049926,0991,O'Shea Road,Great Barrier Island (Aotea Island),
1832767,0110,O'Shea Road,Maunu,Whangarei
1813020,3876,O'Shea Road,"Pirongia,Pirongia Forest Park",
3049924,9776,O'Shea Road,"Waimea,Waipounamu",Riversdale
1786355,7771,O'Sheas Road,Ashburton Forks,Ashburton
1805642,4112,Osier Road,Greenmeadows,Napier
1810496,3015,Osiris Street,Pomare,Rotorua
3082146,0204,Osler Avenue,Paihia,
1803119,4108,Osler Street,Wairoa,
1801148,5510,Oslo Place,Levin,
1831213,0602,Osman Street,Glen Eden,Auckland
1831273,0612,Osmond Court,Sunnyvale,Auckland
1782644,8081,Osmond Lane,Mount Pleasant,Christchurch
1790062,7805,Osmond Road,Gladstone,Greymouth
1772540,9012,Osmond Street,South Dunedin,Dunedin
1809073,3112,Osprey Drive,Welcome Bay,Tauranga
1829060,2010,Osprey Street,Pakuranga,Auckland
1804045,4110,Ossian Street,Ahuriri,Napier
1773444,9220,Ossian Street,Milton,
3018705,3282,Ossie James Drive,"Ohaupo,Rukuhia","Hamilton,Ohaupo"
1784593,8042,Ostend Place,Avonhead,Christchurch
3064097,1081,Ostend Road,"Ostend,Waiheke Island",Waiheke Island
1780618,7672,Osterholts Road,Tai Tapu,
1829070,2104,Osterley Way,Manukau,Auckland
1782645,8025,Ostler Place,Hoon Hay,Christchurch
1786536,7901,Ostler Road,"Pukaki,Twizel",
1827210,2679,Ostrich Farm Road,"Patumahoe,Pukekohe",Pukekohe
1827211,2679,Ostrich Road,"Karaka,Patumahoe","Papakura,Pukekohe"
1841623,3473,O'Sullivan Drive,Matamata,
1804423,3420,O'Sullivan Drive,Tokoroa,
1840601,2123,O'Sullivan Place,Waiuku,
1838395,2016,Oswald Close,Flat Bush,Auckland
1793844,6037,Oswald Crescent,Paparangi,Wellington
1813812,4332,Oswald Place,Stratford,
1776867,9793,Oswald Road,Acton,
1778016,9792,Oswald Street,Castlerock,Lumsden
1802781,4010,Oswald Street,Mangapapa,Gisborne
1776868,9893,Ota Creek Road,Edendale,
3083547,0602,Otac Way,Glen Eden,Auckland
1819951,0474,Otaenga Road,Awarua,Kaikohe
1830739,0475,Otaere Road,Okaihau,
1829731,2024,Otago Place,Favona,Auckland
1791356,7220,Otago Street,Picton,
1820184,0295,Otaha Road,Kaeo,
1820008,0473,Otahi Road,Rawene,Kaikohe
3040469,5872,Otahome Road,"Otahome,Whareama",Masterton
3057655,9682,Otahu Eastern Bush Road,"Eastern Bush,Otahu Flat",Otautau
1780619,7672,Otahuna Road,Tai Tapu,
1824773,1051,Otahuri Crescent,Greenlane,Auckland
1816336,3995,Otahu Road,Matiere,
1806382,3620,Otahu Road,Whangamata,
1776866,9874,Otahuti Road,Otahuti,Invercargill
3061636,9874,Otahuti Spar Bush Road,"Northope,Otahuti",Invercargill
3026561,9874,Otahuti Wrights Bush Road North,"Otahuti,Waianiwa",Invercargill
1839550,9874,Otahuti Wrights Bush Road South,"Waianiwa,Wrights Bush",Invercargill
1812351,3382,Otaiatoa Street,Tauranga Taupo,Turangi
1795991,5036,Otaihanga Road,"Otaihanga,Paraparaumu",Paraparaumu
1800820,4392,Otaihanga Road,Whanganui National Park,
1799040,4720,Otaihape Valley Road,Taihape,
3066875,0110,Otaika Road,"Otaika,Raumanga,Woodhill",Whangarei
3056693,0170,Otaika Valley Road,"Maungatapere,Otaika",Whangarei
3080252,2022,Otaimako Place,Mangere,Auckland
1786587,7971,Otaio Cemetery Road,Otaio,Saint Andrews
1782331,7988,Otaio River Road,Otaio,Saint Andrews
1820599,0484,Otaipango Road,Houhora,Pukenui
3062917,9883,Otaitai Bush Road,"Otaitai Bush,Riverton/Aparima,Waimatuku",Riverton/Aparima
3040597,0185,Otakairangi Road,"Riponui,Ruatangata West",Whangarei
1820754,0874,Otakanini Road,Woodhill Forest,South Head
1837260,8061,Otakaro Place,Bexley,Christchurch
1816741,4310,Otaka Street,Moturoa,New Plymouth
1822709,0620,Otakau Road,Milford,Auckland
1812347,3377,Otake Road,Marotiri,Taupo
3082529,3377,Otaketake Drive,Kinloch,Taupo
3038618,5582,Otaki Gorge Road,"Hautere,Otaki,Tararua Forest Park","Otaki,Tararua Forest Park"
2010133,2025,Otaki Lane,Papatoetoe,Auckland
3018462,8083,Otaki Place,North New Brighton,Christchurch
1799091,4412,Otaki Place,Westbrook,Palmerston North
3051304,3192,Otakiri Road,"Edgecumbe,Otakiri","Edgecumbe,Whakatane"
1809455,3193,Otakiri Soldiers Road,Otakiri,Whakatane
1785057,7630,Otaki Street,Kaiapoi,
1793856,6022,Otaki Street,Miramar,Wellington
1770102,9012,Otaki Street,South Dunedin,Dunedin
1772424,9077,Otakou Golf Course Road,Otakou,Dunedin
1814238,3592,Otama Beach Road,Opito Bay,Whitianga
1776131,9773,Otama Flat Road,"Mandeville,Otama,Otamita",Gore
1776130,9777,Otama Hill Road,Wendon,Riversdale
3008944,3674,Otamakite Road,"Coromandel Forest Park,Puriri","Coromandel Forest Park,Thames"
1838845,3186,Otamarakau Foreshore,Pukehina,
1814584,3186,Otamarakau Valley Road,Pukehina,
1799968,5010,Otamarau Grove,Maungaraki,Lower Hutt
1782042,7984,Otama Road,Cave,
3068383,9777,Otama Road,"Chatton,Otama",Gore
1829866,0272,Otamarua Road,Russell,
3066963,9412,Otamatapaio Road,Otematata,
1812355,3379,Otamatea Road,Rangitaiki,Taupo
1803747,4179,Otamauri Road,"Otamauri,Whanawhana",Hastings
3050958,9777,Otama Valley Road,"Otama,Wendon","Gore,Riversdale"
3081419,3210,Otama Way,Flagstaff,Hamilton
3026477,9777,Otamita Gorge Road,"Croydon Bush,Hokonui Hills,Mandeville","Dipton,Gore"
1778256,9773,Otamita Lane,Otamita,Gore
1776163,9777,Otamita Road,"Knapdale,Otamita",Gore
1776869,9777,Otamita Valley Road,Hokonui Hills,Dipton
1797182,4573,Otamoa Road,Mangamahu,Whanganui
1785833,8971,Otamuhua Lane,Diamond Harbour,
1840272,3373,Otane Road,Patetonga,
1803120,4196,Otane Roadway,Wairoa,
1820751,0931,Otanerua Road,Hatfields Beach,Orewa
1802733,4077,Otane Street,Tolaga Bay,
1804725,4976,Otanga Road,Dannevirke,
1820624,0479,Otangaroa Road,"Kaeo,Mangamuka,Totara North","Kaeo,Okaihau"
1804726,4930,Otanga Street,Dannevirke,
3084742,0612,Otaota Court,Henderson,Auckland
3024654,2576,Otaota Way,Flat Bush,Auckland
1776875,9782,Otapiri Gorge Road,"Browns,Hokonui Hills,Otapiri,Otapiri Gorge","Dipton,Winton"
3026591,,Otapiri Mandeville Road,"Hokonui Hills,Otapiri Gorge","Dipton,Winton"
1820623,0478,Ota Point Road,"Kaeo,Whangaroa",Kaeo
1796521,3989,Otapouri Road,Owhango,
1796930,3197,Otara East Road,"Otara,Tirohanga",Opotiki
3002120,9884,Otara Haldane Road,"Haldane,Otara,Tokanui",Tokanui
3041812,5872,Otaraia Road,Riversdale Beach,Masterton
1810497,3074,Otaramarae Road,Okere Falls,Rotorua
1780564,7580,Otarama Road,Springfield,
3042626,4576,Otaranoho Road,"Pipiriki,Ranana",Whanganui
3029174,,Otaraoa Road,"Motunui,Tarata,Tikorangi","Tarata,Waitara"
1819300,0391,Otara Point Road,Te Kopuru,
1819532,0573,Otara Road,Kaiwaka,
1797340,4774,Otara Road,Ohingaiti,Kimbolton
3069957,3197,Otara Road,"Opotiki,Otara,Toatoa",Opotiki
1829066,2023,Otara Road,Otara,Auckland
1796529,4791,Otara Road,Rangiwaea,Taihape
1802871,4094,Otara Road,Te Karaka,
1784592,8053,Otara Street,Ilam,Christchurch
1801248,4785,Otara Street,Ohingaiti,Kimbolton
1776864,9875,Otara Street,Tokanui,
1839560,9875,Otara Tokanui Road,"Otara,Tokanui",Tokanui
1814732,3121,Otarawairere Road,Ohope,
3024554,7193,Otarawao Bay,"Otarawao Bay,Squally Cove",Marlborough Sounds
1804724,4978,Otaria Road,Dannevirke,
1773873,9771,Otaria Road,Waipahi,Gore
1815370,3994,Otataka Road,Ongarue,
1837363,0473,Otatara Marae Road,Waima,Kaikohe
1775871,9879,Otatara Road,"New River Ferry,Otatara,West Plains",Invercargill
1805295,4112,Otatara Road,Taradale,Napier
3069543,2682,Otaua Road,"Aka Aka,Otaua","Otaua,Waiuku"
1820010,0473,Otaua Road,"Otaua,Taheke",Kaikohe
1833270,2585,Otau Lane,Clevedon,
1829069,2585,Otau Mountain Road,Clevedon,
1827215,2583,Otau Road,Hunua,
1801117,4821,Otauru Road,Shannon,
3020378,9683,Otautau Drummond Road,"Drummond,Gladfield,Isla Bank,Otautau","Otautau,Winton"
3048878,9689,Otautau Nightcaps Road,"Nightcaps,Otautau,Waikoura,Wairio,Woodlaw","Nightcaps,Otautau"
1821969,4696,Otautau Road,Orautoha,Raetihi
3057439,,Otautau Tuatapere Road,"Happy Valley,Merrivale,Otautau,Piko Piko,Pukemaori,Raymonds Gap,Tuatapere,Waikoura","Otautau,Tuatapere"
3070269,9689,Otautau Wreys Bush Road,"Aparima,Bayswater,Otautau,Waikoura,Wreys Bush",Otautau
1817645,4597,Otauto Road,Patea,
1806384,3584,Otautu Wharf Road,Colville,Coromandel
3053552,5887,Otawa Drive,West Taratahi,Carterton
3053648,4971,Otawa Road,Pahiatua,
1814614,3119,Otawa Street,Te Puke,
3034867,4588,Otaweta Road,"Ngamatapouri,Waverley","Waverley,Whanganui"
1805695,4997,Otawhao Road,Kumeroa,
1805553,4287,Otawhao Road,Takapau,
1798237,5575,Otawhiwhi Road,Koputaroa,Shannon
3020139,0632,Oteha Valley Road,"Albany,Fairview Heights,Northcross,Oteha",Auckland
1830132,0632,Oteha Valley Road Extension,Albany,Auckland
3059294,9494,Otekaieke Bridle Track,"Danseys Pass,Otekaieke,Otiake","Duntroon,Oamaru"
1813986,3112,Oteki Park Drive,Welcome Bay,Tauranga
3028995,,Otematata-Kurow Road,"Aviemore,Kurow,Otematata","Kurow,Otematata"
1840069,9412,Otematata Station Road,Otematata,
1820005,0476,Otene Drive,Mangamuka,Okaihau
1803743,4172,Otene Road,Waipatu,Hastings
1830751,0492,Otengi Road,Panguru,
3020183,9495,Otepopo Street,Herbert,
3071532,9812,Otepuni Avenue,"Georgetown,Hawthorndale,Newfield",Invercargill
3053919,,Oteramika Road,"Kennington,Rockdale,Seaward Bush",Invercargill
3071355,5571,Otereo Street,Hokio Beach,Levin
3084253,2019,Otereti Street,Flat Bush,Auckland
3025937,,Otewa Road,"Otewa,Otorohanga,Waimahora",Otorohanga
1829061,2023,Othello Drive,Clover Park,Auckland
1787801,7614,Othello Drive,Rolleston,
3081183,4332,Othello Place,"Pembroke,Stratford",Stratford
1789867,7020,Otia Drive,Richmond,
1770792,9494,Otiake Road,Otiake,Duntroon
3032353,4696,Otikoki Road,"Parinui,Whanganui National Park","Raetihi,Whanganui National Park"
1808480,3189,Otimi Street,Maketu,
1819527,0975,Otioro Road,Topuni,Wellsford
3058950,7910,Otipua Road,"Highfield,Kensington,Watlington,West End",Timaru
3077954,3118,Otira Close,Papamoa Beach,Papamoa
1792893,5010,Otira Grove,Kelson,Lower Hutt
3038227,,Otira Highway,"Arthur's Pass National Park,Dillmanstown,Jacksons,Kumara,Kumara Junction,Otira,Turiwhate","Arthur's Pass National Park,Greymouth,Inchbonnie,Kumara"
1796527,4691,Otiranui Road,"Ohakune,Waimarino",Ohakune
1799094,4412,Otira Place,Awapuni,Palmerston North
1826728,0172,Otira Road,Pakotai,Whangarei
1824421,0600,Otira Street,Avondale,Auckland
3004949,4373,Otira Way,New Plymouth Airport,New Plymouth
1819796,,Otiria Road,Moerewa,
1819799,0281,Otiria Station Road,Moerewa,
1823078,0604,Otitori Bay Road,Titirangi,Auckland
1783772,8013,Otley Street,Christchurch Central,Christchurch
3081594,7700,Otley Street,Newland,Ashburton
3078348,2681,Otohikawa Avenue,Glenbrook,
1817640,4598,Otoia Road,"Kakaramea,Patea",Patea
1835300,4189,Otoi Pit Road,Tuai,Wairoa
1802537,4189,Otoi Road,Tuai,Wairoa
1844649,9092,Otokia Cemetery Road,Henley,Mosgiel
1775685,9091,Otokia-Kuri Bush Road East,Kuri Bush,Dunedin
3019420,9073,Otokia-Kuri Bush Road West,"Henley,Kuri Bush","Dunedin,Mosgiel"
1775683,9073,Otokia Road East,Henley,Mosgiel
3070864,9073,Otokia Road West,"Henley,Momona,Woodside","Mosgiel,Outram"
3038481,9092,Otokia Station Road,Allanton,Mosgiel
1802642,4092,Otoko School Road,Otoko,Te Karaka
3019716,5010,Otonga Heights,Maungaraki,Lower Hutt
3069631,0181,Otonga-Marua Road,"Hikurangi,Opuawhanga",Hikurangi
3063484,3015,Otonga Road,"Hillcrest,Springfield",Rotorua
1815009,3295,Otonga Valley Road,"Raglan,Waitetuna",Raglan
1793858,6037,Otonga Way,Churton Park,Wellington
1804722,4975,Otope Road,Dannevirke,
1798764,4710,Otore Street,Marton,
1806002,3794,Otorohaea Trig Road,Pukemiro,Ngaruawahia
3044283,,Otorohanga Road,"Kihikihi,Otorohanga,Tokanui","Otorohanga,Te Awamutu"
1807970,3972,Otoru Road,Otewa,Otorohanga
3079787,0972,Ototara Lane,Whangaripo,Wellsford
1820749,0874,Ototoa Road,Woodhill Forest,South Head
1810096,3985,Ototoika Road,Te Kuiti,
1800934,4574,Ototoka Beach Road,Pakaraka,Whanganui
1793851,6035,Ottawa Road,Ngaio,Wellington
1783781,8061,Ottawa Road,Wainoni,Christchurch
1788285,7011,Otterson Street,"Annesbrook,Tahunanui",Nelson
1770189,9400,Otter Street,Oamaru North,Oamaru
3080449,2402,Otto Lane,Pokeno,
1827639,2579,Otto Road,Ramarama,Drury
1810498,3083,Otto Road,Reporoa,
1808096,3611,Otto Road,Waihi Beach,
3051225,9587,Ottrey Road,"Heriot,Kelso",Tapanui
1776583,9812,Ottrey Street,Clifton,Invercargill
3082306,9091,Otuarae Drive,Taieri Beach,Taieri Mouth
3057752,4792,Otuarei Road,"Moawhango,Pukeokahu",Taihape
1830672,0591,Otuhianga Road,Matakohe,
1826730,0179,Otuhi Road,"Maungatapere,Wheki Valley",Whangarei
1826055,0112,Otuhiwai Crescent,Tikipunga,Whangarei
1814546,2696,Otuiti Road,Pukekawa,
1795857,3382,Otukou Road,Otukou,Turangi
3083648,3192,Otumahi Lane,Te Teko,Whakatane
1796528,4392,Otumangu Road,Whanganui National Park,
3013817,3110,Otumoetai Road,"Brookfield,Judea,Matua,Otumoetai",Tauranga
1816273,3991,Otunui North Road,Aukopae,Taumarunui
1816272,3991,Otunui South Road,Aukopae,Taumarunui
1812343,3330,Otupai Street,Two Mile Bay,Taupo
1840166,5032,Otupoa Way,Paraparaumu,
1830630,0371,Oturei Settlement Road,Aratapu,Dargaville
1798639,4510,Oturi Road,Waverley,
3057501,3072,Oturoa Road,"Hamurana,Ngongotaha","Hamurana,Rotorua"
1798228,5572,Oturoa Road,Poroutawhao,Levin
1820604,0482,Oturu Block Road,Kaitaia,
1833055,0173,Oturu Place,Tutukaka,Whangarei
1820603,0482,Oturu Road,Kaitaia,
1817926,4672,Otutaha Road,Manutahi,Patea
1830628,0381,Otutahuna Road,Tangiteroria,
1796963,3199,Otutehapari Road,Waihau Bay,Te Kaha
1822626,3377,Otutira Drive,Marotiri,Taupo
1815575,3575,Otuturu Creek Road,Ruamahunga,Thames
1806385,3575,Otuturu Crescent,Ruamahunga,Thames
3081505,2584,Otuwairoa Esplanade,Opaheke,Papakura
1789160,7197,Otuwhero Valley Road,Marahau,Motueka
3078361,0614,Otway Hendrick Lane,Swanson,Auckland
3033066,9691,Otway Road,Lillburn,Tuatapere
1811858,3393,Otway Road,Otway,Te Aroha
1791094,7204,Oudenarde Street,Renwick,
1825720,1081,Oue Road,Oneroa,Waiheke Island
1778723,9881,Ouetota Road,Pahia,Riverton/Aparima
1771181,9396,Oughter Street,Naseby,
1778497,9892,Oughton Road,Tuturau,
1819304,0372,Ounuwhao Road,Awakino Point,Dargaville
1784591,8083,Ourbridge Street,Kainga,Christchurch
1817312,4682,Ouri Road,Pihama,Opunake
1822363,0573,Our Lane,Kaiwaka,
1839583,0174,Our Road,Whangarei Heads,
3065051,3974,Ouruwhero Road,"Otorohanga,Te Kawa","Otorohanga,Te Awamutu"
1774601,9400,Ouse Street,Oamaru,
1797512,4476,Ouse Street,Rongotea,
3075450,4720,Outback Road,Taihape,
3084138,9371,Outcrop Lane,Jacks Point,Queenstown
1825425,1023,Outhwaite Lane,Grafton,Auckland
1775401,9305,Outlet Road,Wanaka,
3077944,8051,Outlook Place,Harewood,Christchurch
1822717,0632,Outlook Road,Greenhithe,Auckland
1845567,0932,Outlook Terrace,Silverdale,
1834857,4112,Outlook Terrace,Taradale,Napier
1792892,5010,Outram Grove,Kelson,Lower Hutt
3017779,9073,Outram-Mosgiel Road,"Mosgiel,North Taieri,Riverside",Mosgiel
1805144,4122,Outram Road,Akina,Hastings
1805294,4110,Outram Street,Ahuriri,Napier
1791092,7100,Outram Street,Havelock,
1772542,9010,Outram Street,North East Valley,Dunedin
1803121,4108,Outram Street,Wairoa,
1838273,2022,Outrigger Place,Mangere,Auckland
1773876,9535,Ovenden Street,Owaka,
1771247,9572,Oven Hill Road,Millers Flat,Roxburgh
1819526,0594,Ovens Road,Matakohe,
1839096,7614,Overbury Crescent,Rolleston,
1779075,8022,Overdale Drive,Cashmere,Christchurch
3003064,3411,Overdale Road,Putaruru,
1812098,3411,Overdale Street,Putaruru,
1835878,2120,Overend Court,Pukekohe,
3080956,0110,Overland Way,Port Whangarei,Whangarei
1824431,1072,Overlea Road,Glen Innes,Auckland
1842888,7604,Overton Place,Prebbleton,
1829455,2025,Overton Road,Papatoetoe,Auckland
1779838,7483,Overtons Road,Scargill,Waikari
3083318,3210,Overton Street,Rototuna North,Hamilton
1791990,6021,Overtoun Terrace,Hataitai,Wellington
1819795,0283,Owae Road,Karetu,
1795150,4991,Owahanga Road,Pongaroa,
1831931,0184,Owai Avenue,Helena Bay,Hikurangi
1807971,3973,Owaikura Road,Otorohanga,
1818917,1025,Owairaka Avenue,Mount Albert,Auckland
3008538,3877,Owairaka Valley Road,"Parawera,Wharepapa South","Parawera,Te Awamutu"
1796535,4576,Owairua Road,"Pipiriki,Whanganui National Park","Whanganui,Whanganui National Park"
1800181,5010,Owaka Close,Kelson,Lower Hutt
3038661,,Owaka Highway,"Ahuriri Flat,Balclutha,Finegand,Kaka Point,Katea,Otanomomo,Owaka,Romahapa","Balclutha,Kaka Point,Owaka"
1783983,8025,Owaka Road,Wigram,Christchurch
3026589,,Owaka Valley Road,"Clinton,Owaka,Owaka Valley,Purekireki","Clinton,Owaka"
1778496,9892,Oware Road,Oware,Wyndham
1809888,3975,Owawenga Road,Waimahora,Otorohanga
1771180,9396,Owel Street,Naseby,
1830323,2016,Owenbeg Rise,Dannemora,Auckland
3078762,0932,Owen Chapman Drive,Red Beach,
3081800,7571,Owen Drive,Darfield,
1811048,3793,Owen Drive,Glen Massey,
3041271,8016,Owenga Wharf Road,Chatham Island,Chatham Islands
1818550,0932,Owen Main Drive,Red Beach,
1930797,9371,Owen Marshall Lane,Arrowtown,
1808470,3114,Owen Place,Omokoroa,
1790873,7201,Owen Place,Springlands,Blenheim
1817916,3981,Owen Road,Aria,
3032009,4010,Owen Road,"Inner Kaiti,Outer Kaiti",Gisborne
1809848,3127,Owen Road,Kawerau,
3032008,9891,Owen Road,"Mataura Island,Pine Bush",Wyndham
1815329,3876,Owen Road,Pirongia,
1811314,3781,Owen Road,Waerenga,Te Kauwhata
1814625,3116,Owens Place,Mount Maunganui,
1831058,0624,Owens Road,Devonport,Auckland
1818918,1023,Owens Road,Epsom,Auckland
1827569,2123,Owens Road,Waiuku,
1783985,8041,Owens Terrace,"Sockburn,Upper Riccarton",Christchurch
1790754,7882,Owen Street,Awatuna,Hokitika
1792891,5010,Owen Street,Belmont,Lower Hutt
1797629,4481,Owen Street,Bunnythorpe,Palmerston North
1797268,4702,Owen Street,Feilding,
1800853,4501,Owen Street,Gonville,Whanganui
1772730,9018,Owen Street,Green Island,Dunedin
1804039,4110,Owen Street,Napier South,Napier
1793847,6021,Owen Street,Newtown,Wellington
1798728,4414,Owen Street,Palmerston North,
1790616,7873,Owen Street,Punakaiki,
1781661,7920,Owen Street,Temuka,
1806386,3500,Owen Street,Thames,
1804281,4273,Owen Street,Tikokino,
1806387,3510,Owen Street,Whitianga,
1788963,7077,Owen Valley East Road,Owen River,Murchison
1788964,7077,Owen Valley West Road,"Kahurangi National Park,Owen River","Kahurangi National Park,Murchison"
1806388,3582,Owera Road,Otapaurau,Coromandel
1809457,3191,Owhakatoro Road,Tawera,Taneatua
1778978,4791,Owhakura Road,"Kakatahi,Rangiwaea,Tangiwai","Ohakune,Taihape,Whanganui"
1791991,3990,Owhango Road,Owhango,
1820597,0481,Owhata Road,Herekino,Kaitaia
1810500,3010,Owhata Road,Owhata,Rotorua
3002843,3010,Owhatiura Drive,"Lynmore,Owhata",Rotorua
3079167,9024,Owhiro Avenue,Mosgiel,
3008796,6023,Owhiro Bay Parade,"Island Bay,Owhiro Bay",Wellington
1813902,3886,Owhiro Road,Owhiro,Oparau
3038692,5022,Owhiti Street,Titahi Bay,Porirua
3077839,0991,Owhitu Bay,"Great Barrier Island (Aotea Island),Port Abercrombie",Great Barrier Island (Aotea Island)
1826724,0192,Owhiwa Road,Parua Bay,
1829682,0632,Owl Court,Unsworth Heights,Auckland
1783777,8061,Owles Terrace,New Brighton,Christchurch
3083163,9372,Ox Burn Lane,Glenorchy,
1802703,9371,Oxenbridge Tunnel Road,Arthurs Point,Queenstown
2010953,8081,Oxenhope Road,Richmond Hill,Christchurch
1829870,0112,Oxford Avenue,Te Kamo,Whangarei
1836511,0632,Oxford Close,Northcross,Auckland
1808543,5032,Oxford Court,Paraparaumu,
1792534,5018,Oxford Crescent,Ebdentown,Upper Hutt
1781345,7985,Oxford Crossing Road,Temuka,
1789981,7020,Oxford Mews,Richmond,
1805541,4112,Oxford Place,Taradale,Napier
1779290,,Oxford Road,"Cust,Fernside,Rangiora","Cust,Rangiora"
3067873,,Oxford Road,"Cust,Oxford,Starvation Hill","Cust,Oxford"
1810504,3074,Oxford Road,Lake Rotoma,Rotorua
1829058,2102,Oxford Road,Manurewa,Auckland
1817053,,Oxford Road,Okato,
1796713,4501,Oxford Road,Springvale,Whanganui
1804915,4999,Oxford Road,Woodville,
1842335,9371,Oxfordshire Avenue,Lower Shotover,Queenstown
1799965,4810,Oxford Street,Ashhurst,
1773370,9230,Oxford Street,Balclutha,
3060044,9383,Oxford Street,Bendigo,Cromwell
1775978,9710,Oxford Street,East Gore,Gore
1814432,3214,Oxford Street,Fairfield,Hamilton
1780740,7700,Oxford Street,Hampstead,Ashburton
3060057,4410,Oxford Street,"Hokowhitu,Palmerston North",Palmerston North
1770187,9401,Oxford Street,Holmes Hill,Oamaru
1830795,0410,Oxford Street,Kaitaia,
1802127,4010,Oxford Street,Kaiti,Gisborne
1775841,9793,Oxford Street,Kingston,
1795148,5810,Oxford Street,Lansdowne,Masterton
3060056,5510,Oxford Street,Levin,
1778783,9730,Oxford Street,Lumsden,
1779999,8082,Oxford Street,Lyttelton,
1801445,5711,Oxford Street,Martinborough,
1801199,4710,Oxford Street,Marton,
1800390,6021,Oxford Street,Mount Cook,Wellington
1788286,7010,Oxford Street,Nelson,
1809074,3112,Oxford Street,Parkvale,Tauranga
1817643,4520,Oxford Street,Patea,
1791357,7220,Oxford Street,Picton,
1788962,7020,Oxford Street,Richmond,
1803423,4120,Oxford Street,Saint Leonards,Hastings
1775022,9012,Oxford Street,South Dunedin,Dunedin
1804041,4112,Oxford Street,Taradale,Napier
1793590,5028,Oxford Street,Tawa,Wellington
1790065,7805,Oxford Street,Taylorville,Greymouth
1808707,3119,Oxford Street,Te Puke,
1815154,3410,Oxford Street,Tirau,
1779837,7420,Oxford Street,Waikari,
1782132,7924,Oxford Street,Waimate,
1770401,9483,Oxford Street,Waynes,Palmerston
1781895,7910,Oxford Street,West End,Timaru
1830670,0583,Oxford Street,Whakapirau,
1776872,9793,Oxford Terrace,Athol,
3022899,5011,Oxford Terrace,"Avalon,Epuni,Hutt Central",Lower Hutt
1783768,8011,Oxford Terrace,Christchurch Central,Christchurch
1806390,3506,Oxford Terrace,Coromandel,
1821846,0624,Oxford Terrace,Devonport,Auckland
1818202,4394,Oxford Terrace,Midhirst,Stratford
1800391,6021,Oxford Terrace,Mount Cook,Wellington
1783767,8014,Oxley Avenue,St Albans,Christchurch
1825388,1041,Oxley Avenue,Wesley,Auckland
1806391,3579,Oxley Close,Pauanui,
1772537,9014,Oxley Crescent,Broad Bay,Dunedin
1841249,4815,Oxnam Place,Foxton Beach,Foxton
1818919,1041,Oxton Road,"Mount Eden,Sandringham",Auckland
1791093,7281,Oyster Bay Road,Port Underwood,Picton
1842677,0986,Oystercatcher Lane,Point Wells,
1773874,9771,Oyster Creek Road,Waikoikoi,Gore
1806392,3591,Oyster Drive,Cooks Beach,Whitianga
2013410,0618,Oyster Drive,Whenuapai,Auckland
1831272,0618,Oystergrove Road,West Harbour,Auckland
1840936,9881,Oyster Lane,Colac Bay/Oraka,Riverton/Aparima
1821936,0174,Oyster Lane,Parua Bay,
3084038,0593,Oyster Lane,Tinopai,
3082697,3114,Oyster Place,Omokoroa,
1820745,0984,Oyster Point Road,Kaukapakapa,
1838255,0984,Oyster Point Road West,Kaukapakapa,
1800673,5784,Oystershell Road,Hinakura,Martinborough
1823077,0610,Ozich Avenue,Te Atatu South,Auckland
1820756,0932,Ozone Road,Stanmore Bay,Whangaparaoa
