road_id,postcode,name,locality,city
1838736,0614,Vadam Road,Massey,Auckland
1778845,9793,Vaga Street,Lumsden,
1777352,9891,Vaga Street,Menzies Ferry,Wyndham
1783688,8052,Vagues Road,"Northcote,Papanui",Christchurch
1825196,1023,Vagus Place,Royal Oak,Auckland
3018905,8025,Vahsel Bay Place,Wigram,Christchurch
1812811,3432,Vaile Court,Leamington,Cambridge
3034452,3081,Vaile Road,"Broadlands,Reporoa",
1811142,3286,Vaile Road,Newstead,Hamilton
1812869,3800,Vaile Street,Te Awamutu,
1814529,3889,Vailima Place,Kawhia,
1824147,1021,Vailima Way,Eden Terrace,Auckland
3079382,3114,Valabrina Drive,Omokoroa,
1823260,0610,Valdale Road,Henderson,Auckland
1801964,0632,Valdena Avenue,Albany Heights,Auckland
1817005,2019,Valderama Drive,Flat Bush,Auckland
1828441,2023,Valder Avenue,Otara,Auckland
1806592,3575,Valder Place,Waiomu,Thames
1831085,0630,Valdese Rise,Browns Bay,Auckland
1784341,8083,Valecrest Avenue,Parklands,Christchurch
1822371,0629,Valecrest Place,Bayview,Auckland
1819693,0293,Valencia Lane,Kerikeri,
1783690,8081,Valencia Lane,Mount Pleasant,Christchurch
1828422,2102,Valencia Place,Manurewa,Auckland
1817732,0173,Valencia Place,Matapouri,Whangarei
1803787,4175,Valentine Road,Bridge Pa,Hastings
1824131,1010,Valentines Lane,Auckland Central,Auckland
1793146,5010,Valentine Street,Alicetown,Lower Hutt
1827855,2110,Valentine Street,Papakura,
1829710,0983,Valerie Close,Warkworth,
1822378,0792,Valerie Crescent,Okura,Auckland
1784333,8051,Valerie Place,Redwood,Christchurch
1838175,7010,Valerie Place,Stepneyville,Nelson
3080354,5010,Valerie Smith Lane,Belmont,Lower Hutt
1805223,4102,Valerie Street,Clive,
1824144,1071,Vale Road,"Glendowie,Saint Heliers",Auckland
1826089,0112,Vale Road,Riverside,Whangarei
1808963,3110,Vale Street,Otumoetai,Tauranga
3058829,8042,Vale Terrace,Wigram,Christchurch
1828449,2022,Valetta Place,Mangere,Auckland
3019135,7771,Valetta Westerfield Road,"Valetta,Westerfield",Ashburton
1789203,7020,Valhalla Close,Richmond,
1821748,0626,Valhalla Drive,Beach Haven,Auckland
1789241,7020,Valhalla Drive,Richmond,
1789785,7020,Valhalla Lane,Richmond,
1791439,7274,Valhalla Road,Kekerengu,Kaikoura
1772940,9018,Valiant Road,Waldronville,Dunedin
1828434,2022,Valiant Street,"Mangere,Mangere Bridge",Auckland
1842771,8042,Valiant Street,Wigram,Christchurch
1784689,8024,Validation Place,Middleton,Christchurch
3081664,3214,Valieres Terrace,Chartwell,Hamilton
1816990,4312,Valintine Place,Strandon,New Plymouth
1806054,,Valintine Road,"Gordonton,Morrinsville,Tauhei","Hamilton,Morrinsville,Tauhei"
1821749,0626,Valkyria Place,Beach Haven,Auckland
1834035,5713,Valkyrie Close,Carterton,
1988701,2018,Valkyrie Lane,Beachlands,Auckland
1818211,5032,Vallance Lane,Raumati Beach,Paraparaumu
1823276,0614,Vallance Place,Massey,Auckland
1779522,7392,Vallance Road,Balmoral,
1794274,6022,Vallance Street,Kilbirnie,Wellington
1795216,5889,Vallance Street,Tauweru,Masterton
1838144,9305,Valley Crescent,Wanaka,
1832993,2120,Valley Fields Place,Pukekohe,
1838876,3110,Valley Grove Way,Bethlehem,Tauranga
1822100,2120,Valley Heights Lane,Pukekohe,
1838174,7010,Valley Heights Road,"Beachville,Stepneyville,Washington Valley",Nelson
3022274,4775,Valley Road,"Ashhurst,Colyton,Pohangina","Ashhurst,Feilding"
1780103,7672,Valley Road,"Ataahua,Gebbies Valley",Tai Tapu
1789375,7095,Valley Road,Belgrove,Wakefield
1821997,0630,Valley Road,Browns Bay,Auckland
1783915,8022,Valley Road,Cashmere,Christchurch
1788687,7096,Valley Road,"Golden Downs,Kohatu",Wakefield
1791440,7374,Valley Road,Goose Bay,Kaikoura
1779857,7387,Valley Road,Greta Valley,
1825951,0114,Valley Road,Hikurangi,
1819497,0573,Valley Road,Kaiwaka,
1809877,3127,Valley Road,Kawerau,
1780104,7591,Valley Road,Little River,
3022264,9874,Valley Road,"Lochiel,Northope,Spar Bush","Invercargill,Winton"
3022280,4010,Valley Road,"Mangapapa,Riverdale,Whataupoko",Gisborne
1821407,0975,Valley Road,Mangawhai,
1792040,3924,Valley Road,Manunui,Taumarunui
3022275,4174,Valley Road,"Maraekakaho,Raukawa",
1825107,1024,Valley Road,Mount Eden,Auckland
1814642,3116,Valley Road,Mount Maunganui,
1822147,0626,Valley Road,Northcote,Auckland
1831747,1081,Valley Road,Omiha,Waiheke Island
3022273,4998,Valley Road,"Papatawa,Woodville",Woodville
1800768,5032,Valley Road,Paraparaumu,
1827391,2120,Valley Road,Pukekohe,
1802562,4189,Valley Road,Putere,Raupunga
3022276,4632,Valley Road,Raetihi,
1808678,3119,Valley Road,Te Puke,
1823270,0604,Valley Road,Titirangi,Auckland
1802854,4195,Valley Road,Tuai,Wairoa
1819010,0881,Valley Road,Waimauku,
3022285,3380,Valley Road,Waitoa,
1821419,0871,Valley Road,Waitoki,
1827586,2123,Valley Road,Waiuku,
1809770,,Valley Road,Whakatane,
1838455,2677,Valley Royal Way,Pukekohe,
1832994,2120,Valley Side Way,Pukekohe,
3078342,2677,Valley Springs Way,Ramarama,Drury
1800462,6023,Valley Street,Island Bay,Wellington
1773941,9532,Valley Street,Lawrence,
3056664,9483,Valley Street,Macraes,Macraes Flat
1807739,3204,Valley Terrace,Hamilton Central,Hamilton
1771810,3110,Valley View,Bethlehem,Tauranga
1775969,8081,Valley View,Mount Pleasant,Christchurch
3082313,0975,Valley View Lane,Hakaru,Kaiwaka
1799138,3384,Valley View Lane,Oruanui,Taupo
1822372,0629,Valley View Road,Glenfield,Auckland
1814605,3171,Valley View Road,Lower Kaimai,Tauranga
1826676,0170,Valley View Road,Otaika,Whangarei
1823266,0604,Valley View Road,Titirangi,Auckland
1799745,4472,Valley Views,Fitzherbert,Palmerston North
1771811,3110,Valley View Way,Bethlehem,Tauranga
3032250,5018,Valley View Way,Timberlea,Upper Hutt
1818537,2013,Valnera Close,Northpark,Auckland
1831469,0600,Valonia Street,"New Windsor,Wesley",Auckland
1840048,4478,Valor Drive,Milson,Palmerston North
2006802,7400,Valour Drive,Rangiora,
3080292,8025,Valour Lane,Halswell,Christchurch
3080871,2110,Valour Lane,Papakura,
1771882,9012,Valpy Street,Saint Clair,Dunedin
1823263,0602,Valron Road,Te Atatu South,Auckland
1787581,7777,Valverde Road,Wakanui,Ashburton
1839916,4818,Vampire Grove,Bulls,
1841277,4312,Vampire Place,Bell Block,New Plymouth
1772941,9018,Vampire Road,Waldronville,Dunedin
1786918,8024,Vanadium Place,Addington,Christchurch
1859354,8014,Van Ameyde Court,St Albans,Christchurch
1838763,3330,Van Asch Lane,Rangatira Park,Taupo
1803788,4102,van Asch Road,"Haumoana,Hawke Bay",Haumoana
1786820,8081,van Asch Street,Sumner,Christchurch
3083230,5713,Van Baarle Close,Carterton,
1780419,7005,van Beek Place,Ruby Bay,Mapua
3083955,9391,Van Boxtel Crescent,Clyde,
1828421,2014,Vanbrugh Place,Bucklands Beach,Auckland
3049505,7992,Vance Road,"Belfield,Orari","Geraldine,Temuka"
1798042,4821,Vance Street,Shannon,
1824945,1041,Vancouver Avenue,Sandringham,Auckland
1783686,8061,Vancouver Crescent,Wainoni,Christchurch
1774185,9300,Vancouver Drive,Queenstown,
1816996,4310,Vancouver Place,Marfell,New Plymouth
1796221,9600,Vancouver Place,Te Anau,
1800463,6021,Vancouver Street,Kingston,Wellington
1770030,9300,Vanda Place,Fernhill,Queenstown
1808959,3112,Vanda Place,Gate Pa,Tauranga
1822367,0626,Vandeleur Avenue,Birkdale,Auckland
1823269,0610,Vanden Place,Henderson,Auckland
1829677,0632,Vanderbilt Parade,"Albany,Rosedale",Auckland
1779157,8025,Vanderbilt Place,Halswell,Christchurch
1813848,3112,Vanderbilt Place,Welcome Bay,Tauranga
1794271,5016,van der Velden Way,Horokiwi,Wellington
3084398,9018,Vandes Way,Concord,Dunedin
1785514,8042,van Dieman Close,Templeton,Christchurch
1789640,7010,van Diemen Street,Nelson South,Nelson
1785629,8025,van Dyke Place,Halswell,Christchurch
1831305,0618,van Dyke Place,West Harbour,Auckland
3081558,3411,Van Dyk Place,Putaruru,
1811090,3295,Vandy Road,Waitetuna,Raglan
1824194,1071,Vanessa Crescent,"Glendowie,Wai o Taiki Bay",Auckland
1810837,8013,Vangelis Lane,Mairehau,Christchurch
1785859,7520,Vangioni Lane,Akaroa,
1841723,7614,Van Gogh Lane,Rolleston,
3014190,8042,Vanguard Drive,"Broomfield,Hei Hei",Christchurch
1774288,9300,Vanguard Lane,Fernhill,Queenstown
1830577,0602,Vanguard Road,Kelston,Auckland
1788397,7010,Vanguard Street,"Nelson,Nelson South",Nelson
1806593,3500,Vanguard Street,Thames,
1839319,0612,Vanhest Way,Ranui,Auckland
1811093,3295,van Houtte Road,Raglan,
1837079,3510,Vanita Drive,Whitianga,
3080898,2113,Vanni Lane,Pahurehure,Papakura
1841970,3210,Vanquish Place,Flagstaff,Hamilton
1951090,0810,Van Rixel Drive,"Huapai,Kumeu",Kumeu
3037280,3198,Vanstone Drive,Waiotahe,Opotiki
1840527,3210,Vantage Place,Flagstaff,Hamilton
1840238,3114,Vantage Place,Omokoroa,
1786822,8061,Vardon Crescent,Shirley,Christchurch
1823272,0604,Vardon Road,Green Bay,Auckland
3007795,3200,Vardon Road,"St Andrews,Te Rapa",Hamilton
1816420,4312,Vardon Way,Waiwhakaiho,New Plymouth
1781905,7910,Variety Lane,Timaru,
1822373,0629,Vari Place,Bayview,Auckland
1822374,0620,Varlene Terrace,Forrest Hill,Auckland
1815147,4410,Varsity Heights,Fitzherbert,Palmerston North
1794276,6035,Vasanta Avenue,Ngaio,Wellington
1839161,7614,Vasari Grange,Rolleston,
3078483,0616,Vasi Drive,Hobsonville,Auckland
1796214,5032,Vaucluse Avenue,Paraparaumu Beach,Paraparaumu
1815945,3330,Vaucluse Drive,Nukuhau,Taupo
3065904,4410,Vaucluse Heights,Fitzherbert,Palmerston North
1821996,0630,Vaughan Crescent,Murrays Bay,Auckland
3079654,7614,Vaughan Drive,Rolleston,
3016772,3010,Vaughan Road,"Ngapuna,Owhata",Rotorua
1804824,4974,Vaughan Road,Takapau,
1810721,3010,Vaughan Road Extension,Owhata,Rotorua
1781167,7782,Vaughans Road,Highbank,Methven
3013686,0792,Vaughans Road,"Long Bay,Okura",Auckland
1787026,7472,Vaughan Street,Sefton,
1836004,8051,Vaughan Way,Redwood,Christchurch
1831601,1051,Vause Street,Ellerslie,Auckland
1794264,6012,Vautier Avenue,Wadestown,Wellington
1804263,4110,Vautier Street,Napier South,Napier
3023785,0624,Vauxhall Road,"Devonport,Narrow Neck",Auckland
1784339,8053,Vauxhall Street,Bishopdale,Christchurch
1845249,0618,Vazey Way,Hobsonville,Auckland
1828446,2010,Veagh Place,Highland Park,Auckland
3011407,,Veale Road,"Frankleigh Park,Ridgewood",New Plymouth
1808050,3975,Veale Road,Otewa,Otorohanga
1858428,7891,Veale Way,Fairdown,Westport
1807741,3216,Vectis Road,Hillcrest,Hamilton
3078485,0616,Vectors Road,Hobsonville,Auckland
1813871,3800,Veda Lane,Te Awamutu,
1838649,3112,Veda Place,Pyes Pa,Tauranga
3004794,3198,Vedder Road,Waiotahe,Opotiki
1806893,3674,Vedders Road,Komata,Paeroa
1783913,8022,Vega Place,Heathcote Valley,Christchurch
1822376,0632,Vega Place,Rosedale,Auckland
1820252,0410,Vegar Street,Kaitaia,
1771473,9300,Veint Crescent,Queenstown,
1784345,8051,Veitches Road,"Bishopdale,Casebrook",Christchurch
1800773,4072,Veitch Road,Pehiri,
1827290,2122,Vela Place,Clarks Beach,
3079426,9384,Velden Place,Lowburn,Cromwell
1787571,7692,Velino Place,Ohoka,
3050554,5022,Vella Street,Titahi Bay,Porirua
1814475,3200,Velma Crescent,Nawton,Hamilton
1822370,0627,Velma Road,Hillcrest,Auckland
1787173,8061,Velsheda Street,Bexley,Christchurch
1837263,3434,Velutina Avenue,Cambridge,
1828448,2023,Velvet Crescent,Otara,Auckland
1805353,4110,Venables Avenue,Onekawa,Napier
1841189,8042,Venerable Terrace,Yaldhurst,Christchurch
1850567,2019,Veneta Close,Flat Bush,Auckland
1792715,5018,Venetia Way,Totara Park,Upper Hutt
1800555,0632,Veneto Avenue,Albany Heights,Auckland
1840630,7011,Venice Place,Stoke,Nelson
1795679,5711,Venice Street,Martinborough,
3049346,9892,Venlaw Road,"Oware,Slopedown","Clinton,Wyndham"
1813424,3700,Venna Fry Lane,Huntly,
1794279,6021,Vennell Street,Brooklyn,Wellington
1812813,3432,Vennell Street,Leamington,Cambridge
3079778,9310,Venning Crescent,Cromwell,
1798034,4821,Venn Street,Shannon,
1783696,8061,Ventnor Crescent,Aranui,Christchurch
1796212,5032,Ventnor Drive,Paraparaumu,
1824195,1050,Ventnor Road,Remuera,Auckland
3050303,9011,Ventnor Street,"Kenmure,Mornington",Dunedin
1794262,6022,Ventnor Street,Seatoun,Wellington
1815876,3330,Ventoux Way,Nukuhau,Taupo
1770853,9320,Ventry Street,Alexandra,
1792719,5018,Ventura Avenue,Ebdentown,Upper Hutt
1801239,4818,Ventura Grove,Bulls,
1838981,3118,Ventura Key,Papamoa Beach,Papamoa
1828419,2022,Ventura Street,Mangere,Auckland
1789294,7197,Venture Cove,Kaiteriteri,Motueka
1789281,7197,Venture Cove Way,Kaiteriteri,Motueka
3080025,9382,Venture Crescent,Wanaka,
1787170,8024,Venture Place,Middleton,Christchurch
1839973,9371,Venus Place,Arthurs Point,Queenstown
1828420,2012,Venus Place,Half Moon Bay,Auckland
1792444,5024,Venus Place,Whitby,Porirua
3026983,9812,Venus Street,"Georgetown,Strathern",Invercargill
1799536,4414,Venus Way,Milson,Palmerston North
1841460,0932,Vera Court,Silverdale,
1830307,0178,Vera Heights,Maungakaramea,
1840168,5032,Vera Lane,Paraparaumu,
3008444,4396,Vera Road,"Kohuratahi,Whangamomona",Stratford
1823258,0610,Vera Road,Te Atatu South,Auckland
1776011,9710,Vera Street,Gore,
1794272,6012,Vera Street,Karori,Wellington
1792071,4710,Vera Street,Marton,
1805587,3116,Verbena Glen,Mount Maunganui,
1821730,0626,Verbena Road,Birkdale,Auckland
3078090,3300,Vercoe Crescent,Morrinsville,
1814955,3074,Vercoe Place,Okere Falls,Rotorua
1814149,3200,Vercoe Road,Beerescourt,Hamilton
3081046,9391,Vercoe Road,Springvale,Alexandra
3084431,7777,Vercoe Street,Elgin,Ashburton
1825198,1041,Vercoe Street,Mount Roskill,Auckland
1837759,0602,Verdale Circle,Glen Eden,Auckland
3080546,1062,Verdant Lane,Mount Wellington,Auckland
3080949,2019,Verdant View Avenue,Flat Bush,Auckland
1948152,7020,Verde Close,Richmond,
3080204,7674,Verdeco Boulevard,Lincoln,
3083641,2113,Verde Lane,Rosehill,Papakura
1829486,2025,Verdi Street,Papatoetoe,Auckland
3078676,0892,Verdot Close,Kumeu,
1777755,9822,Verdun Street,Riverton/Aparima,
1813815,3210,Vereker Court,Rototuna,Hamilton
1807742,3214,Verel Street,Fairfield,Hamilton
1823275,0604,Verena Place,Green Bay,Auckland
1778589,9893,Vere Street,Dacre,Invercargill
1814133,2022,Verissimo Drive,Mangere,Auckland
1783550,7984,Veritys Road,Maungati,Southburn
3080195,8013,Verlamio Lane,Edgeware,Christchurch
1835170,2016,Verley Rise,East Tamaki Heights,Auckland
1829831,0618,Vermeer Place,West Harbour,Auckland
1833836,3210,Vermont Court,Huntington,Hamilton
1793446,5014,Vermont Grove,Wainuiomata,Lower Hutt
1824188,1011,Vermont Place,Ponsonby,Auckland
1824184,1011,Vermont Street,"Grey Lynn,Ponsonby",Auckland
1807743,3200,Vernall Street,Nawton,Hamilton
1827689,2112,Verner Place,Conifer Grove,Takanini
1799522,4412,Vernon Avenue,Takaro,Palmerston North
1842662,7608,Vernon Drive,Lincoln,
1799947,5018,Vernon Grove,Brown Owl,Upper Hutt
1808623,3171,Vernon Road,Minden,Tauranga
1830986,0910,Vernon Shaw Place,Warkworth,
1831478,1010,Vernon Street,Auckland Central,Auckland
1776596,9812,Vernon Street,Kingswell,Invercargill
1827856,2110,Vernon Street,Papakura,
1791476,7274,Vernon Street,Riverlands,
1806594,3500,Vernon Street,Thames,
1781380,7985,Vernon Street,Winchester,
1783392,8022,Vernon Terrace,Hillsborough,Christchurch
1824944,1025,Verona Avenue,Mount Albert,Auckland
1787818,7614,Verona Court,Rolleston,
1842575,7700,Verona Drive,Allenton,Ashburton
1839657,2113,Verona Place,Karaka,Papakura
1785918,7692,Verona Place,Ohoka,
1808830,4332,Verona Place,Stratford,
1777354,9730,Verona Street,Lumsden,
1778876,9891,Verona Street,Menzies Ferry,Wyndham
1838875,3110,Verona Way,Judea,Tauranga
1804264,4110,Veronica Avenue,Marewa,Napier
1838803,0932,Veronica Close,Red Beach,
1816993,4312,Veronica Place,Bell Block,New Plymouth
1784349,8051,Veronica Place,Bishopdale,Christchurch
1794280,6021,Veronica Street,Brooklyn,Wellington
1829930,0600,Veronica Street,New Lynn,Auckland
1819740,0200,Veronica Street,Paihia,
3072087,3198,Verralls Road,Waiotahe,Opotiki
1786919,8052,Verran Place,Fendalton,Christchurch
3058677,0626,Verran Road,"Birkdale,Birkenhead",Auckland
1794267,6012,Versailles Street,Karori,Wellington
3082879,7614,Verstappen Drive,Rolleston,
1774120,9074,Verter Burn Road,Waipori,Outram
1794261,6012,Verviers Street,Karori,Wellington
1818619,2013,Vesca Place,Golflands,Auckland
3079206,3129,Vesey Drive,Katikati,
3078960,2113,Vespa Road,Karaka,Papakura
1839960,8042,Vesper Lane,Yaldhurst,Christchurch
1829809,1060,Vestey Drive,Mount Wellington,Auckland
1807744,3216,Vesty Avenue,Hillcrest,Hamilton
1829015,2023,Vetori Place,Clover Park,Auckland
3079569,7608,Veuve Drive,Lincoln,
1790810,7201,Vevian Place,Blenheim,
3070029,0481,Veza Road,"Herekino Forest,Kaitaia","Kaitaia,Northland Conservation Park"
1836032,5510,Via Aroha,Waitarere Beach,Levin
3066716,1010,Viaduct Harbour,"Auckland Central,Viaduct Basin",Auckland
1830457,1010,Viaduct Harbour Avenue,Auckland Central,Auckland
1835388,1072,Vialou Lane,Stonefields,Auckland
1814476,3204,Vialou Street,Hamilton Central,Hamilton
1817192,4200,Viax Lane,Waipukurau,
3082406,2578,Viburnum Close,Karaka,Papakura
1836280,1026,Vi Campbell Lane,Waterview,Auckland
3084137,3300,Vicarage Lane,Morrinsville,
1803786,4183,Vicarage Road,Puketapu,Napier
1825194,1041,Vic Butler Street,Mount Roskill,Auckland
1839156,0632,Vicente Place,Oteha,Auckland
1806095,7692,Vicenza Drive,Ohoka,
1785643,8025,Viceroy Place,Halswell,Christchurch
1819486,0520,Vicka's Way,Maungaturoto,
1798554,4893,Vickerman Road,Moutoa,Foxton
1788398,7010,Vickerman Street,"Beachville,Port Nelson",Nelson
1791090,,Vickerman Street,"Dillons Point,Grovetown","Blenheim,Dillons Point"
1829001,2023,Vickerman Street,Otara,Auckland
1832339,2022,Vickers Crescent,Mangere,Auckland
1817001,4312,Vickers Road,Waiwhakaiho,New Plymouth
3082601,3385,Vickers Way,Acacia Bay,Taupo
1771875,9011,Vickery Place,Maryhill,Dunedin
1780581,7500,Vickery Road,Sheffield,
1784157,8042,Vickerys Road,Wigram,Christchurch
1785063,7630,Vickery Street,Kaiapoi,
3007979,3200,Vickery Street,Te Rapa,Hamilton
1784156,8042,Vicki Street,Sockburn,Christchurch
3079307,3288,Vic Knight Lane,Te Kowhai,Hamilton
1818643,2582,Victa Lane,Ardmore,Papakura
1798037,5036,Victor Grove,Waikanae Beach,Waikanae
1776595,9810,Victoria Avenue,"Avenal,Queens Park",Invercargill
1804826,4930,Victoria Avenue,Dannevirke,
1800903,4500,Victoria Avenue,"Durie Hill,Whanganui",Whanganui
1797761,4995,Victoria Avenue,Eketahuna,
1799534,4410,Victoria Avenue,"Hokowhitu,Palmerston North",Palmerston North
1815105,3300,Victoria Avenue,Morrinsville,
1824197,1050,Victoria Avenue,Remuera,Auckland
1803174,4108,Victoria Avenue,Wairoa,
1827583,2123,Victoria Avenue,Waiuku,
1809771,3120,Victoria Avenue,Whakatane,
1791665,7220,Victoria Close,Picton,
1806066,4702,Victoria Court,Feilding,
1806595,3579,Victoria Court,Pauanui,
3057722,4410,Victoria Drive,West End,Palmerston North
1775698,9371,Victoria Flats Road,Gibbston,Queenstown
3016187,7010,Victoria Heights,Stepneyville,Nelson
3026649,9491,Victoria Hill Road,"Tapui,Windsor",Oamaru
1803781,4183,Victoria Lane,Waiohiki,Napier
1783919,8022,Victoria Park Road,Cashmere,Christchurch
1815188,3420,Victoria Place,Tokoroa,
3068232,3493,Victoria Road,"Cambridge,Pukemoremore,Tauwhare","Cambridge,Hamilton"
1831059,0624,Victoria Road,Devonport,Auckland
1816995,4310,Victoria Road,"Lower Vogeltown,New Plymouth",New Plymouth
1808884,3116,Victoria Road,Mount Maunganui,
3068230,4374,Victoria Road,Omata,New Plymouth
1804918,4998,Victoria Road,Papatawa,Woodville
1829488,2025,Victoria Road,Papatoetoe,Auckland
3068224,9012,Victoria Road,"Saint Clair,Saint Kilda,Tainui",Dunedin
3068226,7010,Victoria Road,Stepneyville,Nelson
1815212,4391,Victoria Road,Stratford,
1798044,4474,Victoria Road,Tokomaru,Palmerston North
1789534,7892,Victoria Road,Westport,
1774235,9775,Victoria Road East,"Glenkenich,Tapanui","Gore,Tapanui"
1825648,1081,Victoria Road North,"Onetangi,Waiheke Island",Waiheke Island
1825644,1081,Victoria Road South,Onetangi,Waiheke Island
3059101,9775,Victoria Road West,"Glenkenich,Tapanui","Gore,Tapanui"
1780323,7682,Victoria Square,Dunsandel,
1801646,5010,Victoria Street,Alicetown,Lower Hutt
3052808,7700,Victoria Street,"Ashburton,Hampstead",Ashburton
3052836,,Victoria Street,"Beerescourt,Hamilton Central,Whitiora",Hamilton
3052835,3434,Victoria Street,"Cambridge,Leamington",Cambridge
1795328,5713,Victoria Street,Carterton,
3052809,8013,Victoria Street,"Christchurch Central,Merivale",Christchurch
1806596,3506,Victoria Street,Coromandel,
1806597,3500,Victoria Street,"Coromandel Forest Park,Thames,Whakatete Bay","Coromandel Forest Park,Thames"
1819061,0310,Victoria Street,Dargaville,
1832009,2578,Victoria Street,Drury,
1792717,5018,Victoria Street,Ebdentown,Upper Hutt
1801673,4814,Victoria Street,Foxton,
1780577,7673,Victoria Street,Glentunnel,
1803436,4122,Victoria Street,"Hastings,Parkvale",Hastings
1817411,4610,Victoria Street,Hawera,
1817399,4679,Victoria Street,Kaponga,Hawera
1815860,3674,Victoria Street,Karangahake,
1798494,5510,Victoria Street,Levin,
1795956,4472,Victoria Street,Linton,Palmerston North
1795084,5810,Victoria Street,Masterton,
1772775,9024,Victoria Street,Mosgiel,
3052815,6011,Victoria Street,"Mount Cook,Te Aro,Wellington Central",Wellington
1790481,7886,Victoria Street,Okarito,Whataroa
1825470,1061,Victoria Street,Onehunga,Auckland
1797945,3122,Victoria Street,Opotiki,
1825832,1062,Victoria Street,Otahuhu,Auckland
1785135,7430,Victoria Street,Oxford,
1806920,3600,Victoria Street,Paeroa,
1797868,4910,Victoria Street,Pahiatua,
1787265,7910,Victoria Street,"Parkside,Timaru",Timaru
1817718,4520,Victoria Street,Patea,
1793331,5012,Victoria Street,Petone,Lower Hutt
1821411,0973,Victoria Street,Port Albert,Wellsford
1827393,2120,Victoria Street,Pukekohe,
1785250,7400,Victoria Street,Rangiora,
1812605,3330,Victoria Street,Richmond Heights,Taupo
1821405,0820,Victoria Street,Riverhead,
1780580,7681,Victoria Street,Springfield,
1808622,3177,Victoria Street,Tahawai,
1802061,4010,Victoria Street,Te Hapara,Gisborne
1810722,3010,Victoria Street,Victoria,Rotorua
1807047,3610,Victoria Street,Waihi,
1806892,3682,Victoria Street,Waikino,Waihi
1772942,9510,Victoria Street,Waikouaiti,
1783551,7924,Victoria Street,Waimate,
1804411,4210,Victoria Street,Waipawa,
1817051,4320,Victoria Street,Waitara,
1821408,0910,Victoria Street,Warkworth,
1815776,3510,Victoria Street,Whitianga,
1775758,9782,Victoria Street,Winton,
1824182,1010,Victoria Street East,Auckland Central,Auckland
3028420,,Victoria Street West,Auckland Central,Auckland
1827392,2120,Victoria Street West,Pukekohe,
1798032,5570,Victoria Terrace,Ohau,
1783552,7924,Victoria Terrace,Waimate,
1820495,0481,Victoria Valley Road,Kaitaia,
1796213,5032,Victor Road,Raumati Beach,Paraparaumu
1783704,8025,Victors Road,Hoon Hay,Christchurch
1824191,1026,Victor Street,Avondale,Auckland
1805453,4930,Victor Street,Dannevirke,
1817907,4310,Victor Street,Hurdon,New Plymouth
3083251,3204,Victor Way,Hamilton Lake,Hamilton
1794275,6012,Victory Avenue,Karori,Wellington
1793553,5028,Victory Crescent,Tawa,Wellington
1787162,3330,Victory Drive,Wharewaka,Taupo
1797011,4500,Victory Place,Aramoho,Whanganui
1772891,9023,Victory Place,Port Chalmers,Dunedin
1779129,7472,Victory Road,Ashley Forest,Loburn
1810723,3015,Victory Road,Fairy Springs,Rotorua
1823273,0604,Victory Road,Laingholm,Auckland
1832431,2025,Victory Road,Papatoetoe,Auckland
1788024,7830,Victory Street,Reefton,
1808958,3112,Victory Street,Welcome Bay,Tauranga
1822931,0600,Vic Watson Way,New Lynn,Auckland
3081786,4122,Vidal Lane,Parkvale,Hastings
1818022,2016,Vidal Way,Flat Bush,Auckland
1827995,2014,Vida Place,Howick,Auckland
1841452,0420,Vidar Way,Coopers Beach,
1832587,2019,Vidiri Court,Flat Bush,Auckland
1821732,0626,Vienna Place,Birkenhead,Auckland
1830373,1072,Vienna Row,Glen Innes,Auckland
1783689,8023,Vienna Street,Waltham,Christchurch
1838151,2019,Viera Drive,Flat Bush,Auckland
1774534,9292,Viewbank Road,Crichton,Milton
1779431,7583,View Hill Road,Little Akaloa,
1831713,1061,Viewland Avenue,Onehunga,Auckland
1789229,7005,Viewlands Place,Mapua,
3078618,0484,View Lane,Pukenui,
1793190,5010,Viewmont Drive,Harbour View,Lower Hutt
1788400,7011,View Mount,Stoke,Nelson
3005150,9010,Viewpark Lane,Maori Hill,Dunedin
1832849,0612,View Ridge Drive,Ranui,Auckland
1770859,9320,View Road,Bridge Hill,Alexandra
1831075,0630,View Road,"Campbells Bay,Mairangi Bay",Auckland
3049958,2014,View Road,"Cockle Bay,Shelly Park",Auckland
1819011,0612,View Road,"Glendene,Henderson,Sunnyvale",Auckland
1822379,0627,View Road,"Glenfield,Wairau Valley",Auckland
3079120,4779,View Road,Halcombe,
1826096,0114,View Road,Hikurangi,
1794266,6023,View Road,Houghton Bay,Wellington
1810724,3015,View Road,Mangakakahi,Rotorua
1829006,2022,View Road,Mangere,Auckland
1827585,2123,View Road,"Manukau Harbour,Waiuku",Waiuku
1825106,1024,View Road,Mount Eden,Auckland
1789892,7072,View Road,"Nelson Lakes National Park,St. Arnaud",
1798038,3122,View Road,"Opotiki,Waiotahe",Opotiki
1831746,1081,View Road,Ostend,Waiheke Island
1832109,2110,View Road,Papakura,
1812603,3378,View Road,Rotokawa,Taupo
1810068,3910,View Road,Te Kuiti,
3049950,5022,View Road,Titahi Bay,Porirua
1821404,0910,View Road,Warkworth,
1789355,7096,View Road,Woodstock,Motueka
1773360,9230,View Street,Balclutha,
1771872,9016,View Street,Dunedin Central,Dunedin
1777543,9818,View Street,Halfmoon Bay / Oban,Stewart Island
1776594,9812,View Street,Heidelberg,Invercargill
1778663,9679,View Street,Manapouri,
1830664,0520,View Street,Maungaturoto,
1812094,3411,View Street,Putaruru,
1775226,9231,View Street,Stirling,
1772945,9085,View Street,Waitati,
1772943,9471,View Street,Warrington,Waikouaiti
1783695,8022,View Terrace,"Huntsbury,Saint Martins",Christchurch
1810911,3720,View Terrace,Ngaruawahia,
1814840,3912,View Terrace,Piopio,
3083891,2402,Vigneto Street,Pokeno,
1829007,2025,Vigo Place,Papatoetoe,Auckland
1805351,4110,Vigor Brown Street,Napier South,Napier
2018342,2110,Vigour Lane,Papakura,
1825199,1042,Viking Avenue,Hillsborough,Auckland
1840283,3210,Viking Lane,Flagstaff,Hamilton
1776010,9710,Viking Place,Gore,
1805452,4974,Viking Street,Norsewood,
3079132,8025,Vildebeest Street,Halswell,Christchurch
1801240,4894,Viles Road,Bulls,
3038733,5773,Viles Road,"South Featherston,Western Lake",Featherston
1841540,8062,Vili Place,Woolston,Christchurch
1833321,2012,Villa Court,Eastern Beach,Auckland
3082588,3300,Village Boulevard,Morrinsville,
1799429,4410,Village Court,Hokowhitu,Palmerston North
1836558,2010,Village Drive,Sunnyhills,Auckland
1832815,2679,Village Fields Road,Waiau Pa,Pukekohe
3080331,7774,Village Green Drive,Huntingdon,Ashburton
1838405,8025,Village Lane,Halswell,Christchurch
3077717,7011,Village Lane,Stoke,Nelson
1842425,9073,Village Loop Road,Waipori Falls,Outram
1813384,3112,Village Park Drive,Welcome Bay,Tauranga
1778272,9600,Village Place,Te Anau,
1829854,2121,Village Place,Tuakau,
1940276,3204,Village Quarter Lane,Frankton,Hamilton
1826678,0172,Village Road,Pakotai,Whangarei
1810069,3987,Village Road,Pureora Forest Park,
1819496,0592,Village Road,Ruawai,
1804410,4274,Village Road,Tikokino,
1798703,4592,Village Settlement Road,Waverley,
1830166,2582,Village Way,Ardmore,Papakura
1839107,3610,Village Way,Waihi,
1815579,3112,Village Way,Welcome Bay,Tauranga
1785424,8041,Villa Grove,Ilam,Christchurch
1801397,5032,Villa Grove,Paraparaumu,
2017040,9382,Villa Lane,Wanaka,
1799074,7614,Villa Mews,Rolleston,
1832810,0632,Villanova Place,Albany,Auckland
1816997,4312,Villa Place,Bell Block,New Plymouth
1838509,2016,Villarosa Lane,Flat Bush,Auckland
1795089,5810,Villa Street,Masterton,
1798497,3116,Villa Way,Mount Maunganui,
1803868,4104,Villers Street,Bay View,Napier
1771442,9302,Villiers Street,Arrowtown,
1838286,2105,Villino Place,Randwick Park,Auckland
1835702,3121,Villis Glade,Ohope,
1950916,3118,Villosa Court,Papamoa Beach,Papamoa
1829013,2023,Vilma Place,Otara,Auckland
1829004,2022,Vimy Place,Mangere,Auckland
1822166,2016,Vin Alto Drive,Flat Bush,Auckland
1823259,0614,Vina Place,Massey,Auckland
1814973,3700,Vincent Aspey Place,Huntly,
1798500,5510,Vincent Drive,Levin,
1842901,0616,Vincent Lane,Hobsonville,Auckland
3077978,0614,Vincent McGrath Crescent,Swanson,Auckland
1771410,9330,Vincent Place,Clyde,
1807747,3204,Vincent Place,Dinsdale,Hamilton
1783708,8023,Vincent Place,Opawa,Christchurch
1822148,0627,Vincent Road,Northcote Point,Auckland
1824183,1010,Vincent Street,Auckland Central,Auckland
1776725,9877,Vincent Street,Greenhills,Invercargill
1827994,2014,Vincent Street,Howick,Auckland
1811542,3400,Vincent Street,Matamata,
1800254,5011,Vincent Street,Waterloo,Lower Hutt
1797869,4910,Vincent Terrace,Pahiatua,
1823264,0604,Vinceroy Place,Green Bay,Auckland
1833919,2105,Vinci Court,Manurewa,Auckland
1808966,3112,Vine Avenue,Maungatapu,Tauranga
3018607,,Vinegar Hill Road,Hunterville,
3018608,0185,Vinegar Hill Road,"Kauri,Tikipunga","Kauri,Whangarei"
1771025,9386,Vinegar Hill Road,Saint Bathans,
1851117,1021,Vinegar Lane,Grey Lynn,Auckland
3034986,9874,Viner Road,"Branxholme,Oporo,Ryal Bush",Invercargill
1826093,0110,Vinery Lane,Whangarei,
1814477,3216,Vine Street,Hillcrest,Hamilton
1832340,2024,Vine Street,Mangere East,Auckland
1824180,1011,Vine Street,Saint Marys Bay,Auckland
3023470,7920,Vine Street,Temuka,
1826094,0110,Vine Street,Whangarei,
3082650,9371,Vines Way,Gibbston,Queenstown
1830249,0632,Vinewood Drive,Albany,Auckland
3081718,0975,Vineyard Lane,Mangawhai,
1841549,5781,Vineyard Lane,Martinborough,
1842214,0632,Vineyard Road,Albany,Auckland
1823261,0614,Vineyard Road,Henderson Valley,Auckland
1811140,3782,Vineyard Road,Te Kauwhata,
3081461,3782,Vinifera Lane,Te Kauwhata,
3078414,0632,Vinifera Place,Fairview Heights,Auckland
1789784,7011,Vining Crescent,Stoke,Nelson
3077864,0810,Vinistra Road,"Huapai,Kumeu",Kumeu
1781813,7910,Vinnell Street,Parkside,Timaru
3050419,0612,Vino Cina Heights,Ranui,Auckland
1832555,0610,Vinograd Drive,Te Atatu Peninsula,Auckland
1837752,0610,Vin Santo Lane,Te Atatu Peninsula,Auckland
1822814,0612,Vintage Drive,Henderson,Auckland
3078667,0185,Vintage Lane,Kauri,
1791479,7273,Vintage Lane,Rapaura,Blenheim
1832503,1971,Vintage Lane,Waiheke Island,
3081629,9310,Vintage Street,Cromwell,
1824943,1025,Vinter Terrace,Mount Albert,Auckland
3083894,2402,Vintner Lane,Pokeno,
1821409,0810,Vintners Close,Huapai,Kumeu
3039805,3110,Vintners Lane,Bethlehem,Tauranga
1840000,5711,Vintners Lane,Martinborough,
1843011,3283,Vintners Lane,Tamahere,Hamilton
1839952,8023,Vintners Lane,Woolston,Christchurch
3080670,7011,Vintners Way,Stoke,Nelson
3078206,0810,Vintry Drive,"Huapai,Kumeu",Kumeu
1832338,2024,Viola Avenue,Mangere East,Auckland
1827779,2110,Viola Place,Papakura,
1824946,1025,Violet Street,Mount Albert,Auckland
1811087,3225,Violet Street,Raglan,
1777756,9822,Violet Street,Riverton/Aparima,
1814315,3610,Violet Street,Waihi,
1856713,9371,Violet Way,Lower Shotover,Queenstown
1830984,0932,Vipond Road,"Red Beach,Stanmore Bay","Red Beach,Whangaparaoa"
1821422,0975,Vipond Road,Wellsford,
1772011,9016,Vire Street,Dunedin Central,Dunedin
1829853,2105,Vireya Court,Goodwood Heights,Auckland
1784247,8052,Virgil Place,Northcote,Christchurch
1770169,9400,Virgil Street,Oamaru North,Oamaru
1789535,7892,Virgin Flat Road,Virgin Flat,Cape Foulwind
1772009,9014,Virginia Avenue,Broad Bay,Dunedin
1824200,1021,Virginia Avenue East,Eden Terrace,Auckland
1832895,1021,Virginia Avenue West,Eden Terrace,Auckland
1821417,0920,Virginia Circus,Snells Beach,
1797317,4702,Virginia Crescent,Feilding,
1794273,6021,Virginia Grove,Brooklyn,Wellington
1801703,4414,Virginia Grove,Milson,Palmerston North
1797038,4501,Virginia Heights,Otamatea,Whanganui
1787149,8081,Virginia Lane,Mount Pleasant,Christchurch
1816992,4310,Virginia Place,Whalers Gate,New Plymouth
3030970,7385,Virginia Road,"MacDonald Downs,Masons Flat,Virginia",Hawarden
3030971,4500,Virginia Road,"Otamatea,Saint Johns Hill,Whanganui",Whanganui
1832901,0612,Virginia Street,Henderson,Auckland
1822780,0602,Virgo Place,Glen Eden,Auckland
1814956,3010,Virgo Place,Kawaha Point,Rotorua
3083640,2113,Viridian Avenue,Rosehill,Papakura
1840486,0632,Viridian Lane,Greenhithe,Auckland
1781814,7910,Virtue Avenue,Maori Hill,Timaru
1830818,0483,Virtue Crescent,Karikari Peninsula,
3083200,2578,Virtue Drive,Karaka,Papakura
1785800,8053,Virtue Place,Bishopdale,Christchurch
3000037,4410,Virtue Place,Hokowhitu,Palmerston North
1793191,5010,Viscount Grove,Kelson,Lower Hutt
1770111,9300,Viscount Lane,Frankton,Queenstown
1783702,8061,Viscount Place,Burwood,Christchurch
1799185,4412,Viscount Place,West End,Palmerston North
1772944,9018,Viscount Road,Waldronville,Dunedin
1829000,2022,Viscount Street,Mangere,Auckland
1838701,2025,Vision Place,Papatoetoe,Auckland
3079704,3112,Visko Way,Ohauiti,Tauranga
1842491,3114,Vista Close,Omokoroa,
1792718,5018,Vista Crescent,"Brown Owl,Maoribank",Upper Hutt
1824190,1071,Vista Crescent,Glendowie,Auckland
3084080,7615,Vista Crescent,Rolleston,
1839275,7011,Vista Drive,Bishopdale,Nelson
1799636,4702,Vista Drive,Feilding,
3078102,2019,Vista Estate Boulevard,Flat Bush,Auckland
1793194,5010,Vista Grove,Kelson,Lower Hutt
1840056,0573,Vista Lane,Kaiwaka,
1821414,0932,Vista Motu,Red Beach,
1806598,3579,Vista Paku,Pauanui,
1828999,2102,Vista Place,Hillpark,Auckland
1783918,8022,Vista Place,Huntsbury,Christchurch
1810725,3010,Vista Place,Kawaha Point,Rotorua
1826088,0112,Vista Place,Tikipunga,Whangarei
1798045,5570,Vista Road,Ohau,
1807748,3216,Vista Terrace,Hillcrest,Hamilton
1774425,9371,Vista Terrace,Wye Creek,Queenstown
2007273,3720,Vi Taha Lane,Ngaruawahia,
3080205,7674,Vitalia Crescent,Lincoln,
1822816,0612,Vitasovich Avenue,Henderson,Auckland
1832837,0612,Vitex Lane,Henderson,Auckland
1839270,7632,Vitruvius Way,Leeston,
1839846,7612,Vittoria Lane,Pegasus,
1842215,2019,Vittoria Terrace,Flat Bush,Auckland
1840735,0272,Vittorio Drive,Russell,
1841501,7614,Vivaldi Lane,Rolleston,
1829724,1041,Vivaldi Place,Mount Roskill,Auckland
1799172,0984,Viv Davie-Martin Drive,Warkworth,
3079315,2402,Viv Green Place,Pokeno,
3039290,0920,Vivian Bay,"Kawau Island,Vivian Bay",Kawau Island
1808617,3114,Vivian Drive,Omokoroa,
1789800,7011,Vivian Place,Annesbrook,Nelson
1841399,0932,Vivian Road,Silverdale,
1783706,8083,Vivian Street,Burwood,Christchurch
1802062,4010,Vivian Street,Inner Kaiti,Gisborne
1807749,3206,Vivian Street,Melville,Hamilton
3040307,6011,Vivian Street,"Mount Victoria,Te Aro",Wellington
3040310,4310,Vivian Street,New Plymouth,
1799183,4414,Vivian Street,Palmerston North,
1795003,5810,Vivian Street,Solway,Masterton
1829002,2012,Vivian Wilson Drive,"Bucklands Beach,Eastern Beach",Auckland
3033851,2679,Vivien Place,Patumahoe,Pukekohe
1823268,0610,Vodanovich Road,Te Atatu South,Auckland
3066607,8082,Voelas Road,Lyttelton,
1776591,9810,Vogel Court,Waikiwi,Invercargill
1800585,5810,Vogel Crescent,Masterton,
1831477,1010,Vogel Lane,Auckland Central,Auckland
1814168,3434,Vogel Place,Cambridge,
1804262,4110,Vogel Place,Marewa,Napier
1814099,3320,Vogel Place,Te Aroha,
1776589,9810,Vogel Place,Waikiwi,Invercargill
1801047,4996,Vogel Street,Alfredton,Eketahuna
1812727,3434,Vogel Street,Cambridge,
1772000,9016,Vogel Street,Dunedin Central,Dunedin
1816998,4312,Vogel Street,Fitzroy,New Plymouth
1776008,9710,Vogel Street,Gore,
1797660,4779,Vogel Street,Halcombe,
1818269,4610,Vogel Street,Hawera,
1819742,0210,Vogel Street,Kawakawa,
1809878,3127,Vogel Street,Kawerau,
1797415,4777,Vogel Street,Kiwitea,Feilding
1798498,5510,Vogel Street,Levin,
1795959,4472,Vogel Street,Linton,Palmerston North
1800464,6011,Vogel Street,Mount Victoria,Wellington
1801518,5011,Vogel Street,Naenae,Lower Hutt
1783700,8013,Vogel Street,Richmond,Christchurch
1792047,4414,Vogel Street,Roslyn,Palmerston North
1798035,4821,Vogel Street,Shannon,
1780582,7500,Vogel Street,Sheffield,
1776598,9810,Vogel Street,Waikiwi,Invercargill
1798700,4588,Vogel Street,Waitotara,Whanganui
1802059,4010,Vogel Street,Whataupoko,Gisborne
3062794,4920,Vogel Street,Woodville,
1836598,2104,Vogler Drive,Wiri,Auckland
3081067,4310,Vogue Circle,Vogeltown,New Plymouth
2004371,0810,Vogwill Road,Kumeu,
3077655,3210,Voight Avenue,Chartwell,Hamilton
1776191,9772,Voight Road,"Diamond Peak,Pukerau",Gore
1829017,2103,Volante Avenue,Wattle Downs,Auckland
1838929,0179,Volcanic Lane,Maunu,Whangarei
1825071,1041,Volcanic Street,Mount Eden,Auckland
3006309,7683,Volckman Road,"Doyleston,Leeston",
1794268,6023,Volga Street,Island Bay,Wellington
1793196,5011,Volkner Grove,Waterloo,Lower Hutt
1830413,0632,Volkner Place,Rosedale,Auckland
1829003,2010,Voltaire Court,Botany Downs,Auckland
1794265,6012,Voltaire Street,Karori,Wellington
1829555,2103,Volta Place,Clendon Park,Auckland
1805164,4130,Von Dadelszen Place,Havelock North,
1840837,9672,Von Loop Road,Mount Nicholas,Te Anau
1822377,0626,Vonnell Place,Birkdale,Auckland
1774818,9300,Von Place,Fernhill,Queenstown
3023825,,Von Road,"Mavora,Mount Nicholas,Walter Peak",Te Anau
1829022,2024,Von Sturmer Street,Mangere East,Auckland
1818145,4614,Von Tempsky Street,Normanby,Hawera
1777458,7204,Vorbach Place,Renwick,
1857482,3187,Vos Close,Papamoa Beach,Papamoa
1840135,3432,Vosper Close,Leamington,Cambridge
1811974,3482,Vospers Road,Lichfield,Putaruru
1811543,3400,Vosper Street,Matamata,
1788688,7120,Vosper Street,Motueka,
1789504,7010,Vosper Street,Toi Toi,Nelson
1797658,4779,Voss Road,Halcombe,
1780667,7674,Voss Road,"Halswell,Lincoln","Christchurch,Lincoln"
1783685,8013,Voss Street,Shirley,Christchurch
1830299,0930,Voyager Drive,Gulf Harbour,Whangaparaoa
2004297,3591,Voyager Place,Cooks Beach,Whitianga
1799764,5024,Voyager Way,Whitby,Porirua
1811144,3781,Vrsaljkos Road,Waerenga,Te Kauwhata
2006684,0932,Vue Terrace,Silverdale,
3078778,1072,Vui Talitu Way,Glen Innes,Auckland
3034402,0473,Vujcich Road,"Oue,Whirinaki","Kaikohe,Whirinaki"
1838816,4110,Vulcan Lane,Ahuriri,Napier
1824187,1010,Vulcan Lane,Auckland Central,Auckland
1784250,8024,Vulcan Place,Middleton,Christchurch
1779856,7483,Vulcan Road,"Motunau,Teviotdale","Greta Valley,Waipara"
1775587,9018,Vulcan Road,Waldronville,Dunedin
1776727,9879,Vyner Road,Otatara,Invercargill
